[{"name":"410","zip":"21206","hood":"Frankford","stationId":"3","address":"4509 BELAIR ROAD\nBaltimore, MD\n"},{"name":"1919","zip":"21231","hood":"Fells Point","stationId":"7","address":"1919 FLEET ST\nBaltimore, MD\n"},{"name":"SAUTE","zip":"21224","hood":"Canton","stationId":"7","address":"2844 HUDSON ST\nBaltimore, MD\n"},{"name":"#1 CHINESE KITCHEN","zip":"21211","hood":"Hampden","stationId":"2","address":"3998 ROLAND AVE\nBaltimore, MD\n"},{"name":"#1 chinese restaurant","zip":"21223","hood":"Millhill","stationId":"8","address":"2481 frederick ave\nBaltimore, MD\n"},{"name":"19TH HOLE","zip":"21218","hood":"Clifton Park","stationId":"3","address":"2722 HARFORD RD\nBaltimore, MD\n"},{"name":"3 KINGS","zip":"21205","hood":"McElderry Park","stationId":"7","address":"2510 MCELDERRY ST\nBaltimore, MD\n"},{"name":"3 MILES HOUSE, INC.","zip":"21211","hood":"Remington","stationId":"2","address":"2701 MILES AVE\nBaltimore, MD\n"},{"name":"3 W'S TAVERN","zip":"21205","hood":"McElderry Park","stationId":"7","address":"2518 MONUMENT ST\nBaltimore, MD\n"},{"name":"300 SOUTH ANN STREET","zip":"21231","hood":"Upper Fells Point","stationId":"7","address":"300 ANN ST\nBaltimore, MD\n"},{"name":"438 CLUB","zip":"21226","hood":"Curtis Bay","stationId":"6","address":"1600 HAZEL ST\nBaltimore, MD\n"},{"name":"5-MILE HOUSE","zip":"21215","hood":"Woodmere","stationId":"4","address":"5302 REISTERSTOWN RD\nBaltimore, MD\n"},{"name":"743 S. MONTFORD,INC.","zip":"21224","hood":"Canton","stationId":"7","address":"743 MONTFORD ST\nBaltimore, MD\n"},{"name":"A & W RESTAURANT","zip":"21224","hood":"Pulaski Industrial Area","stationId":"7","address":"5625 O DONNELL ST\nBaltimore, MD\n"},{"name":"A TASTE OF CHINA","zip":"21202","hood":"Downtown","stationId":"1","address":"219 BALTIMORE ST\nBaltimore, MD\n"},{"name":"ABACROMBIE FINE FOODS","zip":"21201","hood":"Mid-Town Belvedere","stationId":"1","address":"58 BIDDLE STREET\nBaltimore, MD\n"},{"name":"ABC SUSHI","zip":"21205","hood":"Middle East","stationId":"5","address":"2003 MONUMENT ST\nBaltimore, MD\n"},{"name":"ACROPOLIS RESTAURANT","zip":"21224","hood":"Greektown","stationId":"7","address":"4718 5 AVE\nBaltimore, MD\n"},{"name":"ADMIRAL FELL INN","zip":"21231","hood":"Fells Point","stationId":"7","address":"818 BROADWAY\nBaltimore, MD\n"},{"name":"AG & HARP'S","zip":"21230","hood":"Morrell Park","stationId":"8","address":"2522 WASHINGTON BLVD\nBaltimore, MD\n"},{"name":"AIRPORT BAR & GRILL, INC.","zip":"21222","hood":"Saint Helena","stationId":"7","address":"6500 RIVERVIEW AVE\nBaltimore, MD\n"},{"name":"AKBAR RESTAURANT","zip":"21201","hood":"Mount Vernon","stationId":"1","address":"823 CHARLES ST\nBaltimore, MD\n"},{"name":"AKDEY SUBWAY, INC.","zip":"21223","hood":"Millhill","stationId":"8","address":"2407 FREDERICK AVE\nBaltimore, MD\n"},{"name":"ALDO'S   RESTAURANT","zip":"21202","hood":"Little Italy","stationId":"7","address":"306 HIGH ST\nBaltimore, MD\n"},{"name":"ALE MARY'S","zip":"21231","hood":"Fells Point","stationId":"7","address":"1939 FLEET ST\nBaltimore, MD\n"},{"name":"ALEXANDER'S TAVERN","zip":"21231","hood":"Fells Point","stationId":"7","address":"710 BROADWAY\nBaltimore, MD\n"},{"name":"ALFEO'S","zip":"21215","hood":"Mondawmin","stationId":"9","address":"2401 LIBERTY HEIGHTS AVE\nBaltimore, MD\n"},{"name":"AL-HO CLUB","zip":"21223","hood":"Booth-Boyd","stationId":"8","address":"2105 FREDERICK AVE\nBaltimore, MD\n"},{"name":"BAY ATLANTIC CLUB","zip":"21212","hood":"Downtown","stationId":"1","address":"206 REDWOOD ST\nBaltimore, MD\n"},{"name":"BAY CAFE","zip":"21224","hood":"Canton","stationId":"7","address":"2809 BOSTON ST\nBaltimore, MD\n"},{"name":"BEACH  BUMS CAF","zip":"21230","hood":"Federal Hill","stationId":"6","address":"1038 LIGHT ST\nBaltimore, MD\n"},{"name":"BECKER'S TAVERN","zip":"21224","hood":"Baltimore Highlands","stationId":"7","address":"3820 PRATT ST\nBaltimore, MD\n"},{"name":"BEDROCK","zip":"21201","hood":"Downtown","stationId":"1","address":"401 BALTIMORE ST\nBaltimore, MD\n"},{"name":"BEDROCK (KITCHEN AREA)","zip":"21201","hood":"Downtown","stationId":"1","address":"401 BALTIMORE ST\nBaltimore, MD\n"},{"name":"BELAIR PUB","zip":"21206","hood":"Glenham-Belford","stationId":"3","address":"5860 BELAIR RD\nBaltimore, MD\n"},{"name":"BELT STREET PUB","zip":"21230","hood":"Riverside","stationId":"6","address":"1747 BELT ST\nBaltimore, MD\n"},{"name":"BELVEDERE TOWERS CAF","zip":"21210","hood":"Roland Park","stationId":"2","address":"1190 2 PKWY\nBaltimore, MD\n"},{"name":"BERGER'S TAVERN, INCORPORATED","zip":"21206","hood":"Waltherson","stationId":"3","address":"5523 BELAIR RD\nBaltimore, MD\n"},{"name":"BERMUDA BAR","zip":"21213","hood":"Broadway East","stationId":"5","address":"1801 NORTH AVE\nBaltimore, MD\n"},{"name":"BERTHA'S RESTAURANT","zip":"21231","hood":"Fells Point","stationId":"7","address":"734 BROADWAY\nBaltimore, MD\n"},{"name":"BERT'S EATS & DRINKS (3103-05)","zip":"21218","hood":"Charles Village","stationId":"2","address":"3105 ST PAUL ST\nBaltimore, MD\n"},{"name":"BEST 9 TRAVEL PLAZA","zip":"21224","hood":"Pulaski Industrial Area","stationId":"7","address":"5625 O DONNELL ST\nBaltimore, MD\n"},{"name":"BIG APPLE TREE CAF","zip":"21202","hood":"Downtown","stationId":"1","address":"300 BALTIMORE ST\nBaltimore, MD\n"},{"name":"BIG BAD WOLF'S HOUSE OF BARBEQUE","zip":"21214","hood":"Harford-Echodale/Perring Parkway","stationId":"3","address":"5713 HARFORD RD\nBaltimore, MD\n"},{"name":"BIG KAHUNA CANTINA","zip":"21202","hood":"Inner Harbor","stationId":"1","address":"301 LIGHT ST\nBaltimore, MD\n"},{"name":"BIG TEE'S BAR & GRILL","zip":"21224","hood":"Greektown","stationId":"7","address":"300 OLDHAM ST\nBaltimore, MD\n"},{"name":"BILL'S 60'S & 70'S CLUB","zip":"21223","hood":"Hollins Market","stationId":"6","address":"1000 LOMBARD ST\nBaltimore, MD\n"},{"name":"BILL'S CAFE","zip":"21222","hood":"Graceland Park","stationId":"7","address":"6701 HOLABIRD AVE\nBaltimore, MD\n"},{"name":"BILL'S LIGHTHOUSE INN","zip":"21230","hood":"Riverside","stationId":"6","address":"1741 LIGHT ST\nBaltimore, MD\n"},{"name":"BILTMORE SUITES HOTEL","zip":"21201","hood":"Mount Vernon","stationId":"1","address":"205 MADISON ST\nBaltimore, MD\n"},{"name":"BIRCHES RESTAURANT","zip":"21224","hood":"Canton","stationId":"7","address":"641 MONTFORD AVE\nBaltimore, MD\n"},{"name":"BIRDS OF A FEATHER","zip":"21231","hood":"Fells Point","stationId":"7","address":"1712 ALICEANNA ST\nBaltimore, MD\n"},{"name":"BLACKTIE SERVICE, LLP","zip":"21215","hood":"Seton Business Park","stationId":"4","address":"4700 MT HOPE DR\nBaltimore, MD\n"},{"name":"BLACKTIE SERVICES","zip":"21211","hood":"Woodberry","stationId":"2","address":"3725 MALDEN AVE\nBaltimore, MD\n"},{"name":"BLARNEY STONE INN","zip":"21225","hood":"Brooklyn","stationId":"6","address":"3915 HANOVER ST\nBaltimore, MD\n"},{"name":"BLARNEY STONE PUB","zip":"21231","hood":"Fells Point","stationId":"7","address":"704 BROADWAY\nBaltimore, MD\n"},{"name":"BLEACHERS","zip":"21224","hood":"Canton","stationId":"7","address":"2501 FLEET ST\nBaltimore, MD\n"},{"name":"ALLEN RESTAURANT","zip":"21206","hood":"Waltherson","stationId":"3","address":"5621 BELAIR RD\nBaltimore, MD\n"},{"name":"ALOHA TOKYO","zip":"21230","hood":"Locust Point Industrial Area","stationId":"6","address":"1120 FORT AVE\nBaltimore, MD\n"},{"name":"ALONSO'S RESTAURANT & COCKTAIL LOUNGE","zip":"21210","hood":"Evergreen","stationId":"2","address":"415 COLD SPRING LN\nBaltimore, MD\n"},{"name":"AMBASSADOR DINNING ROOM","zip":"21218","hood":"Tuscany-Canterbury","stationId":"2","address":"3811 CANTERBURY RD\nBaltimore, MD\n"},{"name":"AMBROSIA'S","zip":"21230","hood":"Cherry Hill","stationId":"6","address":"1810 CHERRY HILL RD\nBaltimore, MD\n"},{"name":"AMERICAN FOOD SERVICE","zip":"21223","hood":"Hollins Market","stationId":"6","address":"901 PRATT ST\nBaltimore, MD\n"},{"name":"AMERICAN LEGION FEDERAL POST #19","zip":"21217","hood":"Madison Park","stationId":"1","address":"1502 MADISON AVE\nBaltimore, MD\n"},{"name":"AMERICAN LEGION POST #187","zip":"21226","hood":"Curtis Bay","stationId":"6","address":"1527 CHERRY ST\nBaltimore, MD\n"},{"name":"AMERICAN LEIGON FORT MCHENRY POST #133","zip":"21230","hood":"Riverside","stationId":"6","address":"506 FORT AVE\nBaltimore, MD\n"},{"name":"AMIGO'S BAR","zip":"21224","hood":"Highlandtown","stationId":"7","address":"400 EATON ST\nBaltimore, MD\n"},{"name":"ANGELINA'S","zip":"21234","hood":"North Harford Road","stationId":"3","address":"7135 HARFORD RD\nBaltimore, MD\n"},{"name":"ANGELO'S RESTAURANT & CARRYOUT","zip":"21211","hood":"Wyman Park","stationId":"2","address":"3600 KESWICK RD\nBaltimore, MD\n"},{"name":"ANGELS ROCK BAR","zip":"21202","hood":"Downtown","stationId":"1","address":"10 MARKET PLACE\nBaltimore, MD\n"},{"name":"ANGLE INN","zip":"21224","hood":"Pulaski Industrial Area","stationId":"7","address":"5805 O Donnell ST\nBaltimore, MD\n"},{"name":"ANNABEL LEE TAVERN","zip":"21224","hood":"Canton","stationId":"7","address":"601 CLINTON ST\nBaltimore, MD\n"},{"name":"ANNS AT LEXINGTON PLACE","zip":"21201","hood":"Seton Hill","stationId":"1","address":"631 LEXINGTON ST\nBaltimore, MD\n"},{"name":"APPLEBEE'S NEIGHBORHOOD GRILL & BAR","zip":"21215","hood":"Fallstaff","stationId":"4","address":"6798 REISTERSTOWN RD\nBaltimore, MD\n"},{"name":"aramark at citi bank baltimore","zip":"21202","hood":"Downtown","stationId":"1","address":"300 st paul pl\nBaltimore, MD\n"},{"name":"ARAMARK FHC SPORTS  (MAIN KITCHEN)","zip":"21230","hood":"Stadium Area","stationId":"6","address":"1101 RUSSELL ST\nBaltimore, MD\n"},{"name":"ARAMARK FHC SPORTS (BAR 200-201)","zip":"21230","hood":"Stadium Area","stationId":"6","address":"1101 RUSSELL ST\nBaltimore, MD\n"},{"name":"ARAMARK FHC SPORTS (BAR 210)","zip":"21230","hood":"Stadium Area","stationId":"6","address":"1101 RUSSELL ST\nBaltimore, MD\n"},{"name":"ARAMARK FHC SPORTS (BAR 217)","zip":"21230","hood":"Stadium Area","stationId":"6","address":"1101 RUSSELL ST\nBaltimore, MD\n"},{"name":"ARAMARK FHC SPORTS (BAR 221)","zip":"21230","hood":"Stadium Area","stationId":"6","address":"1101 RUSSELL ST\nBaltimore, MD\n"},{"name":"ARAMARK FHC SPORTS (BAR 232)","zip":"21230","hood":"Stadium Area","stationId":"6","address":"1101 RUSSELL ST\nBaltimore, MD\n"},{"name":"ARAMARK FHC SPORTS (BAR 236)","zip":"21230","hood":"Stadium Area","stationId":"6","address":"1101 RUSSELL ST\nBaltimore, MD\n"},{"name":"ARAMARK FHC SPORTS (BAR 244)","zip":"21230","hood":"Stadium Area","stationId":"6","address":"1101 RUSSELL ST\nBaltimore, MD\n"},{"name":"ARAMARK FHC SPORTS (BAR 252-253)","zip":"21230","hood":"Stadium Area","stationId":"6","address":"1101 RUSSELL ST\nBaltimore, MD\n"},{"name":"ARAMARK/PNC","zip":"21201","hood":"Downtown","stationId":"1","address":"Hopkins Pl\nBaltimore, MD\n"},{"name":"ARA-MONUMENTAL LIFE INSURANCE COMPANY","zip":"21202","hood":"Mid-Town Belvedere","stationId":"1","address":"2 CHASE ST\nBaltimore, MD\n"},{"name":"ARCH SOCIAL CLUB","zip":"21217","hood":"Penn North","stationId":"1","address":"2426 PENNSYLVANIA\nBaltimore, MD\n"},{"name":"ARCOS","zip":"21231","hood":"Washington Hill","stationId":"7","address":"129 BROADWAY\nBaltimore, MD\n"},{"name":"ARIZONA BAR & GRILL","zip":"21231","hood":"Washington Hill","stationId":"7","address":"25 BROADWAY\nBaltimore, MD\n"},{"name":"ASAHI SUSHI","zip":"21231","hood":"Fells Point","stationId":"7","address":"629 BROADWAY\nBaltimore, MD\n"},{"name":"asian taste","zip":"21211","hood":"Hampden","stationId":"2","address":"916 36th st\nBaltimore, MD\n"},{"name":"ATWATER'S","zip":"21212","hood":"Chinquapin Park-Belvedere","stationId":"2","address":"529 BELVEDERE AVE\nBaltimore, MD\n"},{"name":"AU BON PAIN","zip":"21202","hood":"Downtown","stationId":"1","address":"1 SOUTH ST\nBaltimore, MD\n"},{"name":"AUSTIN GRILL","zip":"21224","hood":"Canton","stationId":"7","address":"2400 BOSTON ST\nBaltimore, MD\n"},{"name":"AUSTIN GRILL","zip":"21224","hood":"Canton","stationId":"7","address":"2400 BOSTON ST\nBaltimore, MD\n"},{"name":"AVENUE BAR & LIQUOR","zip":"21202","hood":"Johnston Square","stationId":"5","address":"1238 GREENMOUNT AVE\nBaltimore, MD\n"},{"name":"azteca de oro","zip":"21224","hood":"Greektown","stationId":"7","address":"4901 eastern ave\nBaltimore, MD\n"},{"name":"B","zip":"21217","hood":"Bolton Hill","stationId":"1","address":"1501 bolton ST\nBaltimore, MD\n"},{"name":"B & J RESTAURANT","zip":"21223","hood":"Carrollton Ridge","stationId":"8","address":"2251 WILKENS AVE\nBaltimore, MD\n"},{"name":"B & O CAFE","zip":"21223","hood":"New Southwest/Mount Clare","stationId":"6","address":"1301 PRATT ST\nBaltimore, MD\n"},{"name":"B G'S","zip":"21223","hood":"Carrollton Ridge","stationId":"6","address":"301 PAYSON ST\nBaltimore, MD\n"},{"name":"B.G.'S,PUB INCORPORATED","zip":"21224","hood":"Greektown","stationId":"7","address":"619 OLDHAM ST\nBaltimore, MD\n"},{"name":"babalu grill","zip":"21202","hood":"Downtown","stationId":"1","address":"34 MARKET PL\nBaltimore, MD\n"},{"name":"BACKSTRETCH SALOON","zip":"21209","hood":"Medfield","stationId":"2","address":"1301 OLD COLDSPRING Ln\nBaltimore, MD\n"},{"name":"BAJA BEACH CLUB  (COMBINED WITH BAR-L)","zip":"21202","hood":"Downtown","stationId":"1","address":"55 MARKET PL\nBaltimore, MD\n"},{"name":"BALTIMORE BEVERAGE CO. LLC","zip":"21201","hood":"Downtown","stationId":"1","address":"20 BALTIMORE ST\nBaltimore, MD\n"},{"name":"BALTIMORE BEVERAGE CO. -STARBUCKS","zip":"21201","hood":"Downtown","stationId":"1","address":"20 BALTIMORE ST\nBaltimore, MD\n"},{"name":"BALTIMORE COUNTRY CLUB","zip":"21210","hood":"Roland Park","stationId":"2","address":"4712 CLUB RD\nBaltimore, MD\n"},{"name":"BALTIMORE DELIGHT RESTAURANT","zip":"21224","hood":"Greektown","stationId":"7","address":"4713 5 AVENUE\nBaltimore, MD\n"},{"name":"BALTIMORE EAGLE, INC.","zip":"21218","hood":"Charles North","stationId":"2","address":"2022 CHARLES ST\nBaltimore, MD\n"},{"name":"BALTIMORE ESTONIAN SOCIETY","zip":"21213","hood":"South Clifton Park","stationId":"5","address":"1932 BELAIR RD\nBaltimore, MD\n"},{"name":"BALTIMORE MARRIOTT WATERFRONT/EMPLOYEE CAFETERIA","zip":"21202","hood":"Inner Harbor","stationId":"7","address":"700 ALICEANNA ST\nBaltimore, MD\n"},{"name":"BALTIMORE MARRIOTT WATERFRONT/GRILLE 700 RESTAURAN","zip":"21202","hood":"Inner Harbor","stationId":"7","address":"700 ALICEANNA ST\nBaltimore, MD\n"},{"name":"BALTIMORE MARRIOTT WATERFRONT/KOZMOS BAR","zip":"21202","hood":"Inner Harbor","stationId":"7","address":"700 ALICEANNA ST\nBaltimore, MD\n"},{"name":"BALTIMORE MARRIOTT WATERFRONT/RIGANOS DELI","zip":"21202","hood":"Inner Harbor","stationId":"7","address":"700 ALICEANNA ST\nBaltimore, MD\n"},{"name":"BALTIMORE MARRIOTT-INNER HARBOR/EMP. CAFETERIA","zip":"21202","hood":"Inner Harbor","stationId":"6","address":"110 EUTAW ST\nBaltimore, MD\n"},{"name":"BALTIMORE MARRIOTT-INNER HARBOR/REST/BAR","zip":"21201","hood":"Inner Harbor","stationId":"6","address":"110 EUTAW ST\nBaltimore, MD\n"},{"name":"BALTIMORE PHO","zip":"21223","hood":"Hollins Market","stationId":"6","address":"1114 16 HOLLINS ST\nBaltimore, MD\n"},{"name":"BALTMORE KICKERS","zip":"21231","hood":"Washington Hill","stationId":"7","address":"26 BROADWAY\nBaltimore, MD\n"},{"name":"BANJARA","zip":"21230","hood":"Federal Hill","stationId":"6","address":"1015 CHARLES ST\nBaltimore, MD\n"},{"name":"BANTHAI","zip":"21201","hood":"Downtown","stationId":"1","address":"340 CHARLES ST\nBaltimore, MD\n"},{"name":"BARISTA ESPRESSO CAF","zip":"21230","hood":"Inner Harbor","stationId":"6","address":"500 HARBORVIEW DR\nBaltimore, MD\n"},{"name":"BARNES & NOBLE BOOKSELLERS","zip":"21202","hood":"Inner Harbor","stationId":"1","address":"601 PRATT ST\nBaltimore, MD\n"},{"name":"BARTENDERS","zip":"21231","hood":"Canton","stationId":"7","address":"2218 BOSTON ST\nBaltimore, MD\n"},{"name":"BLU BAMBU-FRESH AISIAN EATS","zip":"21202","hood":"Inner Harbor","stationId":"1","address":"621 PRATT ST\nBaltimore, MD\n"},{"name":"BLUE AGAVE RESTAURANT AND TEQUILERIA","zip":"21230","hood":"Federal Hill","stationId":"6","address":"1032 LIGHT ST\nBaltimore, MD\n"},{"name":"BLUE CRAB EXPRESS & CAF INC.","zip":"21230","hood":"Cherry Hill","stationId":"6","address":"1020 PATAPSCO AVE\nBaltimore, MD\n"},{"name":"blue island malaysian cuisine","zip":"21201","hood":"Downtown","stationId":"1","address":"400 lexington st\nBaltimore, MD\n"},{"name":"BLUE JEAN CAFE","zip":"21224","hood":"Broening Manor","stationId":"7","address":"6422 HOLABIRD AVE\nBaltimore, MD\n"},{"name":"BLUE MOON  DINING  HOUSE  & EXPRESSO  BAR","zip":"21231","hood":"Fells Point","stationId":"7","address":"1621 ALICEANNA ST\nBaltimore, MD\n"},{"name":"BLUE PARROT","zip":"21206","hood":"Glenham-Belford","stationId":"3","address":"5860 BELAIR RD\nBaltimore, MD\n"},{"name":"BLUE POINT CRAB HOUSE (seasonal)","zip":"21224","hood":"Patterson Place","stationId":"7","address":"237 MONTFORD AVE\nBaltimore, MD\n"},{"name":"BLUE SEA GRILL","zip":"21202","hood":"Downtown","stationId":"1","address":"614 WATER ST\nBaltimore, MD\n"},{"name":"BLUE SKY RESTAURANT","zip":"21201","hood":"Downtown","stationId":"1","address":"237 PARK AVE\nBaltimore, MD\n"},{"name":"BLUEHOUSE","zip":"21231","hood":"Fells Point","stationId":"7","address":"1407 FLEET ST\nBaltimore, MD\n"},{"name":"BO BROOKS","zip":"21224","hood":"Canton","stationId":"7","address":"2701 BOSTON ST\nBaltimore, MD\n"},{"name":"BOB CUMMINGS PLACE","zip":"21224","hood":"Baltimore-Linwood","stationId":"7","address":"148 EAST AVE\nBaltimore, MD\n"},{"name":"BOB DELI","zip":"21224","hood":"Hopkins Bayview","stationId":"7","address":"333 CASSELL DR\nBaltimore, MD\n"},{"name":"BOB'S BAR","zip":"21230","hood":"Washington Village","stationId":"6","address":"1173 WASHINGTON BLVD\nBaltimore, MD\n"},{"name":"BOB'S OLDIE'S CAF","zip":"21224","hood":"Brewers Hill","stationId":"7","address":"4017 19 5 AVE\nBaltimore, MD\n"},{"name":"BOCCACCIO","zip":"21202","hood":"Little Italy","stationId":"7","address":"925 5 AVE\nBaltimore, MD\n"},{"name":"BOP BRICK OVEN PIZZA","zip":"21231","hood":"Fells Point","stationId":"7","address":"800 BROADWAY\nBaltimore, MD\n"},{"name":"BOUILLABAISSE CAF","zip":"21201","hood":"Downtown","stationId":"1","address":"316 PARK AVE\nBaltimore, MD\n"},{"name":"BOULDER GARDEN CAFE","zip":"21210","hood":"Loyola/Notre Dame","stationId":"2","address":"4501 CHARLES ST\nBaltimore, MD\n"},{"name":"BRASS MONKEY SALOON","zip":"21231","hood":"Fells Point","stationId":"7","address":"1601 5 AVE\nBaltimore, MD\n"},{"name":"BRASSERIE TATIN","zip":"21210","hood":"Tuscany-Canterbury","stationId":"2","address":"105 39TH ST\nBaltimore, MD\n"},{"name":"BREEZE INC.","zip":"21211","hood":"Hampden","stationId":"2","address":"850 36TH ST\nBaltimore, MD\n"},{"name":"BRENDAL, INC.","zip":"21230","hood":"Riverside","stationId":"6","address":"201 FORT AVE\nBaltimore, MD\n"},{"name":"BREWER'S HILL PUB & GRILL","zip":"21224","hood":"Brewers Hill","stationId":"7","address":"3734 FLEET ST\nBaltimore, MD\n"},{"name":"BREWSTER'S TAVERN","zip":"21231","hood":"Upper Fells Point","stationId":"7","address":"2201 GOUGH ST\nBaltimore, MD\n"},{"name":"BROADWAY DINER","zip":"21224","hood":"Pulaski Industrial Area","stationId":"7","address":"6501 5 AVE\nBaltimore, MD\n"},{"name":"BROOKEY'S","zip":"21206","hood":"Belair-Edison","stationId":"3","address":"4201 BELAIR RD\nBaltimore, MD\n"},{"name":"BROOKLYN BOOSTER CLUB","zip":"21225","hood":"Brooklyn","stationId":"6","address":"646 PATAPSCO AVE\nBaltimore, MD\n"},{"name":"BROOKLYN INN, LLC","zip":"21225","hood":"Brooklyn","stationId":"6","address":"705 PATAPSCO\nBaltimore, MD\n"},{"name":"BROOKLYN PLEASURE CLUB","zip":"21225","hood":"Brooklyn","stationId":"6","address":"430 PATAPSCO AVE\nBaltimore, MD\n"},{"name":"BROTHERS PLACE, INC.","zip":"21223","hood":"Carrollton Ridge","stationId":"6","address":"1846 PRATT ST\nBaltimore, MD\n"},{"name":"BRUCE MCKELDIN CONSULTING, LLC","zip":"21231","hood":"Fells Point","stationId":"7","address":"702 BROADWAY\nBaltimore, MD\n"},{"name":"BUD PAOLINO'S RESTAURANT","zip":"21224","hood":"Baltimore Highlands","stationId":"7","address":"3919 LOMBARD ST\nBaltimore, MD\n"},{"name":"BUFFALO WINGGS AND BEER","zip":"21234","hood":"North Harford Road","stationId":"3","address":"7653 HARFORD RD\nBaltimore, MD\n"},{"name":"BULL ROBINSON  LIQUORS (AKA 2736 GREENMOUNT AV","zip":"21218","hood":"Harwood","stationId":"2","address":"454 WHITERIDGE AVE\nBaltimore, MD\n"},{"name":"BULLSEYE BAR & GRILLE","zip":"21234","hood":"North Harford Road","stationId":"3","address":"7653 HARFORD RD\nBaltimore, MD\n"},{"name":"BURGER KING","zip":"21230","hood":"Carroll Park","stationId":"6","address":"1735 WASHINGTON BLVD\nBaltimore, MD\n"},{"name":"BURGER KING","zip":"21231","hood":"Fells Point","stationId":"7","address":"2033 5 AVE\nBaltimore, MD\n"},{"name":"BURGER KING","zip":"21224","hood":"Kresson","stationId":"5","address":"4100 PULASKI HWY\nBaltimore, MD\n"},{"name":"BURGER KING","zip":"21202","hood":"Downtown","stationId":"1","address":"8 FAYETTE ST\nBaltimore, MD\n"},{"name":"BURGER KING # 10293","zip":"21217","hood":"Druid Heights","stationId":"1","address":"1201 NORTH AVE\nBaltimore, MD\n"},{"name":"BURGER KING # 13360","zip":"21211","hood":"Remington","stationId":"2","address":"555 29TH ST\nBaltimore, MD\n"},{"name":"BURGER KING #10294","zip":"21202","hood":"Pleasant View Gardens","stationId":"7","address":"1241 ORLEANS ST\nBaltimore, MD\n"},{"name":"BURGER KING #10295","zip":"21215","hood":"Central Park Heights","stationId":"4","address":"4400 REISTERSTOWN RD\nBaltimore, MD\n"},{"name":"BURGER KING #1950","zip":"21230","hood":"Cherry Hill","stationId":"6","address":"1437 PATAPSCO AVE\nBaltimore, MD\n"},{"name":"BURGER KING #2610","zip":"21215","hood":"Mondawmin","stationId":"9","address":"2401 LIBERTY HEIGHTS AVE\nBaltimore, MD\n"},{"name":"BURKE'S CAFE, INCORPORATED","zip":"21202","hood":"Downtown","stationId":"1","address":"36 LIGHT ST\nBaltimore, MD\n"},{"name":"BURKE'S CAF/ COMEDY FACTORY","zip":"21202","hood":"Downtown","stationId":"1","address":"36 LIGHT ST\nBaltimore, MD\n"},{"name":"BUSTER'S PUB","zip":"21224","hood":"Baltimore-Linwood","stationId":"7","address":"3208 LOMBARD ST\nBaltimore, MD\n"},{"name":"BUTTS & BETTY'S TAVERN, INC.","zip":"21231","hood":"Upper Fells Point","stationId":"7","address":"2200 GOUGH ST\nBaltimore, MD\n"},{"name":"B-WATCH","zip":"21231","hood":"Fells Point","stationId":"7","address":"2000 5 AVE\nBaltimore, MD\n"},{"name":"BYZANTIO CAF","zip":"21224","hood":"Greektown","stationId":"7","address":"4618 5 AVE\nBaltimore, MD\n"},{"name":"CAF AZAFRAN","zip":"21218","hood":"Johns Hopkins Homewood","stationId":"2","address":"3700 SAN MARTIN DR\nBaltimore, MD\n"},{"name":"CAF EXPRESS","zip":"21201","hood":"Downtown","stationId":"1","address":"36 CHARLES ST\nBaltimore, MD\n"},{"name":"CAF GIA","zip":"21202","hood":"Little Italy","stationId":"7","address":"410 HIGH ST\nBaltimore, MD\n"},{"name":"CAF GOURMET","zip":"21201","hood":"Downtown","stationId":"1","address":"1 CHARLES ST\nBaltimore, MD\n"},{"name":"CAFE' INTERNATIONALE","zip":"21202","hood":"Inner Harbor","stationId":"1","address":"401 PRATT ST\nBaltimore, MD\n"},{"name":"CAF LATTE 'DA","zip":"21231","hood":"Fells Point","stationId":"7","address":"1704 ALICEANNA ST\nBaltimore, MD\n"},{"name":"CAFE MANET","zip":"21230","hood":"Federal Hill","stationId":"6","address":"1020 CHARLES ST\nBaltimore, MD\n"},{"name":"CAF ON THE SQUARE, LLC","zip":"21201","hood":"Downtown","stationId":"1","address":"11 PACA ST\nBaltimore, MD\n"},{"name":"CAF SUSSIE'S","zip":"21202","hood":"Greenmount West","stationId":"5","address":"203 NORTH AVE\nBaltimore, MD\n"},{"name":"CAFE ZEN","zip":"21212","hood":"Rosebank","stationId":"2","address":"438 BELVEDERE AVE\nBaltimore, MD\n"},{"name":"CALIFORNIA PIZZA KITCHEN","zip":"21202","hood":"Inner Harbor","stationId":"1","address":"201 PRATT ST\nBaltimore, MD\n"},{"name":"CAMDEN PUB","zip":"21201","hood":"University Of Maryland","stationId":"1","address":"647 PRATT ST\nBaltimore, MD\n"},{"name":"CAMERON'S SEAFOOD","zip":"21215","hood":"Central Park Heights","stationId":"4","address":"2707 COLD SPRING LN\nBaltimore, MD\n"},{"name":"CANTINA LAS AMERICAS/LA RUMBA","zip":"21202","hood":"Washington Hill","stationId":"7","address":"1650 54 E PRATT ST\nBaltimore, MD\n"},{"name":"CANTON COVE","zip":"21224","hood":"Canton","stationId":"7","address":"901 CLINTON ST\nBaltimore, MD\n"},{"name":"CANTON STATION","zip":"21224","hood":"Canton Industrial Area","stationId":"7","address":"1028 CONKLING ST\nBaltimore, MD\n"},{"name":"CANTON'S PEARLS","zip":"21224","hood":"Canton","stationId":"7","address":"3301 BOSTON ST\nBaltimore, MD\n"},{"name":"CANTON'S PORTSIDE TAVERN","zip":"21224","hood":"Canton","stationId":"7","address":"2821 O DONNELL ST\nBaltimore, MD\n"},{"name":"CAPTAIN LARRY'S","zip":"21230","hood":"Riverside","stationId":"6","address":"601 FORT AVE\nBaltimore, MD\n"},{"name":"caribbean paradise","zip":"21201","hood":"Charles North","stationId":"1","address":"1818 charles ST\nBaltimore, MD\n"},{"name":"CARIBOU COFFEE","zip":"21201","hood":"Downtown","stationId":"1","address":"1 CHARLES ST\nBaltimore, MD\n"},{"name":"CARL REFEERS BAR & GRILL","zip":"21231","hood":"Fells Point","stationId":"7","address":"707 BROADWAY\nBaltimore, MD\n"},{"name":"CARLOS O'CHARLIES","zip":"21224","hood":"Highlandtown","stationId":"7","address":"3508 5 AVE\nBaltimore, MD\n"},{"name":"CARL'S LITTLE HOUSE","zip":"21230","hood":"Washington Village","stationId":"6","address":"1171 HAMBURG ST\nBaltimore, MD\n"},{"name":"CARLYLE CLUB","zip":"21210","hood":"Roland Park","stationId":"2","address":"500 UNIVERSITY PKWY\nBaltimore, MD\n"},{"name":"CAROLINAS TEX- MEX RESTAURANT","zip":"21231","hood":"Fells Point","stationId":"7","address":"1704 GOUGH ST\nBaltimore, MD\n"},{"name":"CAROLINA'S TEX-MEX RESTURANT","zip":"21231","hood":"Fells Point","stationId":"7","address":"505 BROADWAY\nBaltimore, MD\n"},{"name":"CARROLL STATION","zip":"21223","hood":"Carroll Park","stationId":"6","address":"1415 WASHINGTON BLVD\nBaltimore, MD\n"},{"name":"CARROLL STATION","zip":"21230","hood":"Carroll Park","stationId":"6","address":"1415 19 WASHINGTON BLVD\nBaltimore, MD\n"},{"name":"CASSANOVIA","zip":"21217","hood":"Penn North","stationId":"9","address":"2700 PENNSYLVANIA AVE\nBaltimore, MD\n"},{"name":"CASTAWAY'S BAR &  GRILL","zip":"21231","hood":"Canton","stationId":"7","address":"2206 BOSTON ST\nBaltimore, MD\n"},{"name":"CATALINA RESTAURANT","zip":"21230","hood":"Inner Harbor","stationId":"6","address":"500 HARBOR VIEW DR\nBaltimore, MD\n"},{"name":"CATCH 22 SALOON","zip":"21224","hood":"Joseph Lee","stationId":"7","address":"6000 5 AVE\nBaltimore, MD\n"},{"name":"CATON HOUSE RESTAURANT","zip":"21227","hood":"Morrell Park","stationId":"8","address":"1506 CATON AVE\nBaltimore, MD\n"},{"name":"CATTLE & FIN GRILL","zip":"21234","hood":"Woodring","stationId":"3","address":"6826 HARFORD RD\nBaltimore, MD\n"},{"name":"CAZBAR","zip":"21201","hood":"Downtown","stationId":"1","address":"316 CHARLES ST\nBaltimore, MD\n"},{"name":"CC LOUNGE","zip":"21215","hood":"Lucille Park","stationId":"4","address":"4923 REISTERSTOWN RD\nBaltimore, MD\n"},{"name":"CEASAR'S DEN","zip":"21202","hood":"Little Italy","stationId":"7","address":"223 HIGH ST\nBaltimore, MD\n"},{"name":"CEDONIA INN","zip":"21206","hood":"Frankford","stationId":"3","address":"5900 MORAVIA RD\nBaltimore, MD\n"},{"name":"CENTER CLUB, INCORPORATED","zip":"21201","hood":"Inner Harbor","stationId":"1","address":"100 LIGHT ST\nBaltimore, MD\n"},{"name":"CENTER STAGE","zip":"21202","hood":"Mount Vernon","stationId":"1","address":"700 CALVERT ST\nBaltimore, MD\n"},{"name":"1 STATION","zip":"21201","hood":"Mid-Town Belvedere","stationId":"1","address":"1001 CHARLES ST\nBaltimore, MD\n"},{"name":"CERIELLO FINE FOODS","zip":"21212","hood":"Chinquapin Park-Belvedere","stationId":"2","address":"529 BELVEDERE AVE\nBaltimore, MD\n"},{"name":"CHAMPAGNE TONY'S","zip":"21202","hood":"Mid-Town Belvedere","stationId":"1","address":"1 CHASE ST\nBaltimore, MD\n"},{"name":"CHARLES & MADISON, LLC","zip":"21201","hood":"Mount Vernon","stationId":"1","address":"801 CHARLES ST\nBaltimore, MD\n"},{"name":"CHARLES RESTAURANT  &  CARRYOUT","zip":"21218","hood":"Charles Village","stationId":"2","address":"38 25TH ST\nBaltimore, MD\n"},{"name":"CHARLES ST DELI","zip":"21201","hood":"Downtown","stationId":"1","address":"2 charles st\nBaltimore, MD\n"},{"name":"CHARLES VILLAGE PUB","zip":"21218","hood":"Charles Village","stationId":"2","address":"3107 ST PAUL ST\nBaltimore, MD\n"},{"name":"CHARLESTON","zip":"21202","hood":"Inner Harbor","stationId":"7","address":"1000 LANCASTER ST\nBaltimore, MD\n"},{"name":"CHARLIE & DEE RESTAURANT","zip":"21230","hood":"Washington Village","stationId":"6","address":"1539 BUSH ST\nBaltimore, MD\n"},{"name":"CHARLOTTE'S","zip":"21230","hood":"Riverside","stationId":"6","address":"1542 LIGHT ST\nBaltimore, MD\n"},{"name":"CHARM CITY INN","zip":"21224","hood":"Greektown","stationId":"7","address":"500 LEHIGH ST\nBaltimore, MD\n"},{"name":"CHAZZ &  REN'E","zip":"21224","hood":"Canton","stationId":"7","address":"800 KENWOOD AVE\nBaltimore, MD\n"},{"name":"CHEERLEADERS","zip":"21231","hood":"Fells Point","stationId":"7","address":"702 BROADWAY\nBaltimore, MD\n"},{"name":"CHEERLEADERS SPORTS BAR","zip":"21231","hood":"Fells Point","stationId":"7","address":"702 BROADWAY ST\nBaltimore, MD\n"},{"name":"CHEF PAOLINO","zip":"21201","hood":"Inner Harbor","stationId":"1","address":"100 CHARLES ST\nBaltimore, MD\n"},{"name":"CHESAPEAKE BAY RESTAURANT","zip":"21218","hood":"Johns Hopkins Homewood","stationId":"2","address":"10 ART MUSEUM DR\nBaltimore, MD\n"},{"name":"CHESAPEAKE WINE COMPANY","zip":"21224","hood":"Canton","stationId":"7","address":"2400 BOSTON ST\nBaltimore, MD\n"},{"name":"CHIAPPARELLI'S RESTAURANT","zip":"21202","hood":"Little Italy","stationId":"7","address":"237 HIGH ST\nBaltimore, MD\n"},{"name":"CHIC & TROUT (1007-09)","zip":"21202","hood":"Johnston Square","stationId":"5","address":"1007 GREENMOUNT AVE\nBaltimore, MD\n"},{"name":"CHICKEN RICO","zip":"21224","hood":"Brewers Hill","stationId":"7","address":"3728 5 AVE\nBaltimore, MD\n"},{"name":"CHIMES CAF","zip":"21215","hood":"Seton Business Park","stationId":"4","address":"4814 SETON DR\nBaltimore, MD\n"},{"name":"CHINA CHEF","zip":"21224","hood":"Baltimore Highlands","stationId":"7","address":"3816 LOMBARD ST\nBaltimore, MD\n"},{"name":"CHINA EAST","zip":"21224","hood":"Joseph Lee","stationId":"7","address":"6230 5 AVE\nBaltimore, MD\n"},{"name":"CHINA EUTAW EXPRESS","zip":"21201","hood":"Downtown","stationId":"1","address":"236 238 N EUTAW ST\nBaltimore, MD\n"},{"name":"CHINA GARDEN","zip":"21202","hood":"Oldtown","stationId":"5","address":"582 OLD TOWN MALL\nBaltimore, MD\n"},{"name":"CHINA WOK","zip":"21239","hood":"Loch Raven","stationId":"3","address":"5820 HILLEN RD\nBaltimore, MD\n"},{"name":"CHINATOWN CAF","zip":"21201","hood":"Downtown","stationId":"1","address":"323 PARK AVE\nBaltimore, MD\n"},{"name":"CHINESE DELIGHT","zip":"21211","hood":"Hampden","stationId":"2","address":"4032 FALLS RD\nBaltimore, MD\n"},{"name":"CHIPOTLE","zip":"21202","hood":"Inner Harbor","stationId":"1","address":"621 PRATT ST\nBaltimore, MD\n"},{"name":"CHIPOTLE MEXICAN GRILL","zip":"21218","hood":"Charles Village","stationId":"2","address":"3201 ST PAUL ST\nBaltimore, MD\n"},{"name":"CHIU'S SUSHI JAPANESE RESTAURANT","zip":"21202","hood":"Inner Harbor","stationId":"7","address":"608 EXETER ST\nBaltimore, MD\n"},{"name":"CHIYO SUSHI","zip":"21209","hood":"Mount Washington","stationId":"2","address":"1619 SULGRAVE AVE\nBaltimore, MD\n"},{"name":"CHOCOLATEA","zip":"21218","hood":"Tuscany-Canterbury","stationId":"2","address":"3811 CANTERBURY RD\nBaltimore, MD\n"},{"name":"CHOPPER'S TAVERN","zip":"21217","hood":"Upton","stationId":"1","address":"1531 PENNSYLVANIA AVE\nBaltimore, MD\n"},{"name":"CHOW  MEIN CHARLIES  chinese food","zip":"21210","hood":"Roland Park","stationId":"2","address":"508 COLD SPRING LN\nBaltimore, MD\n"},{"name":"CHRIS LIQUOR & GRILL","zip":"21230","hood":"Washington Village","stationId":"6","address":"1273 washington blvd\nBaltimore, MD\n"},{"name":"CHUBBIES CLUB","zip":"21231","hood":"Fells Point","stationId":"7","address":"2000 5 AVE\nBaltimore, MD\n"},{"name":"CHUCK'S","zip":"21224","hood":"Canton","stationId":"7","address":"3137 5 AVE\nBaltimore, MD\n"},{"name":"CHUNG MEE RESTAURANT","zip":"21239","hood":"Woodbourne Heights","stationId":"2","address":"5646 THE\nBaltimore, MD\n"},{"name":"CIAO BELLA RESTAURANT","zip":"21202","hood":"Little Italy","stationId":"7","address":"236 HIGH ST\nBaltimore, MD\n"},{"name":"CINCO DE MAYO","zip":"21231","hood":"Little Italy","stationId":"7","address":"1312 5 AVE\nBaltimore, MD\n"},{"name":"CINGHIALE","zip":"21202","hood":"Inner Harbor","stationId":"7","address":"822 LANCASTER ST\nBaltimore, MD\n"},{"name":"CIRCUS BAR & RESTAURANT","zip":"21202","hood":"Downtown","stationId":"1","address":"427 BALTIMORE ST\nBaltimore, MD\n"},{"name":"CITY LIMITS SPORTS BAR","zip":"21230","hood":"Locust Point","stationId":"6","address":"1700 FORT AVE\nBaltimore, MD\n"},{"name":"claddagh pub","zip":"21224","hood":"Canton","stationId":"7","address":"2918 O DONNELL ST\nBaltimore, MD\n"},{"name":"CLASSIC CAFE EXPRESS","zip":"21201","hood":"Mid-Town Belvedere","stationId":"1","address":"1515 CHARLES ST\nBaltimore, MD\n"},{"name":"CLAYTON FINE BOOKS & CAF","zip":"21201","hood":"Downtown","stationId":"1","address":"317 CHARLES ST\nBaltimore, MD\n"},{"name":"CLIFTON PARK GOLF COURSE SNACK BAR","zip":"21213","hood":"Darley Park","stationId":"3","address":"2701 ST LO DR\nBaltimore, MD\n"},{"name":"CLIPPER MILL INN","zip":"21211","hood":"Hampden","stationId":"2","address":"1619 UNION AVE\nBaltimore, MD\n"},{"name":"CLUB 1722","zip":"21201","hood":"Charles North","stationId":"1","address":"1722 CHARLES ST\nBaltimore, MD\n"},{"name":"CLUB BAR","zip":"21217","hood":"Sandtown-Winchester","stationId":"9","address":"1609 LAURENS ST\nBaltimore, MD\n"},{"name":"CLUB BUNNS (606-08)","zip":"21201","hood":"Seton Hill","stationId":"1","address":"606 LEXINGTON ST\nBaltimore, MD\n"},{"name":"club charles zodiac     (1724-1726 n. charles st)","zip":"21201","hood":"Charles North","stationId":"1","address":"1724 CHARLES ST\nBaltimore, MD\n"},{"name":"CLUB CHOICES","zip":"21201","hood":"Charles North","stationId":"1","address":"1817 CHARLES ST\nBaltimore, MD\n"},{"name":"CLUB CLIMAX","zip":"21223","hood":"Shipley Hill","stationId":"8","address":"2432 BALTIMORE ST\nBaltimore, MD\n"},{"name":"CLUB CONFETTI","zip":"21231","hood":"Fells Point","stationId":"7","address":"1609 BANK ST\nBaltimore, MD\n"},{"name":"CLUB HAREM","zip":"21202","hood":"Downtown","stationId":"1","address":"425 BALTIMORE ST\nBaltimore, MD\n"},{"name":"CLUB HOUSE BAR & GRILL","zip":"21213","hood":"Orangeville Industrial Area","stationId":"5","address":"4217 ERDMAN AVE\nBaltimore, MD\n"},{"name":"CLUB HUSH","zip":"21223","hood":"Carrollton Ridge","stationId":"6","address":"1930 LOMBARD ST\nBaltimore, MD\n"},{"name":"CLUB INTERNATIONAL","zip":"21223","hood":"Shipley Hill","stationId":"8","address":"2301 BALTIMORE ST\nBaltimore, MD\n"},{"name":"CLUB LUZERENE","zip":"21205","hood":"McElderry Park","stationId":"7","address":"542 LUZERNE AVE\nBaltimore, MD\n"},{"name":"CLUB MATE","zip":"21225","hood":"Brooklyn","stationId":"6","address":"3610 HANOVER ST\nBaltimore, MD\n"},{"name":"CLUB MIAMI","zip":"21202","hood":"Downtown","stationId":"1","address":"414 BALTIMORE ST\nBaltimore, MD\n"},{"name":"CLUB MITCHELL","zip":"21202","hood":"Jonestown","stationId":"7","address":"1003 PRATT ST\nBaltimore, MD\n"},{"name":"CLUB OKAPI","zip":"21223","hood":"Carrollton Ridge","stationId":"8","address":"2219 PRATT ST\nBaltimore, MD\n"},{"name":"CLUB ONE","zip":"21202","hood":"Downtown","stationId":"1","address":"300 SARATOGA ST\nBaltimore, MD\n"},{"name":"CLUB PHOENIX","zip":"21201","hood":"Mid-Town Belvedere","stationId":"1","address":"1 BIDDLE ST\nBaltimore, MD\n"},{"name":"CLUB PUSSYCAT","zip":"21202","hood":"Downtown","stationId":"1","address":"411 BALTIMORE ST\nBaltimore, MD\n"},{"name":"CLUB RIO & TOUCH OF CLASS","zip":"21216","hood":"Winchester","stationId":"8","address":"1315 Bloomingdale Dr\nBaltimore, MD\n"},{"name":"CLUBHOUSE BAR","zip":"21223","hood":"Carrollton Ridge","stationId":"6","address":"1812 PRATT ST\nBaltimore, MD\n"},{"name":"CLUBHOUSE BAR & GRILL","zip":"21213","hood":"Orangeville Industrial Area","stationId":"5","address":"4217 ERDMAN AVE\nBaltimore, MD\n"},{"name":"COACH HOUSE INN","zip":"21206","hood":"Cedmont","stationId":"3","address":"6605 BELAIR RD\nBaltimore, MD\n"},{"name":"COCKY LOU'S","zip":"21213","hood":"Broadway East","stationId":"5","address":"2101 NORTH AVE\nBaltimore, MD\n"},{"name":"COCO MOKA CAF","zip":"21230","hood":"Riverside","stationId":"6","address":"921 FORT AVE\nBaltimore, MD\n"},{"name":"COCONUT CAF","zip":"21201","hood":"Mount Vernon","stationId":"1","address":"311 MADISON ST\nBaltimore, MD\n"},{"name":"COFFEE LAND","zip":"21201","hood":"Downtown","stationId":"1","address":"222 CHARLES ST\nBaltimore, MD\n"},{"name":"COLD STONE CREAMERY #1479","zip":"21225","hood":"Canton","stationId":"7","address":"2500 BOSTON ST\nBaltimore, MD\n"},{"name":"COLD STONE CREAMERY# 102","zip":"21224","hood":"Canton","stationId":"7","address":"2500 BOSTON ST\nBaltimore, MD\n"},{"name":"COLLINS CORNER","zip":"21230","hood":"Westport","stationId":"6","address":"2231 CEDLEY ST\nBaltimore, MD\n"},{"name":"COLONIAL INN","zip":"21224","hood":"Fells Point","stationId":"7","address":"2001 5 AVE\nBaltimore, MD\n"},{"name":"COMMON GROUND","zip":"21211","hood":"Hampden","stationId":"2","address":"819 36TH ST\nBaltimore, MD\n"},{"name":"COOKIE'S  CITY  LINE  DINER","zip":"21226","hood":"Hawkins Point","stationId":"6","address":"6407 FORT SMALLWOOD RD\nBaltimore, MD\n"},{"name":"COOPER'S LIQUOR (568-570)","zip":"21202","hood":"Oldtown","stationId":"5","address":"568 OLD TOWN MALL\nBaltimore, MD\n"},{"name":"COPRA","zip":"21201","hood":"Downtown","stationId":"1","address":"313 CHARLES ST\nBaltimore, MD\n"},{"name":"CORKS","zip":"21230","hood":"Federal Hill","stationId":"6","address":"1026 CHARLES ST\nBaltimore, MD\n"},{"name":"CORKY'S GRILL","zip":"21211","hood":"Remington","stationId":"2","address":"225 23RD ST\nBaltimore, MD\n"},{"name":"CORRADO'S CAF","zip":"21208","hood":"Downtown","stationId":"1","address":"203 REDWOOD ST\nBaltimore, MD\n"},{"name":"COSI, INC. # 157","zip":"21202","hood":"Inner Harbor","stationId":"1","address":"100 CHARLES ST\nBaltimore, MD\n"},{"name":"COSMOPOLITAN BAR & GRILL","zip":"21224","hood":"Canton","stationId":"7","address":"2933 O DONNELL ST\nBaltimore, MD\n"},{"name":"COSMOS RESTAURANT-CARRYOUT (5427-29)","zip":"21214","hood":"Harford-Echodale/Perring Parkway","stationId":"3","address":"5427 HARFORD RD\nBaltimore, MD\n"},{"name":"COTTON CLUB","zip":"21217","hood":"Midtown-Edmondson","stationId":"9","address":"2000 HARLEM AVE\nBaltimore, MD\n"},{"name":"courthouse east caf‚'","zip":"21202","hood":"Downtown","stationId":"1","address":"111 calvert st\nBaltimore, MD\n"},{"name":"COURTYARD BY MARRIOTT & COURTYARD CAFE & LOUNGE","zip":"21202","hood":"Inner Harbor","stationId":"7","address":"1000 ALICEANNA ST\nBaltimore, MD\n"},{"name":"crazy johns","zip":"21202","hood":"Downtown","stationId":"1","address":"410 BALTIMORE ST\nBaltimore, MD\n"},{"name":"CRAZY LIL'S","zip":"21230","hood":"Federal Hill","stationId":"6","address":"27 CROSS ST\nBaltimore, MD\n"},{"name":"CREATIVE ALLIANCE","zip":"21224","hood":"Canton","stationId":"7","address":"3134 5 AVE\nBaltimore, MD\n"},{"name":"CREPE DU JOUR","zip":"21209","hood":"Mount Washington","stationId":"2","address":"1609 SULGRAVE AVE\nBaltimore, MD\n"},{"name":"CROSSROADS SPORTS PUB & GRILL","zip":"21224","hood":"Canton","stationId":"7","address":"3328 FOSTER AVE\nBaltimore, MD\n"},{"name":"CURB SHOPPE","zip":"21209","hood":"North Roland Park/Poplar Hill","stationId":"2","address":"5736 FALLS RD\nBaltimore, MD\n"},{"name":"CURLEY ST.  CAF","zip":"21224","hood":"Canton","stationId":"7","address":"701 CURLEY ST\nBaltimore, MD\n"},{"name":"CURTIS BAY ATHLETIC CLUB","zip":"21226","hood":"Curtis Bay","stationId":"6","address":"1603 CEDDOX ST\nBaltimore, MD\n"},{"name":"D J'S GASLIGHT","zip":"21226","hood":"Curtis Bay","stationId":"6","address":"4900 CURTIS AVE\nBaltimore, MD\n"},{"name":"DAILY  GRIND  COFFEE  HOUSE","zip":"21205","hood":"Middle East","stationId":"5","address":"720 RUTLAND AVE\nBaltimore, MD\n"},{"name":"DAILY GRIND","zip":"21224","hood":"Canton","stationId":"7","address":"1030 LINWOOD AVE\nBaltimore, MD\n"},{"name":"DAILY GRIND","zip":"21205","hood":"Dunbar-Broadway","stationId":"5","address":"610 WASHINGTON ST\nBaltimore, MD\n"},{"name":"dalesio's of little italy llc","zip":"21202","hood":"Little Italy","stationId":"7","address":"829 5 AVE\nBaltimore, MD\n"},{"name":"DANCING PIGS","zip":"21230","hood":"Washington Village","stationId":"6","address":"1140 PACA ST\nBaltimore, MD\n"},{"name":"DANNY'S LOUNGE","zip":"21215","hood":"Towanda-Grantley","stationId":"4","address":"4316 REISTERSTOWN RD\nBaltimore, MD\n"},{"name":"DARBY'S","zip":"21230","hood":"Morrell Park","stationId":"8","address":"2351 WASHINGTON BLVD\nBaltimore, MD\n"},{"name":"DARKER THAN BLUE","zip":"21218","hood":"Better Waverly","stationId":"2","address":"3034 GREENMOUNT AVE\nBaltimore, MD\n"},{"name":"DASH SEAFOOD & CHICKEN","zip":"21215","hood":"Central Park Heights","stationId":"4","address":"5124 PARK HEIGHTS AVE\nBaltimore, MD\n"},{"name":"DAVEY JONES LOCKER","zip":"21224","hood":"Brewers Hill","stationId":"7","address":"800 DEAN ST\nBaltimore, MD\n"},{"name":"DAVID & DAD'S LLC","zip":"21201","hood":"Downtown","stationId":"1","address":"334 CHARLES ST\nBaltimore, MD\n"},{"name":"DAVID'S RESTAURANT & DELI","zip":"21211","hood":"Hampden","stationId":"2","address":"3626-A FALLS RD\nBaltimore, MD\n"},{"name":"DAYS INNS MANAGEMENT CO","zip":"21201","hood":"Inner Harbor","stationId":"1","address":"100 HOPKINS PLZ\nBaltimore, MD\n"},{"name":"DEAD END SALOON","zip":"21231","hood":"Fells Point","stationId":"7","address":"935 FELL ST\nBaltimore, MD\n"},{"name":"DEAD FREDDIES","zip":"21234","hood":"North Harford Road","stationId":"3","address":"7209 HARFORD RD\nBaltimore, MD\n"},{"name":"DECADES SPORTS BAR","zip":"21226","hood":"Curtis Bay","stationId":"6","address":"4221 CURTIS AVE\nBaltimore, MD\n"},{"name":"DECKERS BAR & GRILLE","zip":"21230","hood":"Locust Point","stationId":"6","address":"1401 DECATUR ST\nBaltimore, MD\n"},{"name":"DEEP SIDE RESTAURANT & CAF","zip":"21224","hood":"Baltimore-Linwood","stationId":"7","address":"123 CLINTON ST\nBaltimore, MD\n"},{"name":"DEGO DAME'S","zip":"21202","hood":"Little Italy","stationId":"7","address":"1018 5 AVE\nBaltimore, MD\n"},{"name":"DELLA ROSE'S 2 CANTON CROSSING","zip":"21224","hood":"Canton Industrial Area","stationId":"7","address":"1501 CLINTON ST\nBaltimore, MD\n"},{"name":"DESERT CAFE'(1605-07)","zip":"21209","hood":"Mount Washington","stationId":"2","address":"1607 SULGRAVE AVE\nBaltimore, MD\n"},{"name":"DESERT INN","zip":"21217","hood":"Midtown-Edmondson","stationId":"9","address":"1901 HARLEM AVE\nBaltimore, MD\n"},{"name":"DIAMOND LOUNGE   (415 1/2 E. BALTIMORE STREET)","zip":"21202","hood":"Downtown","stationId":"1","address":"415 BALTIMORE ST\nBaltimore, MD\n"},{"name":"DIANNE'S RESTAURANT LOUNGE","zip":"21205","hood":"Middle East","stationId":"5","address":"709 711 N CHESTER ST\nBaltimore, MD\n"},{"name":"DILONE GROCERY & RESTAURANT","zip":"21224","hood":"Baltimore-Linwood","stationId":"7","address":"157 LAKEWOOD AVE\nBaltimore, MD\n"},{"name":"DIMIS CAF AND GRILL, INC.","zip":"21210","hood":"Roland Park","stationId":"2","address":"500 COLDSPRING LN\nBaltimore, MD\n"},{"name":"DIMITRI'S TAVERN","zip":"21211","hood":"Hampden","stationId":"2","address":"3820 FALLS RD\nBaltimore, MD\n"},{"name":"DING HOW RESTAURANT","zip":"21231","hood":"Fells Point","stationId":"7","address":"631 BROADWAY\nBaltimore, MD\n"},{"name":"DIONYSUS RESTAURANT & LOUNGE","zip":"21202","hood":"Mid-Town Belvedere","stationId":"1","address":"8 PRESTON ST\nBaltimore, MD\n"},{"name":"DIZZY  IZZY","zip":"21211","hood":"Remington","stationId":"2","address":"300 30TH ST\nBaltimore, MD\n"},{"name":"DOMINICANO INTERNACIONAL","zip":"21224","hood":"Brewers Hill","stationId":"7","address":"601 CONKLING ST\nBaltimore, MD\n"},{"name":"DOMINO SUGAR CAFATERIA OPERATION # 65227","zip":"21230","hood":"Riverside","stationId":"6","address":"1100 KEY HWY\nBaltimore, MD\n"},{"name":"DONNA'S","zip":"21201","hood":"Inner Harbor","stationId":"6","address":"110 PACA ST\nBaltimore, MD\n"},{"name":"DONNA'S","zip":"21222","hood":"Holabird Industrial Park","stationId":"7","address":"6607 PINE AVE\nBaltimore, MD\n"},{"name":"DONNA'S","zip":"21201","hood":"Mount Vernon","stationId":"1","address":"800 CHARLES ST\nBaltimore, MD\n"},{"name":"DONNA'S CHARLES VILLAGE, LLC","zip":"21218","hood":"Charles Village","stationId":"2","address":"3101 ST PAUL ST\nBaltimore, MD\n"},{"name":"DONNA'S CROSS KEYS","zip":"21210","hood":"Cross Keys","stationId":"2","address":"5100 FALLS RD\nBaltimore, MD\n"},{"name":"DONRITZ BAR & GRILL","zip":"21223","hood":"Franklin Square","stationId":"9","address":"1508 SARATOGA ST\nBaltimore, MD\n"},{"name":"DOUGHERTY'S","zip":"21201","hood":"Mid-Town Belvedere","stationId":"1","address":"223 CHASE ST\nBaltimore, MD\n"},{"name":"DOWN THE HATCH","zip":"21230","hood":"Locust Point","stationId":"6","address":"1157 HAUBERT ST\nBaltimore, MD\n"},{"name":"DOWNTOWN SPORTS EXCHANGE","zip":"21201","hood":"Inner Harbor","stationId":"1","address":"200 PRATT ST\nBaltimore, MD\n"},{"name":"DREAM TAVERN, CARRIBEAN  U.S.A.","zip":"21213","hood":"Broadway East","stationId":"5","address":"2300 LAFAYETTE AVE\nBaltimore, MD\n"},{"name":"DREAMS INN","zip":"21225","hood":"Brooklyn","stationId":"6","address":"527 PATAPSCO AVE\nBaltimore, MD\n"},{"name":"DRIFTERS RAW BAR & GRILL","zip":"21230","hood":"Federal Hill","stationId":"6","address":"1024 CHARLES ST\nBaltimore, MD\n"},{"name":"DUCK'S BLACK SATIN LOUNGE","zip":"21215","hood":"Central Park Heights","stationId":"4","address":"4559 REISTERSTOWN RD\nBaltimore, MD\n"},{"name":"DUCKY PLEASURE CLUB","zip":"21224","hood":"Canton","stationId":"7","address":"900 CLINTON ST\nBaltimore, MD\n"},{"name":"DUCLAW BREWING COMPANY","zip":"21231","hood":"Gay Street","stationId":"5","address":"901 BOND ST\nBaltimore, MD\n"},{"name":"DUDA'S TAVERN","zip":"21231","hood":"Fells Point","stationId":"7","address":"1600 THAMES ST\nBaltimore, MD\n"},{"name":"DUKEM ETHIOPIAN RESTAURANT","zip":"21201","hood":"Mid-Town Belvedere","stationId":"1","address":"1100 MARYLAND AVE\nBaltimore, MD\n"},{"name":"DUNKIN DONUTS","zip":"21211","hood":"Hampden","stationId":"2","address":"1020 41ST ST\nBaltimore, MD\n"},{"name":"Dunkin Donuts","zip":"21224","hood":"Orangeville","stationId":"7","address":"4022 pulaski hwy\nBaltimore, MD\n"},{"name":"DUNKIN DONUTS","zip":"21209","hood":"Cross Keys","stationId":"2","address":"4535 FALLS RD\nBaltimore, MD\n"},{"name":"DUNKIN DONUTS","zip":"21212","hood":"Homeland","stationId":"2","address":"5422 YORK RD\nBaltimore, MD\n"},{"name":"DUNKIN DONUTS","zip":"21215","hood":"Fallstaff","stationId":"4","address":"7000 REISTERSTOWN RD\nBaltimore, MD\n"},{"name":"DUNKIN DONUTS & BASKIN ROBBINS","zip":"21214","hood":"Harford-Echodale/Perring Parkway","stationId":"3","address":"5401 HARFORD RD\nBaltimore, MD\n"},{"name":"DUNKIN DONUTS/BASKIN ROBBINS","zip":"21224","hood":"Canton Industrial Area","stationId":"7","address":"3600 BOSTON ST\nBaltimore, MD\n"},{"name":"DUTCH POT CAF","zip":"21201","hood":"Downtown","stationId":"1","address":"102 CLAY ST\nBaltimore, MD\n"},{"name":"DYNASTY","zip":"21202","hood":"Downtown","stationId":"1","address":"406 BALTIMORE ST\nBaltimore, MD\n"},{"name":"E C CAF & CATERING","zip":"21224","hood":"Hopkins Bayview","stationId":"7","address":"5501 HOPKINS BAYVIEW CIR\nBaltimore, MD\n"},{"name":"EAGLE NEST","zip":"21226","hood":"Curtis Bay","stationId":"6","address":"4800 CURTIS AVE\nBaltimore, MD\n"},{"name":"EAST BALTIMORE ENTERPRISE","zip":"21202","hood":"Jonestown","stationId":"7","address":"239 GAY ST\nBaltimore, MD\n"},{"name":"5 HOUSE RESTAURANT","zip":"21224","hood":"Highlandtown","stationId":"7","address":"3706 5 AVE\nBaltimore, MD\n"},{"name":"EASTSIDE  SPORTS  SOCIAL  CLUB","zip":"21213","hood":"Broadway East","stationId":"5","address":"1203 COLLINGTON AVE\nBaltimore, MD\n"},{"name":"EAT MUST BE FIRST","zip":"21201","hood":"Seton Hill","stationId":"1","address":"600 lexington st\nBaltimore, MD\n"},{"name":"ECLECTIC CAF","zip":"21231","hood":"Fells Point","stationId":"7","address":"723 BROADWAY\nBaltimore, MD\n"},{"name":"edelweiss bakery & caf‚'","zip":"21214","hood":"Westfield","stationId":"3","address":"6000 harford rd\nBaltimore, MD\n"},{"name":"EDENS LOUNGE","zip":"21202","hood":"Mid-Town Belvedere","stationId":"1","address":"15 EAGER ST\nBaltimore, MD\n"},{"name":"EDGAR'S INC.--BALTIMORE, MD","zip":"21202","hood":"Inner Harbor","stationId":"1","address":"1 PRATT ST\nBaltimore, MD\n"},{"name":"EDIE'S DELI & GRILL","zip":"21201","hood":"Inner Harbor","stationId":"1","address":"250 PRATT ST\nBaltimore, MD\n"},{"name":"EDISON   LOUNGE","zip":"21205","hood":"Ellwood Park/Monument","stationId":"5","address":"3133 MONUMENT ST\nBaltimore, MD\n"},{"name":"EDO SUSHI","zip":"21202","hood":"Inner Harbor","stationId":"1","address":"201 PRATT ST\nBaltimore, MD\n"},{"name":"EICHENKRANZ RESTAURANT","zip":"21224","hood":"Brewers Hill","stationId":"7","address":"611 FAGLEY ST\nBaltimore, MD\n"},{"name":"EL OSASIS RESTAURANT & DISCOTEC","zip":"21224","hood":"Brewers Hill","stationId":"7","address":"3919 5 AVE\nBaltimore, MD\n"},{"name":"EL RANCHO BLANCO","zip":"21224","hood":"Baltimore Highlands","stationId":"7","address":"100 FAGLEY ST\nBaltimore, MD\n"},{"name":"EL RANCHO GRANDE","zip":"21211","hood":"Hampden","stationId":"2","address":"3608 FALLS RD\nBaltimore, MD\n"},{"name":"EL RECODO, INC.","zip":"21231","hood":"Fells Point","stationId":"7","address":"219 BROADWAY\nBaltimore, MD\n"},{"name":"EL RINCONCITO PERUANO","zip":"21231","hood":"Washington Hill","stationId":"7","address":"1801 LOMBARD ST\nBaltimore, MD\n"},{"name":"EL TORITO MEXICAN RESTAURANT","zip":"21201","hood":"Downtown","stationId":"1","address":"110 MULBERRY ST\nBaltimore, MD\n"},{"name":"EL TROPICAL RESTAURANT (3736-38)","zip":"21224","hood":"Baltimore Highlands","stationId":"7","address":"3736 LOMBARD ST\nBaltimore, MD\n"},{"name":"ELDORADO INC.","zip":"21224","hood":"Kresson","stationId":"7","address":"4100 LOMBARD ST\nBaltimore, MD\n"},{"name":"ELKS I.B.P.O.E.OF W.","zip":"21202","hood":"Johnston Square","stationId":"5","address":"1127 GREENMOUNT AVE\nBaltimore, MD\n"},{"name":"ELLIOT'S POUR HOUSE","zip":"21224","hood":"Brewers Hill","stationId":"7","address":"3728 HUDSON ST\nBaltimore, MD\n"},{"name":"EL-MOLINO","zip":"21224","hood":"Baltimore-Linwood","stationId":"7","address":"3230 FAIRMOUNT ST\nBaltimore, MD\n"},{"name":"ELVIS RESTAURANT","zip":"21230","hood":"Federal Hill","stationId":"6","address":"1022 LIGHT ST\nBaltimore, MD\n"},{"name":"ENRICO'S SPORTS CAFE","zip":"21224","hood":"Highlandtown","stationId":"7","address":"200 HAVEN ST\nBaltimore, MD\n"},{"name":"ESPN  ZONE","zip":"21202","hood":"Inner Harbor","stationId":"1","address":"601 PRATT ST\nBaltimore, MD\n"},{"name":"europe restaurant & catering","zip":"21215","hood":"Reisterstown Station","stationId":"4","address":"4147 labyrinth rd\nBaltimore, MD\n"},{"name":"EVERYDAY'S LLC","zip":"21218","hood":"Coldstream Homestead Montebello","stationId":"3","address":"1600 ABBOTTSON ST\nBaltimore, MD\n"},{"name":"EXCLUSIVE","zip":"21202","hood":"Mid-Town Belvedere","stationId":"1","address":"1 CHASE ST\nBaltimore, MD\n"},{"name":"family diner","zip":"21226","hood":"Fairfield Area","stationId":"6","address":"3117 VERA ST\nBaltimore, MD\n"},{"name":"FAMOUS RESTAURANT","zip":"21218","hood":"Charles North","stationId":"2","address":"2101 MARYLAND AVE\nBaltimore, MD\n"},{"name":"FANTASIES","zip":"21226","hood":"Curtis Bay","stationId":"6","address":"5520 PENNINGTON AVE\nBaltimore, MD\n"},{"name":"FANTASY CAF","zip":"21224","hood":"Holabird Industrial Park","stationId":"7","address":"6640 HOLABIRD AVE\nBaltimore, MD\n"},{"name":"FEDERAL HILL LOUNGE","zip":"21230","hood":"Federal Hill","stationId":"6","address":"23 CROSS ST\nBaltimore, MD\n"},{"name":"FELL'S POINT CARRYOUT","zip":"21231","hood":"Fells Point","stationId":"7","address":"1635 FLEET ST\nBaltimore, MD\n"},{"name":"FIELDER'S TAVERN","zip":"21230","hood":"Washington Village","stationId":"6","address":"1184 NANTICOKE ST\nBaltimore, MD\n"},{"name":"FIELDS OLD TRAIL","zip":"21212","hood":"Mid-Govans","stationId":"2","address":"5723 YORK RD\nBaltimore, MD\n"},{"name":"FIELDS RIB HOUSE","zip":"21216","hood":"Central Forest Park","stationId":"4","address":"3308 GARRISON BLVD\nBaltimore, MD\n"},{"name":"FILLIN' STATION","zip":"21230","hood":"Morrell Park","stationId":"8","address":"2501 WASHINGTON BLVD\nBaltimore, MD\n"},{"name":"FIRESIDE NORTH LIQUORS","zip":"21216","hood":"Coppin Heights/Ash-Co-East","stationId":"9","address":"2201 NORTH AVE\nBaltimore, MD\n"},{"name":"FISHERMANS WHARF INNER HARBOR","zip":"21202","hood":"Inner Harbor","stationId":"7","address":"219 PRESIDENT ST\nBaltimore, MD\n"},{"name":"FIVE GUYS @ BREWERS HILL","zip":"21224","hood":"Canton Industrial Area","stationId":"7","address":"3600 BOSTON ST\nBaltimore, MD\n"},{"name":"FIVE GUYS FAMOUS BURGERS & FRIES","zip":"21201","hood":"Mount Vernon","stationId":"1","address":"111 CENTRE ST\nBaltimore, MD\n"},{"name":"FIVE GUYS FAMOUS BURGERS & FRIES","zip":"21202","hood":"Inner Harbor","stationId":"1","address":"201 PRATT ST\nBaltimore, MD\n"},{"name":"FIVE POINT TAVERN","zip":"21231","hood":"Fells Point","stationId":"7","address":"1800 THAMES ST\nBaltimore, MD\n"},{"name":"FIVE SEASONS","zip":"21202","hood":"Mount Vernon","stationId":"1","address":"830 GUILFORD AVE\nBaltimore, MD\n"},{"name":"FLAMERS BURGER & CHICKEN","zip":"21205","hood":"Dunbar-Broadway","stationId":"5","address":"601 CAROLINE ST\nBaltimore, MD\n"},{"name":"FLAMINGO  LOUNGE","zip":"21202","hood":"Downtown","stationId":"1","address":"403 BALTIMORE ST\nBaltimore, MD\n"},{"name":"Fleming's Prime Steakhouse and Wine Bar","zip":"21202","hood":"Inner Harbor","stationId":"7","address":"720 Aliceanna st\nBaltimore, MD\n"},{"name":"FLETCHERS","zip":"21231","hood":"Fells Point","stationId":"7","address":"701 BOND ST\nBaltimore, MD\n"},{"name":"FLIP'S AT CLIPPER MILL","zip":"21211","hood":"Hampden","stationId":"2","address":"1601 UNION AVE\nBaltimore, MD\n"},{"name":"FOGO DE CHAO","zip":"21202","hood":"Inner Harbor","stationId":"1","address":"600 PRATT ST\nBaltimore, MD\n"},{"name":"FOODTOPIA","zip":"21202","hood":"Downtown","stationId":"1","address":"17 BALTIMORE ST\nBaltimore, MD\n"},{"name":"FORT CHARLES PUB","zip":"21230","hood":"SBIC","stationId":"6","address":"1439 CHARLES ST\nBaltimore, MD\n"},{"name":"FOUL BALL BAR","zip":"21230","hood":"Washington Village","stationId":"6","address":"839 CROSS ST\nBaltimore, MD\n"},{"name":"FOUR G'S LIQUOR & LOUNGE","zip":"21207","hood":"Howard Park","stationId":"4","address":"4701 3 LIBERTY HEIGHTS AVE\nBaltimore, MD\n"},{"name":"FOXY LADY","zip":"21202","hood":"Downtown","stationId":"1","address":"16 CUSTOM HOUSE AVE\nBaltimore, MD\n"},{"name":"FRANKLINTOWN INN","zip":"21207","hood":"Franklintown","stationId":"8","address":"5200 FRANKLINTOWN RD\nBaltimore, MD\n"},{"name":"FRANK'S PIZZA","zip":"21206","hood":"Rosemont East","stationId":"3","address":"6620 BELAIR RD\nBaltimore, MD\n"},{"name":"fraternal order of police baltimore city lodge #3","zip":"21211","hood":"Hampden","stationId":"2","address":"3920 buena vista ave\nBaltimore, MD\n"},{"name":"FRAZIER'S ON THE AVENUE","zip":"21211","hood":"Hampden","stationId":"2","address":"919 36TH ST\nBaltimore, MD\n"},{"name":"FRED & MARGIE'S INN","zip":"21226","hood":"Curtis Bay","stationId":"6","address":"3605 FAIRHAVEN AVE\nBaltimore, MD\n"},{"name":"FREDERICK STATION SALOON","zip":"21229","hood":"Irvington","stationId":"8","address":"4019 FREDERICK AVE\nBaltimore, MD\n"},{"name":"FRIENDLY  FRIED  CHICKEN","zip":"21218","hood":"Abell","stationId":"2","address":"3221 GREENMOUNT AVE\nBaltimore, MD\n"},{"name":"FRIEND'S RESTAURANT AND SPIRITS","zip":"21231","hood":"Fells Point","stationId":"7","address":"1634 ALICEANNA ST\nBaltimore, MD\n"},{"name":"FULL MOON SALOON","zip":"21231","hood":"Fells Point","stationId":"7","address":"1710 ALICEANNA ST\nBaltimore, MD\n"},{"name":"FULTON RESTAURANT","zip":"21217","hood":"Penn North","stationId":"9","address":"2733 PENNSLYVANIA AVE\nBaltimore, MD\n"},{"name":"FULTON RESTAURANT    (2201 1/2 FULTON AVENUE)","zip":"21217","hood":"Penn North","stationId":"9","address":"2201 FULTON Ave\nBaltimore, MD\n"},{"name":"G & A RESTAURANT","zip":"21224","hood":"Brewers Hill","stationId":"7","address":"3802 5 AVE\nBaltimore, MD\n"},{"name":"GAFFNEY'S BACK FIN ( seasonal)","zip":"21224","hood":"Highlandtown","stationId":"7","address":"415 HIGHLAND AVE\nBaltimore, MD\n"},{"name":"GALLAGHERS BAR & GRILL    (938-940)","zip":"21224","hood":"Brewers Hill","stationId":"7","address":"938 CONKLING ST\nBaltimore, MD\n"},{"name":"GALLERY","zip":"21201","hood":"Charles North","stationId":"1","address":"1735 MARYLAND AVE\nBaltimore, MD\n"},{"name":"GALLERY CAF","zip":"21201","hood":"Mount Vernon","stationId":"1","address":"13 CENTRE ST\nBaltimore, MD\n"},{"name":"GARDEN BEEF & BEER","zip":"21205","hood":"Armistead Gardens","stationId":"5","address":"4809 ERDMAN AVE\nBaltimore, MD\n"},{"name":"GARDEN RESTAURANT","zip":"21230","hood":"Riverside","stationId":"6","address":"1501 LIGHT ST\nBaltimore, MD\n"},{"name":"GECKOS","zip":"21224","hood":"Canton","stationId":"7","address":"2318 FLEET ST\nBaltimore, MD\n"},{"name":"GENJI SUSHI EXPRESS   (A.K.A. 600 S EXETER ST)","zip":"21202","hood":"Inner Harbor","stationId":"7","address":"1001 FLEET ST\nBaltimore, MD\n"},{"name":"GEN-JOSEPH HALLER POST #95, AMERICAN LEGION, INC.","zip":"21231","hood":"Fells Point","stationId":"7","address":"1746 FLEET ST\nBaltimore, MD\n"},{"name":"GENTLEMEN OF CHARISMA","zip":"21205","hood":"Middle East","stationId":"5","address":"838 CHESTER ST\nBaltimore, MD\n"},{"name":"GEORGE'S CAFETERIA","zip":"21222","hood":"Dundalk Marine Terminal","stationId":"7","address":"2700 BROENING HWY\nBaltimore, MD\n"},{"name":"GEORGIO'S","zip":"21215","hood":"Reisterstown Station","stationId":"4","address":"6322 REISTERSTOWN RD\nBaltimore, MD\n"},{"name":"GERMANIO'S RESTAURANT","zip":"21202","hood":"Little Italy","stationId":"7","address":"300 HIGH ST\nBaltimore, MD\n"},{"name":"GIBSON'S","zip":"21231","hood":"Butcher's Hill","stationId":"7","address":"32 CHESTER ST\nBaltimore, MD\n"},{"name":"GILMOR PLEASURE CLUB","zip":"21223","hood":"New Southwest/Mount Clare","stationId":"6","address":"347 GILMOR ST\nBaltimore, MD\n"},{"name":"GINGER'S","zip":"21224","hood":"Highlandtown","stationId":"7","address":"421 CONKLING ST\nBaltimore, MD\n"},{"name":"GLADIATORS ASSOCIATIONS, INC","zip":"21223","hood":"Franklin Square","stationId":"9","address":"1315 MULBERRY ST\nBaltimore, MD\n"},{"name":"GLASS DOOR lounge","zip":"21202","hood":"Pleasant View Gardens","stationId":"7","address":"1263 FAYETTE ST\nBaltimore, MD\n"},{"name":"GOLDEN KEY RESTAURANT","zip":"21214","hood":"Glenham-Belford","stationId":"3","address":"5512 HARFORD RD\nBaltimore, MD\n"},{"name":"GOLDEN NUGGET","zip":"21202","hood":"Downtown","stationId":"1","address":"411 BALTIMORE ST\nBaltimore, MD\n"},{"name":"GOLDEN NUGGET LOUNGE","zip":"21202","hood":"Downtown","stationId":"1","address":"411 1 2 E BALTIMORE ST\nBaltimore, MD\n"},{"name":"GOLDEN WEST CAF, INC.","zip":"21211","hood":"Hampden","stationId":"2","address":"1105 36TH ST\nBaltimore, MD\n"},{"name":"GOOD TIMES BAR AND LOUNGE","zip":"21217","hood":"Franklin Square","stationId":"9","address":"1600 BALTIMORE ST\nBaltimore, MD\n"},{"name":"GORDON'S","zip":"21201","hood":"Charles North","stationId":"1","address":"1818 MARYLAND AVE\nBaltimore, MD\n"},{"name":"GOSSIP BISTRO","zip":"21202","hood":"Downtown","stationId":"1","address":"21 CALVERT ST\nBaltimore, MD\n"},{"name":"GRAND CRU","zip":"21212","hood":"Chinquapin Park-Belvedere","stationId":"2","address":"527 BELVEDERE AVE\nBaltimore, MD\n"},{"name":"GRANDVIEW RESTAURANT","zip":"21215","hood":"Hampden","stationId":"2","address":"3838 ROLAND AVE\nBaltimore, MD\n"},{"name":"GRANITE","zip":"21224","hood":"Canton","stationId":"7","address":"2903 O DONNELL ST\nBaltimore, MD\n"},{"name":"GRANT'S 2 SPOT","zip":"21223","hood":"Penrose/Fayette Street Outreach","stationId":"9","address":"2 WHEELER AVE\nBaltimore, MD\n"},{"name":"GREAT TASTE CHINESE  RESTAURANT","zip":"21229","hood":"Saint Agnes","stationId":"8","address":"3444 WILKENS AVE\nBaltimore, MD\n"},{"name":"GREENE ST CAF","zip":"21201","hood":"Seton Hill","stationId":"1","address":"300 GREENE ST\nBaltimore, MD\n"},{"name":"GREENHOUSE CAF","zip":"21205","hood":"Middle East","stationId":"5","address":"725 WOLFE ST\nBaltimore, MD\n"},{"name":"GREENMOUNT LOUNGE","zip":"21202","hood":"Johnston Square","stationId":"5","address":"1318 GREENMOUNT AVE\nBaltimore, MD\n"},{"name":"GRENADIER CLUB","zip":"21217","hood":"Upton","stationId":"1","address":"1226 MC CULLOH ST\nBaltimore, MD\n"},{"name":"GRIFFITH'S","zip":"21211","hood":"Hampden","stationId":"2","address":"3631 HICKORY ave\nBaltimore, MD\n"},{"name":"GRILL ART","zip":"21211","hood":"Hampden","stationId":"2","address":"1011 36TH ST\nBaltimore, MD\n"},{"name":"GRILLE 601","zip":"21205","hood":"Dunbar-Broadway","stationId":"5","address":"601 CAROLINE ST\nBaltimore, MD\n"},{"name":"GROWLERS PUB","zip":"21224","hood":"Canton","stationId":"7","address":"600 POTOMAC ST\nBaltimore, MD\n"},{"name":"GROWN FOLKS BAR","zip":"21225","hood":"Brooklyn","stationId":"6","address":"3525 HANOVER ST\nBaltimore, MD\n"},{"name":"GRUMPIE'S","zip":"21230","hood":"Federal Hill","stationId":"6","address":"25 CROSS ST\nBaltimore, MD\n"},{"name":"GRUNDY'S","zip":"21224","hood":"Brewers Hill","stationId":"7","address":"718 GRUNDY ST\nBaltimore, MD\n"},{"name":"GRUNWALD CLUB, INCORPORATED","zip":"21224","hood":"Canton","stationId":"7","address":"2825 O DONNELL ST\nBaltimore, MD\n"},{"name":"JAUNG KAK RESTURANT(aka 18 W.20TH ST)","zip":"21218","hood":"Charles North","stationId":"2","address":"18 20th ST\nBaltimore, MD\n"},{"name":"JAVA JOE'S","zip":"21202","hood":"Downtown","stationId":"1","address":"8 BALTIMORE ST\nBaltimore, MD\n"},{"name":"JAY & KAY SUBWAY, INC.","zip":"21218","hood":"Charles Village","stationId":"2","address":"37 25TH ST\nBaltimore, MD\n"},{"name":"JAY'S ON READ","zip":"21201","hood":"Mount Vernon","stationId":"1","address":"225 READ ST\nBaltimore, MD\n"},{"name":"JAY'S WOLFE ST CAF","zip":"21205","hood":"Dunbar-Broadway","stationId":"5","address":"610 WOLFE ST\nBaltimore, MD\n"},{"name":"JAZZY BLUES CLUB","zip":"21231","hood":"Upper Fells Point","stationId":"7","address":"301 ANN ST\nBaltimore, MD\n"},{"name":"JD's SMOKEHOUSE BAR & GRILL, INC.","zip":"21224","hood":"Canton","stationId":"7","address":"3000 O DONNELL ST\nBaltimore, MD\n"},{"name":"JEMELLA 'S CUT RATE","zip":"21217","hood":"Sandtown-Winchester","stationId":"9","address":"1831 MOSHER ST\nBaltimore, MD\n"},{"name":"JERRY'S BAR","zip":"21216","hood":"Mosher","stationId":"8","address":"604 POPLAR GROVE ST\nBaltimore, MD\n"},{"name":"JEWEL BOX LOUNGE","zip":"21202","hood":"Downtown","stationId":"1","address":"419 BALTIMORE ST\nBaltimore, MD\n"},{"name":"JHJ SALOON","zip":"21231","hood":"Fells Point","stationId":"7","address":"2036 5 AVE\nBaltimore, MD\n"},{"name":"JIGGS TAVERN","zip":"21230","hood":"Washington Village","stationId":"6","address":"737 CARROLL ST\nBaltimore, MD\n"},{"name":"JIM DANDY'S TAVERN","zip":"21226","hood":"Curtis Bay","stationId":"6","address":"4810 CURTIS AVE\nBaltimore, MD\n"},{"name":"JIMMY'S RESTAURANT","zip":"21231","hood":"Fells Point","stationId":"7","address":"801 BROADWAY\nBaltimore, MD\n"},{"name":"JIM'S DINER","zip":"21224","hood":"Canton Industrial Area","stationId":"7","address":"4806 HOLABIRD AVE\nBaltimore, MD\n"},{"name":"JOCKEY CLUB/PALACE KITCHEN","zip":"21215","hood":"Pimlico Good Neighbors","stationId":"4","address":"Hayward Ave\nBaltimore, MD\n"},{"name":"JOE SQUARED PIZZA AND BAR","zip":"21201","hood":"Charles North","stationId":"1","address":"133 NORTH AVE\nBaltimore, MD\n"},{"name":"JOE'S TAVERN","zip":"21224","hood":"Graceland Park","stationId":"7","address":"1006 DUNDALK AVE\nBaltimore, MD\n"},{"name":"JOE'S TAVERN","zip":"21230","hood":"Morrell Park","stationId":"8","address":"2709 11 WASHINGTON BLVD\nBaltimore, MD\n"},{"name":"JOE'S TAVERN & PACKAGE GOODS","zip":"21215","hood":"Glen","stationId":"4","address":"6200 REISTERSTOWN RD\nBaltimore, MD\n"},{"name":"JOHN'S LOUNGE","zip":"21217","hood":"Sandtown-Winchester","stationId":"9","address":"1519 RIGGS AVE\nBaltimore, MD\n"},{"name":"JOY DELI","zip":"21201","hood":"Downtown","stationId":"1","address":"24 FAYETTE ST\nBaltimore, MD\n"},{"name":"JP'S","zip":"21224","hood":"Canton","stationId":"7","address":"528 BOULDIN ST\nBaltimore, MD\n"},{"name":"JR.'S BAR & GRILL","zip":"21230","hood":"Locust Point","stationId":"6","address":"1229 HULL ST\nBaltimore, MD\n"},{"name":"JUNIORS","zip":"21230","hood":"Federal Hill","stationId":"6","address":"1117 CHARLES ST\nBaltimore, MD\n"},{"name":"K.F.C.","zip":"21205","hood":"Gay Street","stationId":"5","address":"901 CAROLINE ST\nBaltimore, MD\n"},{"name":"KABOBBI RESTAURANT","zip":"21231","hood":"Fells Point","stationId":"7","address":"1616 THAMES ST\nBaltimore, MD\n"},{"name":"KALI'S COURT","zip":"21231","hood":"Fells Point","stationId":"7","address":"1606 THAMES ST\nBaltimore, MD\n"},{"name":"POSITIONS UNLIMITED","zip":"21202","hood":"Downtown","stationId":"1","address":"14 CUSTOM HOUSE AVE\nBaltimore, MD\n"},{"name":"POTBELLY SANDWICH WORK'S","zip":"21202","hood":"Inner Harbor","stationId":"1","address":"621 PRATT ST\nBaltimore, MD\n"},{"name":"PRIMO'S","zip":"21210","hood":"Loyola/Notre Dame","stationId":"2","address":"100 COLDSPRING LN\nBaltimore, MD\n"},{"name":"PULASKI FOOD SERVICE","zip":"21224","hood":"Ellwood Park/Monument","stationId":"7","address":"3505 PULASKI HWY\nBaltimore, MD\n"},{"name":"PUR LOUNGE","zip":"21224","hood":"Canton","stationId":"7","address":"2322 BOSTON ST\nBaltimore, MD\n"},{"name":"PURPLE GOOSE","zip":"21230","hood":"Morrell Park","stationId":"8","address":"2623 WASHINGTON BLVD\nBaltimore, MD\n"},{"name":"q s r,inc  - Mcdonald's","zip":"21218","hood":"Hillen","stationId":"3","address":"1600 argonne dr\nBaltimore, MD\n"},{"name":"qsr, inc.- McDonalds","zip":"21201","hood":"Charles North","stationId":"1","address":"15 north ave\nBaltimore, MD\n"},{"name":"QSR, INC. MCDONALD'S)","zip":"21227","hood":"Moravia-Walther","stationId":"3","address":"4635 HARFORD rd\nBaltimore, MD\n"},{"name":"QUIGLEY 1/2 IRISH PUB","zip":"21230","hood":"Ridgely's Delight","stationId":"6","address":"633 PORTLAND AVE\nBaltimore, MD\n"},{"name":"QUINOS","zip":"21230","hood":"Riverside","stationId":"6","address":"1465 KEY HIGHWAY\nBaltimore, MD\n"},{"name":"QUIZINOS OF FALLS road","zip":"21201","hood":"Inner Harbor","stationId":"1","address":"100 CHARLES ST\nBaltimore, MD\n"},{"name":"QUIZNOS","zip":"21224","hood":"Canton","stationId":"7","address":"2837 O DONNELL ST\nBaltimore, MD\n"},{"name":"QUIZNO'S","zip":"21202","hood":"Downtown","stationId":"1","address":"10 CALVERT ST\nBaltimore, MD\n"},{"name":"QUIZNO'S","zip":"21202","hood":"Mid-Town Belvedere","stationId":"1","address":"201 CHASE ST\nBaltimore, MD\n"},{"name":"QUIZNOS OF FELLS POINT","zip":"21231","hood":"Fells Point","stationId":"7","address":"716 BROADWAY\nBaltimore, MD\n"},{"name":"QUO VADIS DEMOCRATIC CLUB","zip":"21231","hood":"Fells Point","stationId":"7","address":"1921 FLEET ST\nBaltimore, MD\n"},{"name":"RA SUSHI","zip":"21231","hood":"Fells Point","stationId":"7","address":"701 EDEN ST\nBaltimore, MD\n"},{"name":"RADISSON CROSS KEYS HOTEL","zip":"21210","hood":"Cross Keys","stationId":"2","address":"5050 FALLS RD\nBaltimore, MD\n"},{"name":"RADISSON HOTEL AT CROSS KEYS","zip":"21210","hood":"Cross Keys","stationId":"2","address":"5102 FALLS RD\nBaltimore, MD\n"},{"name":"RAFTERS","zip":"21230","hood":"Riverside","stationId":"6","address":"620 FORT AVE\nBaltimore, MD\n"},{"name":"RAINBOW HOMESTYLE BUFFET","zip":"21206","hood":"Frankford","stationId":"3","address":"5016 SINCLAIR LN\nBaltimore, MD\n"},{"name":"RAINBOW'S  BAR","zip":"21223","hood":"Washington Village","stationId":"6","address":"1175 SARGEANT ST\nBaltimore, MD\n"},{"name":"RALLO'S RESTAURANT","zip":"21230","hood":"Riverside","stationId":"6","address":"838 FORT Ave\nBaltimore, MD\n"},{"name":"RAMS HEAD TAVERN","zip":"21202","hood":"Downtown","stationId":"1","address":"20 MARKET PL\nBaltimore, MD\n"},{"name":"RANDY'S BAR","zip":"21213","hood":"Broadway East","stationId":"5","address":"2135 NORTH AVE\nBaltimore, MD\n"},{"name":"RAS-A-TER INTERNATIONAL","zip":"21217","hood":"Easterwood","stationId":"9","address":"2103 NORTH AVE\nBaltimore, MD\n"},{"name":"RASCALS COMEDY CLUB","zip":"21202","hood":"Downtown","stationId":"1","address":"6 MARKET PL\nBaltimore, MD\n"},{"name":"RAVE  INN","zip":"21226","hood":"Curtis Bay","stationId":"6","address":"4507 PENNINGTON AVE\nBaltimore, MD\n"},{"name":"RAY LEWIS' FULL MOON B-B-Q","zip":"21224","hood":"Canton","stationId":"7","address":"2400 BOSTON ST\nBaltimore, MD\n"},{"name":"RAY'S TAVERN","zip":"21222","hood":"Saint Helena","stationId":"7","address":"6500 ST HELENA AVE\nBaltimore, MD\n"},{"name":"RAYZER'S","zip":"21230","hood":"SBIC","stationId":"6","address":"13 RANDALL ST\nBaltimore, MD\n"},{"name":"RED DOOR LOUNGE","zip":"21217","hood":"Bridgeview/Greenlawn","stationId":"9","address":"1000 PAYSON ST\nBaltimore, MD\n"},{"name":"RED FISH","zip":"21224","hood":"Canton","stationId":"7","address":"845 MONTFORD AVE\nBaltimore, MD\n"},{"name":"RED FOX LIQUORS","zip":"21217","hood":"Penn North","stationId":"9","address":"2733 PENNSYLVANIA AVE\nBaltimore, MD\n"},{"name":"RED HOUSE TAVERN INC.","zip":"21231","hood":"Canton","stationId":"7","address":"2239 ESSEX ST\nBaltimore, MD\n"},{"name":"RED LYON TAVERN","zip":"21224","hood":"Canton","stationId":"7","address":"501 DECKER AVE\nBaltimore, MD\n"},{"name":"RED MAPLE","zip":"21201","hood":"Mount Vernon","stationId":"1","address":"930 CHARLES ST\nBaltimore, MD\n"},{"name":"RED ROOSTER","zip":"21206","hood":"Frankford","stationId":"3","address":"6412 FRANKFORD AVE\nBaltimore, MD\n"},{"name":"RED SQUARE RESTAURANT","zip":"21202","hood":"Mid-Town Belvedere","stationId":"1","address":"1 CHASE ST\nBaltimore, MD\n"},{"name":"REGAN'S TAVERN","zip":"21224","hood":"Highlandtown","stationId":"7","address":"4001 5 AVE\nBaltimore, MD\n"},{"name":"REGI'S BAR & RESTAURANT","zip":"21230","hood":"Federal Hill","stationId":"6","address":"1002 LIGHT ST\nBaltimore, MD\n"},{"name":"GUS RESTAURANT (3103-05)","zip":"21216","hood":"Northwest Community Action","stationId":"8","address":"3103 NORTH AVE\nBaltimore, MD\n"},{"name":"GYPSIES","zip":"21224","hood":"Baltimore Highlands","stationId":"7","address":"4020 LOMBARD ST\nBaltimore, MD\n"},{"name":"H.I.S. PLACE","zip":"21224","hood":"Canton","stationId":"7","address":"2822 HUDSON ST\nBaltimore, MD\n"},{"name":"HABENERO GRILL","zip":"21224","hood":"Greektown","stationId":"7","address":"4701 5 AVE\nBaltimore, MD\n"},{"name":"HAMILTON HOMING PIGEON CLUB, INC.","zip":"21206","hood":"Frankford","stationId":"3","address":"4810 GUNTHER AVE\nBaltimore, MD\n"},{"name":"HAMPDEN REPUBLICAN CLUB","zip":"21211","hood":"Hampden","stationId":"2","address":"3535 CHESTNUT AVE\nBaltimore, MD\n"},{"name":"harbor way inn","zip":"21201","hood":"Ridgely's Delight","stationId":"6","address":"737 pratt st\nBaltimore, MD\n"},{"name":"HARBORSIDE CHICKEN & SEAFOOD","zip":"21227","hood":"Dunbar-Broadway","stationId":"5","address":"600 WOLFE ST\nBaltimore, MD\n"},{"name":"HARD ROCK CAF","zip":"21202","hood":"Inner Harbor","stationId":"1","address":"601 PRATT ST\nBaltimore, MD\n"},{"name":"HARD ROCK CAF-OUTDOOR PIER","zip":"21202","hood":"Inner Harbor","stationId":"1","address":"601 PRATT ST\nBaltimore, MD\n"},{"name":"HARFORD HOUSE","zip":"21234","hood":"North Harford Road","stationId":"3","address":"7509 HARFORD RD\nBaltimore, MD\n"},{"name":"HARFORD ROAD GROUP, LLC","zip":"21214","hood":"Glenham-Belford","stationId":"3","address":"5516 HARFORD RD\nBaltimore, MD\n"},{"name":"HARFORD ROAD LIQUORS","zip":"21214","hood":"Lauraville","stationId":"3","address":"4627 HARFORD RD\nBaltimore, MD\n"},{"name":"HARRAR CAF","zip":"21230","hood":"Washington Village","stationId":"6","address":"821 WASHINGTON BLVD\nBaltimore, MD\n"},{"name":"MIDWAY BAR","zip":"21202","hood":"Downtown","stationId":"1","address":"421 BALTIMORE ST\nBaltimore, MD\n"},{"name":"MIKE MCGOVERN'S","zip":"21224","hood":"Canton","stationId":"7","address":"1129 CLINTON ST\nBaltimore, MD\n"},{"name":"MIKE'S PLACE","zip":"21211","hood":"Hampden","stationId":"2","address":"1102 36TH ST\nBaltimore, MD\n"},{"name":"MILTON AT CHARLES ST","zip":"21201","hood":"Downtown","stationId":"1","address":"336 CHARLES ST\nBaltimore, MD\n"},{"name":"MINATO RESTAURANT","zip":"21201","hood":"Mid-Town Belvedere","stationId":"1","address":"1013 CHARLES ST\nBaltimore, MD\n"},{"name":"MINATO/CAFE VIET RESTAURANT","zip":"21201","hood":"Mount Vernon","stationId":"1","address":"800 CHARLES ST\nBaltimore, MD\n"},{"name":"MISS SHIRLEY'S CAF","zip":"21210","hood":"Roland Park","stationId":"2","address":"513 COLDSPRING LN\nBaltimore, MD\n"},{"name":"MOM'S PLACE","zip":"21230","hood":"Washington Village","stationId":"6","address":"1201 CROSS ST\nBaltimore, MD\n"},{"name":"MONDO BONDO ITALIAN BISTRO","zip":"21202","hood":"Downtown","stationId":"1","address":"30 MARKET PL\nBaltimore, MD\n"},{"name":"MONUMENT HOUSE","zip":"21205","hood":"Milton-Montford","stationId":"7","address":"2300 MONUMENT ST\nBaltimore, MD\n"},{"name":"MORGAN STATE-FACULTY","zip":"21251","hood":"Stonewood-Pentwood-Winston","stationId":"3","address":"1700 coldspring ln\nBaltimore, MD\n"},{"name":"MORTON'S--THE  STEAKHOUSE","zip":"21201","hood":"Inner Harbor","stationId":"1","address":"300 CHARLES ST\nBaltimore, MD\n"},{"name":"MO'S CRAB & PASTA FACTORY","zip":"21202","hood":"Inner Harbor","stationId":"7","address":"502 ALBEMARLE ST\nBaltimore, MD\n"},{"name":"MOTHER'S  FEDERAL  HILL  GRILL","zip":"21230","hood":"Federal Hill","stationId":"6","address":"1113 CHARLES ST\nBaltimore, MD\n"},{"name":"MOUNT VERNON CLUB OF BALTIMORE, INC.","zip":"21201","hood":"Mount Vernon","stationId":"1","address":"8 MOUNT VERNON PL\nBaltimore, MD\n"},{"name":"MOUNT VERNON STABLE & SALOON","zip":"21201","hood":"Mount Vernon","stationId":"1","address":"909 CHARLES ST\nBaltimore, MD\n"},{"name":"MOUSE TRAP","zip":"21202","hood":"Downtown","stationId":"1","address":"12 CUSTOM HOUSE AVE\nBaltimore, MD\n"},{"name":"MR. C. PLACE","zip":"21223","hood":"Washington Village","stationId":"6","address":"1001 CAREY ST\nBaltimore, MD\n"},{"name":"MR. JOE'S BAR AND CUT RATE LIQUORS","zip":"21224","hood":"Baltimore-Linwood","stationId":"7","address":"1 HIGHLAND AVE\nBaltimore, MD\n"},{"name":"MT VERNON ENTERTAINMENT LLC","zip":"21202","hood":"Downtown","stationId":"1","address":"347 CALVERT ST\nBaltimore, MD\n"},{"name":"MT. PLEASANT INN","zip":"21224","hood":"Baltimore Highlands","stationId":"7","address":"105 CONKLING ST\nBaltimore, MD\n"},{"name":"MT. ROYAL TAVERN","zip":"21217","hood":"Mid-Town Belvedere","stationId":"1","address":"1204 MOUNT ROYAL AVE\nBaltimore, MD\n"},{"name":"MT. VERNON  HOTEL AND WASHINGTON CAFE'","zip":"21201","hood":"Mount Vernon","stationId":"1","address":"24 FRANKLIN ST\nBaltimore, MD\n"},{"name":"MT. WASHINGTON TAVERN","zip":"21209","hood":"Mount Washington","stationId":"2","address":"5700 NEWBURY ST\nBaltimore, MD\n"},{"name":"MUGGSY'S","zip":"21230","hood":"Federal Hill","stationId":"6","address":"1236 LIGHT ST\nBaltimore, MD\n"},{"name":"MUGHAL GARDEN","zip":"21201","hood":"Mount Vernon","stationId":"1","address":"918 CHARLES ST\nBaltimore, MD\n"},{"name":"MUIR'S TAVERN","zip":"21230","hood":"SBIC","stationId":"6","address":"36 FORT AVE\nBaltimore, MD\n"},{"name":"MUM'S","zip":"21230","hood":"Sharp-Leadenhall","stationId":"6","address":"1132 HANOVER ST\nBaltimore, MD\n"},{"name":"MURPHY'S NEIGHBORHOOD BAR & GRILL","zip":"21212","hood":"Mid-Govans","stationId":"2","address":"5847 YORK RD\nBaltimore, MD\n"},{"name":"MUSTANG ALLEY'S","zip":"21231","hood":"Little Italy","stationId":"7","address":"1300 BANK ST\nBaltimore, MD\n"},{"name":"MUSTANG INN","zip":"21224","hood":"Highlandtown","stationId":"7","address":"3203 5 AVE\nBaltimore, MD\n"},{"name":"MVP ENTERTAINMENT LLC CLUB 347-KITCHEN AREA","zip":"21202","hood":"Downtown","stationId":"1","address":"347 CALVERT ST\nBaltimore, MD\n"},{"name":"MY COUSIN'S PLACE, LLC (3925-27)","zip":"21224","hood":"Baltimore Highlands","stationId":"7","address":"3925 LOMBARD ST\nBaltimore, MD\n"},{"name":"MY PANINI","zip":"21202","hood":"Inner Harbor","stationId":"1","address":"711 5 AVE\nBaltimore, MD\n"},{"name":"MY THAI RESTAURANT","zip":"21201","hood":"Mount Vernon","stationId":"1","address":"800 CHARLES ST\nBaltimore, MD\n"},{"name":"NAK WON RESTAURANT","zip":"21218","hood":"Charles North","stationId":"2","address":"12 20TH ST\nBaltimore, MD\n"},{"name":"NAM KANG KOREAN RESTAURANT   (AKA 101 W. 22ND ST.)","zip":"21218","hood":"Charles North","stationId":"2","address":"2126 MARYLAND AVE\nBaltimore, MD\n"},{"name":"NASU BLANCA","zip":"21230","hood":"Riverside","stationId":"6","address":"1036 FORT AVE\nBaltimore, MD\n"},{"name":"NCDEVINS","zip":"21224","hood":"Canton","stationId":"7","address":"801 DECKER AVE\nBaltimore, MD\n"},{"name":"NELSON BAKED GOODS & COFFEE SHOP","zip":"21205","hood":"Middle East","stationId":"5","address":"531 CHESTER ST\nBaltimore, MD\n"},{"name":"NEOPOL","zip":"21212","hood":"Chinquapin Park-Belvedere","stationId":"2","address":"529 BELVEDERE AVE\nBaltimore, MD\n"},{"name":"network deli","zip":"21211","hood":"Woodberry","stationId":"2","address":"3600 malden ave\nBaltimore, MD\n"},{"name":"NEVER ON SUNDAY","zip":"21201","hood":"Mount Vernon","stationId":"1","address":"829 CHARLES ST\nBaltimore, MD\n"},{"name":"NEVIN'S  CROSS  STREET STATION","zip":"21230","hood":"Federal Hill","stationId":"6","address":"31 CROSS ST\nBaltimore, MD\n"},{"name":"NEW CLUB THUNDERBIRD INC.","zip":"21213","hood":"Middle East","stationId":"5","address":"2201 CHASE ST\nBaltimore, MD\n"},{"name":"NEW DUFFY' S RESTAURANT","zip":"21229","hood":"Irvington","stationId":"8","address":"3436 FREDERICK AVE\nBaltimore, MD\n"},{"name":"NEW EVERGREEN CAF","zip":"21215","hood":"Reisterstown Station","stationId":"4","address":"6618 C REISTERSTOWN RD\nBaltimore, MD\n"},{"name":"NEW HONG  KONG RESTAURANT, INC.","zip":"21218","hood":"Charles Village","stationId":"2","address":"2426 CHARLES ST\nBaltimore, MD\n"},{"name":"NEW JOHNSON'S LOUNGE","zip":"21223","hood":"Midtown-Edmondson","stationId":"9","address":"546 PULASKI ST\nBaltimore, MD\n"},{"name":"NEW MAY FLOWER BUFFET, INC.","zip":"21218","hood":"Oakenshawe","stationId":"2","address":"3326 GREENMOUNT AVE\nBaltimore, MD\n"},{"name":"NEW MAYFIELD, INC.","zip":"21213","hood":"Belair-Edison","stationId":"3","address":"3349 BELAIR RD\nBaltimore, MD\n"},{"name":"NEW MOM & DAD LIQUORS","zip":"21217","hood":"Sandtown-Winchester","stationId":"1","address":"2143 PENNSYLVANIA AVE\nBaltimore, MD\n"},{"name":"NEW NO  DO  JI  RESTAURANT","zip":"21218","hood":"Charles Village","stationId":"2","address":"2501 CHARLES ST\nBaltimore, MD\n"},{"name":"HARRIS' TAVERN","zip":"21229","hood":"Gwynns Falls","stationId":"8","address":"2949 FREDERICK AVE\nBaltimore, MD\n"},{"name":"HARRY OLIVER MANAGEMENT CO., INC.","zip":"21231","hood":"Fells Point","stationId":"7","address":"801 ANN ST\nBaltimore, MD\n"},{"name":"HARRY'S AMERICAN BAR","zip":"21230","hood":"Canton","stationId":"7","address":"623 LUZERNE AVE\nBaltimore, MD\n"},{"name":"HARVEST TABLE","zip":"21230","hood":"Locust Point Industrial Area","stationId":"6","address":"1000 HULL ST\nBaltimore, MD\n"},{"name":"HAVE A NICE DAY CAF  (AKA 2 MARKET PLACE)","zip":"21202","hood":"Downtown","stationId":"1","address":"34 MARKET PL\nBaltimore, MD\n"},{"name":"HAVEN PLACE","zip":"21224","hood":"Baltimore Highlands","stationId":"7","address":"400 HAVEN ST\nBaltimore, MD\n"},{"name":"hawley's  (2616-20)","zip":"21230","hood":"Morrell Park","stationId":"8","address":"2616 WASHINGTON blvd\nBaltimore, MD\n"},{"name":"HEATH STREET PUB","zip":"21230","hood":"SBIC","stationId":"6","address":"32 HEATH ST\nBaltimore, MD\n"},{"name":"HEIGHTS LIQUORS, INC.","zip":"21215","hood":"Arlington","stationId":"4","address":"5302 PARK HEIGHTS AVE\nBaltimore, MD\n"},{"name":"HELEN'S GARDEN  CAFE'","zip":"21224","hood":"Canton","stationId":"7","address":"2908 O DONNELL ST\nBaltimore, MD\n"},{"name":"HELLAS COFFEE SHOP","zip":"21224","hood":"Greektown","stationId":"7","address":"4709 5 AVE\nBaltimore, MD\n"},{"name":"HENNINGER'S TAVERN","zip":"21231","hood":"Upper Fells Point","stationId":"7","address":"1810 BANK ST\nBaltimore, MD\n"},{"name":"HIDING SPOT, INC.","zip":"21225","hood":"Brooklyn","stationId":"6","address":"3638 HANOVER ST\nBaltimore, MD\n"},{"name":"HIGH GROUNDS COFFEE ROASTERS, LLC","zip":"21224","hood":"Highlandtown","stationId":"7","address":"3201 5 AVE\nBaltimore, MD\n"},{"name":"HIGHLAND CLIPPER CLUB","zip":"21224","hood":"Brewers Hill","stationId":"7","address":"621 DEAN ST\nBaltimore, MD\n"},{"name":"HILLEN RESTAURANT","zip":"21202","hood":"Penn-Fallsway","stationId":"5","address":"1041 HILLEN ST\nBaltimore, MD\n"},{"name":"HIPPOPOTAMUS (932-34)","zip":"21201","hood":"Mount Vernon","stationId":"1","address":"932 CHARLES ST\nBaltimore, MD\n"},{"name":"HOGAN'S ALLEY","zip":"21230","hood":"Riverside","stationId":"6","address":"1501 COVINGTON ST\nBaltimore, MD\n"},{"name":"HOLIDAY HOUSE","zip":"21214","hood":"Westfield","stationId":"3","address":"6427 HARFORD RD\nBaltimore, MD\n"},{"name":"HOLIDAY INN-INNER HARBOR","zip":"21202","hood":"Inner Harbor","stationId":"1","address":"301 LOMBARD ST\nBaltimore, MD\n"},{"name":"HOLIDAY RESTAURANT","zip":"21225","hood":"Brooklyn","stationId":"6","address":"3570 HANOVER ST\nBaltimore, MD\n"},{"name":"HOLLINS STREET PUB","zip":"21223","hood":"Hollins Market","stationId":"6","address":"1214 HOLLINS STREET\nBaltimore, MD\n"},{"name":"HOLLINSWOOD INN","zip":"21230","hood":"Lakeland","stationId":"6","address":"2839 ANNAPOLIS RD\nBaltimore, MD\n"},{"name":"HOLLYWOOD DINER","zip":"21202","hood":"Downtown","stationId":"1","address":"400 SARATOGA ST\nBaltimore, MD\n"},{"name":"HOLY FRIJOLES","zip":"21211","hood":"Hampden","stationId":"2","address":"908 36TH ST\nBaltimore, MD\n"},{"name":"HOMETOWN DELI","zip":"21202","hood":"Downtown","stationId":"1","address":"311 CALVERT ST\nBaltimore, MD\n"},{"name":"HOMETOWN GIRL & COMPANY","zip":"21211","hood":"Hampden","stationId":"2","address":"1001 36TH ST\nBaltimore, MD\n"},{"name":"HONEY'S LOUNGE","zip":"21231","hood":"Upper Fells Point","stationId":"7","address":"1722 GOUGH ST\nBaltimore, MD\n"},{"name":"HOOTERS OF AMERICA","zip":"21202","hood":"Inner Harbor","stationId":"1","address":"301 LIGHT ST\nBaltimore, MD\n"},{"name":"HOPKINS DELI","zip":"21210","hood":"Tuscany-Canterbury","stationId":"2","address":"110 39TH ST\nBaltimore, MD\n"},{"name":"HOPKINS PLAZA DELI","zip":"21201","hood":"Downtown","stationId":"1","address":"Hopkins Pl\nBaltimore, MD\n"},{"name":"HOPKINS SUBWAY","zip":"21218","hood":"Charles Village","stationId":"2","address":"3233 ST PAUL ST\nBaltimore, MD\n"},{"name":"HORSEFEATHER'S PUB","zip":"21224","hood":"Baltimore-Linwood","stationId":"7","address":"40 STREEPER ST\nBaltimore, MD\n"},{"name":"HOT TOMATOES-CAF FORTUNATO","zip":"21231","hood":"Fells Point","stationId":"7","address":"717 BROADWAY\nBaltimore, MD\n"},{"name":"HOULIHANS OF MARYLAND","zip":"21202","hood":"Inner Harbor","stationId":"1","address":"621 PRATT ST\nBaltimore, MD\n"},{"name":"HOWL AT THE MOON  (AKA 22 MARKET PL)","zip":"21202","hood":"Downtown","stationId":"1","address":"34 MARKET PL\nBaltimore, MD\n"},{"name":"HUCKAS","zip":"21224","hood":"Canton","stationId":"7","address":"2324 BOSTON ST\nBaltimore, MD\n"},{"name":"HULL STREET BLUES","zip":"21230","hood":"Locust Point","stationId":"6","address":"1222 HULL ST\nBaltimore, MD\n"},{"name":"HUNAN EMPIRE","zip":"21230","hood":"Riverside","stationId":"6","address":"849 FORT AVE\nBaltimore, MD\n"},{"name":"HYATT REGENCY BALTIMORE      (PISCES & BAR)","zip":"21202","hood":"Inner Harbor","stationId":"1","address":"300 LIGHT ST\nBaltimore, MD\n"},{"name":"HYATT REGENCY BALTIMORE    (Perks -LOBBY BAR)","zip":"21202","hood":"Inner Harbor","stationId":"1","address":"300 LIGHT ST\nBaltimore, MD\n"},{"name":"HYATT REGENCY BALTIMORE   (CAFETERIA)","zip":"21202","hood":"Inner Harbor","stationId":"1","address":"300 LIGHT ST\nBaltimore, MD\n"},{"name":"HYATT REGENCY BALTIMORE  (KITCHEN/BANQUET ROOM)","zip":"21202","hood":"Inner Harbor","stationId":"1","address":"300 LIGHT ST\nBaltimore, MD\n"},{"name":"HYATT REGENCY OF BALTIMORE  (Bistro-300 & Bar)","zip":"21202","hood":"Inner Harbor","stationId":"1","address":"300 LIGHT ST\nBaltimore, MD\n"},{"name":"I BAR","zip":"21218","hood":"Charles North","stationId":"2","address":"2118 MARYLAND AVE\nBaltimore, MD\n"},{"name":"I.B.P.O.E. OF W., INCORPORATED","zip":"21218","hood":"East Baltimore Midway","stationId":"5","address":"2008 HARFORD RD\nBaltimore, MD\n"},{"name":"I'CON INN","zip":"21224","hood":"Kresson","stationId":"7","address":"45 KRESSON ST\nBaltimore, MD\n"},{"name":"IGGIES","zip":"21202","hood":"Mount Vernon","stationId":"1","address":"818 CALVERT ST\nBaltimore, MD\n"},{"name":"IGUANA CANTINA BAR","zip":"21202","hood":"Inner Harbor","stationId":"1","address":"124 MARKET PLACE\nBaltimore, MD\n"},{"name":"IKAN SEAFOOD","zip":"21212","hood":"Chinquapin Park-Belvedere","stationId":"2","address":"529 BELVEDERE AVE\nBaltimore, MD\n"},{"name":"IKAROS RESTAURANT","zip":"21224","hood":"Greektown","stationId":"7","address":"4805 5 AVE\nBaltimore, MD\n"},{"name":"IKE'S PLACE","zip":"21223","hood":"Carrollton Ridge","stationId":"8","address":"2248 WILKENS Ave\nBaltimore, MD\n"},{"name":"IL MONDO,INC","zip":"21202","hood":"Little Italy","stationId":"7","address":"217 HIGH ST\nBaltimore, MD\n"},{"name":"ILLUSIONS MAGIC BAR & LOUNGE","zip":"21230","hood":"Federal Hill","stationId":"6","address":"1025 27 S CHARLES ST\nBaltimore, MD\n"},{"name":"IMPRESSED CAF","zip":"21202","hood":"Downtown","stationId":"1","address":"200 LEXINGTON ST\nBaltimore, MD\n"},{"name":"INCOGNITO TAVERN","zip":"21223","hood":"Carrollton Ridge","stationId":"6","address":"424 PAYSON ST\nBaltimore, MD\n"},{"name":"INDIA RASOI RESTAURANT","zip":"21202","hood":"Little Italy","stationId":"7","address":"411 HIGH ST\nBaltimore, MD\n"},{"name":"INDIA TANDOOR","zip":"21218","hood":"Charles North","stationId":"2","address":"2101 CHARLES ST\nBaltimore, MD\n"},{"name":"INDIGMA","zip":"21201","hood":"Mount Vernon","stationId":"1","address":"802 CHARLES ST\nBaltimore, MD\n"},{"name":"INSIDE RAIL BAR","zip":"21215","hood":"Pimlico Good Neighbors","stationId":"4","address":"Hayward Ave\nBaltimore, MD\n"},{"name":"INTERCONTINENTAL HARBOR COURT-BRIGHTON'S","zip":"21202","hood":"Otterbein","stationId":"6","address":"550 LIGHT ST\nBaltimore, MD\n"},{"name":"INTERCONTINENTAL HARBOR-EXPRESSO","zip":"21202","hood":"Otterbein","stationId":"6","address":"550 LIGHT ST\nBaltimore, MD\n"},{"name":"INTRINSICS RESTAURANT","zip":"21215","hood":"Woodmere","stationId":"4","address":"5209 REISTERSTOWN RD\nBaltimore, MD\n"},{"name":"IRISH PUB","zip":"21224","hood":"Highlandtown","stationId":"7","address":"418 CLINTON ST\nBaltimore, MD\n"},{"name":"ISIS ( 226-228)","zip":"21201","hood":"Downtown","stationId":"1","address":"226 PARK AVE\nBaltimore, MD\n"},{"name":"ISLAND II","zip":"21231","hood":"Fells Point","stationId":"7","address":"1928 FLEET ST\nBaltimore, MD\n"},{"name":"ITALIANOS RESTAURANT CARRYOUT","zip":"21230","hood":"Morrell Park","stationId":"8","address":"2229 WASHINGTON BLVD\nBaltimore, MD\n"},{"name":"ixia restaurant","zip":"21202","hood":"Mount Vernon","stationId":"1","address":"518 charles st\nBaltimore, MD\n"},{"name":"J & J LOUNGE","zip":"21216","hood":"Coppin Heights/Ash-Co-East","stationId":"8","address":"2738 BAKER ST\nBaltimore, MD\n"},{"name":"J & J TAVERN","zip":"21223","hood":"Carrollton Ridge","stationId":"6","address":"1801 RAMSAY ST\nBaltimore, MD\n"},{"name":"J & M CORNER BAR","zip":"21224","hood":"Baltimore Highlands","stationId":"7","address":"3527 BALTIMORE ST\nBaltimore, MD\n"},{"name":"J & S BAR & LOUNGE","zip":"21224","hood":"Ellwood Park/Monument","stationId":"7","address":"301 LONEYS LN\nBaltimore, MD\n"},{"name":"J RAY'S CAFE","zip":"21223","hood":"Washington Village","stationId":"6","address":"900 CAREY ST\nBaltimore, MD\n"},{"name":"J. PATRICK, INC.","zip":"21230","hood":"Locust Point","stationId":"6","address":"1367 ANDRE ST\nBaltimore, MD\n"},{"name":"J. PAUL'S","zip":"21202","hood":"Inner Harbor","stationId":"1","address":"301 LIGHT ST\nBaltimore, MD\n"},{"name":"J. T.'S SALOON","zip":"21206","hood":"Rosemont East","stationId":"3","address":"6317 BELAIR RD\nBaltimore, MD\n"},{"name":"JACK'S BISTRO","zip":"21224","hood":"Canton","stationId":"7","address":"3123 ELLIOTT ST\nBaltimore, MD\n"},{"name":"JACK'S LIQUOR & LOUNGE","zip":"21230","hood":"Sharp-Leadenhall","stationId":"6","address":"141 HAMBURG ST\nBaltimore, MD\n"},{"name":"JAMES JOYCE IRISH PUB AND RESTAURANT","zip":"21202","hood":"Inner Harbor","stationId":"7","address":"616 PRESIDENT ST\nBaltimore, MD\n"},{"name":"KAMP  (2312-14)","zip":"21224","hood":"Canton","stationId":"7","address":"2312 BOSTON ST\nBaltimore, MD\n"},{"name":"KASBAH CAF","zip":"21231","hood":"Fells Point","stationId":"7","address":"726 BROADWAY\nBaltimore, MD\n"},{"name":"KAWASAKI CAF","zip":"21231","hood":"Fells Point","stationId":"7","address":"907 ANN ST\nBaltimore, MD\n"},{"name":"KAY-CEE CLUB","zip":"21212","hood":"Homeland","stationId":"2","address":"201 HOMELAND AVE\nBaltimore, MD\n"},{"name":"K'C' CORNER TAVERN","zip":"21214","hood":"Westfield","stationId":"3","address":"6626 HARFORD RD\nBaltimore, MD\n"},{"name":"KELLY'S","zip":"21231","hood":"Canton","stationId":"7","address":"2106 5 AVE\nBaltimore, MD\n"},{"name":"KELLY'S BAR & LOUNGE","zip":"21223","hood":"Carrollton Ridge","stationId":"8","address":"291 PULASKI ST\nBaltimore, MD\n"},{"name":"KENTUCKY  FRIED  CHICKEN","zip":"21206","hood":"Glenham-Belford","stationId":"3","address":"6219 BELAIR RD\nBaltimore, MD\n"},{"name":"KENTUCKY FRIED CHICKEN","zip":"21201","hood":"Downtown","stationId":"1","address":"100 HOWARD ST\nBaltimore, MD\n"},{"name":"KENTUCKY FRIED CHICKEN","zip":"21202","hood":"Charles North","stationId":"1","address":"1821 ST PAUL ST\nBaltimore, MD\n"},{"name":"KENTUCKY FRIED CHICKEN","zip":"21218","hood":"Better Waverly","stationId":"2","address":"2853 GREENMOUNT AVE\nBaltimore, MD\n"},{"name":"KENTUCKY FRIED CHICKEN","zip":"21229","hood":"Irvington","stationId":"8","address":"3815 WILKENS AVE\nBaltimore, MD\n"},{"name":"KENTUCKY FRIED CHICKEN","zip":"21224","hood":"Pulaski Industrial Area","stationId":"7","address":"5625 O DONNELL ST\nBaltimore, MD\n"},{"name":"KENTUCKY FRIED CHICKEN  Y070-074","zip":"21215","hood":"Liberty Square","stationId":"4","address":"3300 REISTERSTOWN RD\nBaltimore, MD\n"},{"name":"KFC / LONG JOHN SILVERS","zip":"21206","hood":"Frankford","stationId":"3","address":"5000 SINCLAIR LN\nBaltimore, MD\n"},{"name":"KFC-Y320011","zip":"21215","hood":"Glen","stationId":"4","address":"6600 REISTERSTOWN RD\nBaltimore, MD\n"},{"name":"KICK BACK JACK'S","zip":"21206","hood":"Frankford","stationId":"3","address":"4825 BELAIR RD\nBaltimore, MD\n"},{"name":"KIKU SUSHI RESTAURANT","zip":"21230","hood":"Federal Hill","stationId":"6","address":"1017 LIGHT ST\nBaltimore, MD\n"},{"name":"KIMMY'S RESTAURANT & CARRYOUT, INC.","zip":"21215","hood":"Seton Business Park","stationId":"4","address":"5732 WABASH AVE\nBaltimore, MD\n"},{"name":"KIM'S LIQUORS","zip":"21216","hood":"Northwest Community Action","stationId":"8","address":"2863 NORTH AVE\nBaltimore, MD\n"},{"name":"KIM'S RESTAURANT & CARRYOUT","zip":"21230","hood":"Federal Hill","stationId":"6","address":"1121 LIGHT ST\nBaltimore, MD\n"},{"name":"KING BUFFET","zip":"21230","hood":"Lakeland","stationId":"6","address":"2201 PATAPSCO AVE\nBaltimore, MD\n"},{"name":"KING'S GARDEN CAF, LLC","zip":"21201","hood":"Downtown","stationId":"1","address":"218 CHARLES ST\nBaltimore, MD\n"},{"name":"KING'S PIZZA EXPRESS","zip":"21211","hood":"Hampden","stationId":"2","address":"907 36TH ST\nBaltimore, MD\n"},{"name":"KIRBIE'S GRILL & CAF","zip":"21201","hood":"Downtown","stationId":"1","address":"410 REDWOOD ST\nBaltimore, MD\n"},{"name":"KIRBY'S KORNER","zip":"21224","hood":"Baltimore-Linwood","stationId":"7","address":"35 POTOMAC ST\nBaltimore, MD\n"},{"name":"KISLING'S TAVERN","zip":"21231","hood":"Canton","stationId":"7","address":"2100 FLEET ST\nBaltimore, MD\n"},{"name":"KISS CAF","zip":"21224","hood":"Canton","stationId":"7","address":"2400 BOSTON ST\nBaltimore, MD\n"},{"name":"KITTY'S LOUNGE","zip":"21218","hood":"Abell","stationId":"2","address":"3208 GREENMOUNT AVE\nBaltimore, MD\n"},{"name":"K-MART MORAVIA  STORE #3229","zip":"21206","hood":"Frankford","stationId":"3","address":"5100 SINCLAIR LN\nBaltimore, MD\n"},{"name":"KNOTTY PINE INN","zip":"21224","hood":"Canton","stationId":"7","address":"801 CONKLING ST\nBaltimore, MD\n"},{"name":"KOBA CAF","zip":"21230","hood":"Riverside","stationId":"6","address":"644 FORT AVE\nBaltimore, MD\n"},{"name":"KOCO'S PUB, INC.","zip":"21214","hood":"Lauraville","stationId":"3","address":"4301 HARFORD RD\nBaltimore, MD\n"},{"name":"KOLPERS RESTAURANT AND BAR","zip":"21211","hood":"Jones Falls Area","stationId":"2","address":"1520 CLIPPER RD\nBaltimore, MD\n"},{"name":"KOOPER'S TAVERN","zip":"21231","hood":"Fells Point","stationId":"7","address":"1702 THAMES ST\nBaltimore, MD\n"},{"name":"KOSHER BITE","zip":"21215","hood":"Reisterstown Station","stationId":"4","address":"6309 REISTERSTOWN RD\nBaltimore, MD\n"},{"name":"KOZY KORNER","zip":"21218","hood":"East Baltimore Midway","stationId":"5","address":"701 BARTLETT AVE\nBaltimore, MD\n"},{"name":"KRISTO'S CARRYOUT","zip":"21201","hood":"Downtown","stationId":"1","address":"206 SARATOGA ST\nBaltimore, MD\n"},{"name":"K'S KORNER","zip":"21230","hood":"Westport","stationId":"6","address":"2300 SIDNEY AVE\nBaltimore, MD\n"},{"name":"KUANG NING CARRYOUT","zip":"21216","hood":"Northwest Community Action","stationId":"8","address":"3127 NORTH AVE\nBaltimore, MD\n"},{"name":"KUMARI RESTAURANT & BAR","zip":"21201","hood":"Mount Vernon","stationId":"1","address":"911 CHARLES ST\nBaltimore, MD\n"},{"name":"Kwang Moo Liquor","zip":"21229","hood":"Tremont","stationId":"8","address":"4742 Frederick Ave\nBaltimore, MD\n"},{"name":"L. P. DOCKS","zip":"21230","hood":"Locust Point","stationId":"6","address":"1476 REYNOLDS ST\nBaltimore, MD\n"},{"name":"L.P. STEAMERS","zip":"21230","hood":"Riverside","stationId":"6","address":"1100 FORT AVE\nBaltimore, MD\n"},{"name":"LA  CAZUELA RESTAURANT","zip":"21231","hood":"Fells Point","stationId":"7","address":"1718 5 AVE\nBaltimore, MD\n"},{"name":"LA MARSA","zip":"21231","hood":"Fells Point","stationId":"7","address":"706 BROADWAY\nBaltimore, MD\n"},{"name":"LA ROCA","zip":"21224","hood":"Ellwood Park/Monument","stationId":"7","address":"3210 PULASKI HWY\nBaltimore, MD\n"},{"name":"LA ROCA BRUJA","zip":"21230","hood":"SBIC","stationId":"6","address":"1453 LIGHT ST\nBaltimore, MD\n"},{"name":"LA RUMBA","zip":"21231","hood":"Washington Hill","stationId":"7","address":"1650 54 E PRATT ST\nBaltimore, MD\n"},{"name":"LA SCALA RISTORANTE ITALIANO","zip":"21202","hood":"Little Italy","stationId":"7","address":"1012 5 AVE\nBaltimore, MD\n"},{"name":"LA SIRENITA RESTAURANT, II","zip":"21224","hood":"Brewers Hill","stationId":"7","address":"3928 5 AVE\nBaltimore, MD\n"},{"name":"LA TAVOLA RESTAURANT","zip":"21202","hood":"Little Italy","stationId":"7","address":"248 ALBEMARLE ST\nBaltimore, MD\n"},{"name":"LADY D'S CAF","zip":"21218","hood":"Better Waverly","stationId":"2","address":"2637 GREENMOUNT AVE\nBaltimore, MD\n"},{"name":"LAGERS PUB","zip":"21224","hood":"Canton","stationId":"7","address":"2522 FAIT AVE\nBaltimore, MD\n"},{"name":"LAHOR KABAB HOUSE","zip":"21218","hood":"Charles North","stationId":"2","address":"2110 CHARLES ST\nBaltimore, MD\n"},{"name":"LA'RAE","zip":"21213","hood":"Oliver","stationId":"5","address":"1000 HOFFMAN ST\nBaltimore, MD\n"},{"name":"LARRY FLYNT'S HUSTLER CLUB","zip":"21202","hood":"Downtown","stationId":"1","address":"18 CUSTOM HOUSE AVE\nBaltimore, MD\n"},{"name":"LAS ESPERANZA","zip":"21231","hood":"Fells Point","stationId":"7","address":"529 BOND ST\nBaltimore, MD\n"},{"name":"LAS PALMAS MEXICAN RESTAURANT, INC.","zip":"21231","hood":"Fells Point","stationId":"7","address":"1622 5 AVE\nBaltimore, MD\n"},{"name":"LATASCA","zip":"21202","hood":"Inner Harbor","stationId":"1","address":"201 PRATT ST\nBaltimore, MD\n"},{"name":"LATIN PALACE  (509-13)","zip":"21231","hood":"Fells Point","stationId":"7","address":"509 BROADWAY\nBaltimore, MD\n"},{"name":"LATIN QUARTERS","zip":"21224","hood":"Greektown","stationId":"7","address":"646 NEWKIRK ST\nBaltimore, MD\n"},{"name":"LAVA LOUNGE","zip":"21224","hood":"Canton Industrial Area","stationId":"7","address":"1301 PONCA ST\nBaltimore, MD\n"},{"name":"LEADBETTERS II","zip":"21231","hood":"Fells Point","stationId":"7","address":"1639 THAMES ST\nBaltimore, MD\n"},{"name":"LEAR'S II","zip":"21224","hood":"Canton","stationId":"7","address":"3500 O DONNELL ST\nBaltimore, MD\n"},{"name":"LEBANESE TAVERNA   (AKA 719 S. PRESIDENT STREET)","zip":"21202","hood":"Inner Harbor","stationId":"7","address":"801 ALICEANNA ST\nBaltimore, MD\n"},{"name":"LED ENTERPRISES LTD.","zip":"21223","hood":"Carrollton Ridge","stationId":"6","address":"514 PULASKI ST\nBaltimore, MD\n"},{"name":"LEGAL SEA FOODS","zip":"21202","hood":"Inner Harbor","stationId":"1","address":"100 PRATT ST\nBaltimore, MD\n"},{"name":"LEGEND RESTAURANT","zip":"21217","hood":"Upton","stationId":"1","address":"614 LAURENS ST\nBaltimore, MD\n"},{"name":"LEMONGRASS BALTIMORE","zip":"21213","hood":"Little Italy","stationId":"7","address":"1300 BANK STREET\nBaltimore, MD\n"},{"name":"LENNY'S DELI OF LOMBARD STREET","zip":"21202","hood":"Jonestown","stationId":"7","address":"1150 LOMBARD ST\nBaltimore, MD\n"},{"name":"LEN'S SANDWICH SHOP","zip":"21213","hood":"Broadway East","stationId":"5","address":"1500 WASHINGTON ST\nBaltimore, MD\n"},{"name":"LEON'S BAR","zip":"21230","hood":"Riverside","stationId":"6","address":"1740 LIGHT ST\nBaltimore, MD\n"},{"name":"LEVEL'S LOUNGE","zip":"21223","hood":"Penrose/Fayette Street Outreach","stationId":"8","address":"322 FRANKLINTOWN RD\nBaltimore, MD\n"},{"name":"LIGHT STREET CAF - 17th FLOOR","zip":"21202","hood":"Inner Harbor","stationId":"1","address":"100 LIGHT ST\nBaltimore, MD\n"},{"name":"LIGHT STREET TAVERN","zip":"21230","hood":"SBIC","stationId":"6","address":"1400 LIGHT ST\nBaltimore, MD\n"},{"name":"LIKE FATHER AND SON","zip":"21223","hood":"Penrose/Fayette Street Outreach","stationId":"9","address":"228 MONROE ST\nBaltimore, MD\n"},{"name":"LIL'S PLACE","zip":"21217","hood":"Mondawmin","stationId":"9","address":"1909 PULASKI ST\nBaltimore, MD\n"},{"name":"LIME","zip":"21230","hood":"Riverside","stationId":"6","address":"801 FORT AVE\nBaltimore, MD\n"},{"name":"LINDEN DELI","zip":"21201","hood":"Mount Vernon","stationId":"1","address":"890 LINDEN AVE\nBaltimore, MD\n"},{"name":"LINDEN LOUNGE & BAR","zip":"21217","hood":"Reservoir Hill","stationId":"1","address":"904 NORTH AVE\nBaltimore, MD\n"},{"name":"LITHUANIAN HALL ASSOCIATION, INC.","zip":"21201","hood":"Hollins Market","stationId":"6","address":"851 HOLLINS ST\nBaltimore, MD\n"},{"name":"LITTLE BEAVER SOCIAL CLUB","zip":"21224","hood":"Greektown","stationId":"7","address":"600 LEHIGH ST\nBaltimore, MD\n"},{"name":"LITTLE HAVANA","zip":"21230","hood":"Inner Harbor","stationId":"6","address":"1325 key HWY\nBaltimore, MD\n"},{"name":"LITTLE TAVERN SHOPS","zip":"21224","hood":"Highlandtown","stationId":"7","address":"3515 5 AVE\nBaltimore, MD\n"},{"name":"LITTLE TAVERN SHOPS(6412-14)","zip":"21224","hood":"Broening Manor","stationId":"7","address":"6412 HOLABIRD AVE\nBaltimore, MD\n"},{"name":"LOCO HOMBRE","zip":"21210","hood":"Evergreen","stationId":"2","address":"411 COLDSPRING LN\nBaltimore, MD\n"},{"name":"LOCUST POINT TAVERN","zip":"21230","hood":"Locust Point","stationId":"6","address":"1515 CLEMENT ST\nBaltimore, MD\n"},{"name":"LONG HING CARRYOUT","zip":"21202","hood":"Johnston Square","stationId":"5","address":"1131 GREENMOUNT\nBaltimore, MD\n"},{"name":"LONG JOHN SILVERS/A &W RESTAURANTS","zip":"21215","hood":"Glen","stationId":"4","address":"6602 REISTERSTOWN RD\nBaltimore, MD\n"},{"name":"LONG JOHN'S PUB","zip":"21211","hood":"Remington","stationId":"2","address":"398 29TH ST\nBaltimore, MD\n"},{"name":"LONGWOOD CAFE'","zip":"21223","hood":"Gwynns Falls","stationId":"8","address":"3001 FREDERICK AVE\nBaltimore, MD\n"},{"name":"looney's pub","zip":"21224","hood":"Canton","stationId":"7","address":"2900 o donnell st\nBaltimore, MD\n"},{"name":"LOS MARIACHIS RESTAURANT","zip":"21231","hood":"Canton","stationId":"7","address":"2227 5 AVE\nBaltimore, MD\n"},{"name":"LOUISIANA","zip":"21231","hood":"Fells Point","stationId":"7","address":"1708 ALICEANNA ST\nBaltimore, MD\n"},{"name":"LOUNGE 51","zip":"21205","hood":"Middle East","stationId":"5","address":"633 DUNCAN ST\nBaltimore, MD\n"},{"name":"LOU'S BAR","zip":"21224","hood":"Pulaski Industrial Area","stationId":"7","address":"4825 5 AVE\nBaltimore, MD\n"},{"name":"LOWELL LIQUOR","zip":"21215","hood":"Central Park Heights","stationId":"4","address":"3201 WOODLAND AVE\nBaltimore, MD\n"},{"name":"LUCA'S CAF","zip":"21230","hood":"Locust Point Industrial Area","stationId":"6","address":"1230 FORT AVE\nBaltimore, MD\n"},{"name":"LULU'S OFF BROADWAY","zip":"21231","hood":"Fells Point","stationId":"7","address":"1703 ALICEANNA ST\nBaltimore, MD\n"},{"name":"LUMBINI","zip":"21201","hood":"Downtown","stationId":"1","address":"322 CHARLES ST\nBaltimore, MD\n"},{"name":"LUNA DELSEA","zip":"21201","hood":"Inner Harbor","stationId":"1","address":"300 PRATT ST\nBaltimore, MD\n"},{"name":"LUST","zip":"21202","hood":"Downtown","stationId":"1","address":"408 BALTIMORE ST\nBaltimore, MD\n"},{"name":"LYRIC THEATRE","zip":"21201","hood":"Mid-Town Belvedere","stationId":"1","address":"110 MOUNT ROYAL AVE\nBaltimore, MD\n"},{"name":"M & J'S SOUL FOOD","zip":"21218","hood":"Charles Village","stationId":"2","address":"102 25TH ST\nBaltimore, MD\n"},{"name":"M & M LIQUOR AND LOUNGE","zip":"21215","hood":"Central Park Heights","stationId":"4","address":"5142 PARK HEIGHTS AVE\nBaltimore, MD\n"},{"name":"M & S GRILL/MCCORMICK & SCHMICK'S SEAFOOD REST.","zip":"21202","hood":"Inner Harbor","stationId":"1","address":"201 PRATT ST\nBaltimore, MD\n"},{"name":"MACEO'S","zip":"21217","hood":"Mondawmin","stationId":"9","address":"1926 MONROE ST\nBaltimore, MD\n"},{"name":"MAGERK'S PUB","zip":"21230","hood":"Federal Hill","stationId":"6","address":"1061 CHARLES ST\nBaltimore, MD\n"},{"name":"MAGGIE MOORE'S IRISH PUB & RESTAURANT","zip":"21201","hood":"Downtown","stationId":"1","address":"21 EUTAW ST\nBaltimore, MD\n"},{"name":"mahaffey's pub","zip":"21224","hood":"Canton","stationId":"7","address":"2706 dillon st\nBaltimore, MD\n"},{"name":"MAKUTI ENTERPRISES, LLC","zip":"21206","hood":"Frankford","stationId":"3","address":"5302 FRANKFORD AVE\nBaltimore, MD\n"},{"name":"MAMA'S ON THE HALF SHELL","zip":"21224","hood":"Canton","stationId":"7","address":"2901 O DONNELL ST\nBaltimore, MD\n"},{"name":"MAMMA LUCIA PIZZA","zip":"21215","hood":"Hanlon-Longwood","stationId":"4","address":"3049 MONDAWMIN MALL\nBaltimore, MD\n"},{"name":"MAMMA ROMA","zip":"21215","hood":"Glen","stationId":"4","address":"6604 REISTERSTOWN RD\nBaltimore, MD\n"},{"name":"MAMMA'S CUCINA","zip":"21211","hood":"Hampden","stationId":"2","address":"1020 41ST ST\nBaltimore, MD\n"},{"name":"MARGARETS PLACE","zip":"21223","hood":"New Southwest/Mount Clare","stationId":"6","address":"351 CALHOUN ST\nBaltimore, MD\n"},{"name":"MARIA D'S","zip":"21230","hood":"Federal Hill","stationId":"6","address":"1016 LIGHT ST\nBaltimore, MD\n"},{"name":"MARTICK'S","zip":"21201","hood":"Downtown","stationId":"1","address":"214 MULBERRY ST\nBaltimore, MD\n"},{"name":"MARYLAND CASUALTY  COMPANY (CAF)","zip":"21211","hood":"Roland Park","stationId":"2","address":"3910 KESWICK RD\nBaltimore, MD\n"},{"name":"MARYLAND CLUB","zip":"21202","hood":"Mid-Town Belvedere","stationId":"1","address":"1 EAGER ST\nBaltimore, MD\n"},{"name":"MARYLAND SCIENCE CENTER BEAKER'S CAF","zip":"21230","hood":"Otterbein","stationId":"1","address":"601 LIGHT ST\nBaltimore, MD\n"},{"name":"MARY'S TAVERN","zip":"21231","hood":"Upper Fells Point","stationId":"7","address":"2057 GOUGH ST\nBaltimore, MD\n"},{"name":"MASTELLONE'S","zip":"21234","hood":"North Harford Road","stationId":"3","address":"7212 HARFORD RD\nBaltimore, MD\n"},{"name":"MATSURI RESTAURANT","zip":"21230","hood":"Federal Hill","stationId":"6","address":"1105 CHARLES ST\nBaltimore, MD\n"},{"name":"matthew's pizza","zip":"21224","hood":"Canton","stationId":"7","address":"3131 eastern ave\nBaltimore, MD\n"},{"name":"MAX'S ON BROADWAY","zip":"21231","hood":"Fells Point","stationId":"7","address":"735 BROADWAY\nBaltimore, MD\n"},{"name":"MAYNARD'S CAFE & RESTAURANT","zip":"21225","hood":"Brooklyn","stationId":"6","address":"3916 HANOVER ST\nBaltimore, MD\n"},{"name":"MBEPB VF #109-PERRY'S CRESENT CAF","zip":"21202","hood":"Downtown","stationId":"1","address":"10 HOWARD ST\nBaltimore, MD\n"},{"name":"MBEPB VF #137--- STATE CENTER CAF","zip":"21201","hood":"Madison Park","stationId":"1","address":"301 preston st\nBaltimore, MD\n"},{"name":"MBEPB VF #34","zip":"21201","hood":"Seton Hill","stationId":"1","address":"300 GREENE ST\nBaltimore, MD\n"},{"name":"MCCABE'S","zip":"21211","hood":"Hampden","stationId":"2","address":"3845 FALLS RD\nBaltimore, MD\n"},{"name":"MCCORMICK & SCHMICK SEAFOOD RESTAURANT","zip":"21202","hood":"Inner Harbor","stationId":"1","address":"711 5 AVE\nBaltimore, MD\n"},{"name":"MCCRACKENS ON KEY","zip":"21230","hood":"Riverside","stationId":"6","address":"1400 KEY HIGHWAY\nBaltimore, MD\n"},{"name":"MCDONALD'S","zip":"21202","hood":"Downtown","stationId":"1","address":"101 BALTIMORE ST\nBaltimore, MD\n"},{"name":"mcdonald's","zip":"21202","hood":"Brooklyn","stationId":"6","address":"101 patapsco ave\nBaltimore, MD\n"},{"name":"mcdonald's","zip":"21202","hood":"Inner Harbor","stationId":"1","address":"200 pratt st\nBaltimore, MD\n"},{"name":"MCDONALD'S","zip":"21213","hood":"South Clifton Park","stationId":"5","address":"2001 BROADWAY\nBaltimore, MD\n"},{"name":"MCDONALD'S","zip":"21201","hood":"Downtown","stationId":"1","address":"25 HOWARD ST\nBaltimore, MD\n"},{"name":"MCDONALD'S","zip":"21218","hood":"Better Waverly","stationId":"2","address":"2840 GREENMOUNT\nBaltimore, MD\n"},{"name":"MCDONALD'S","zip":"21202","hood":"Downtown","stationId":"1","address":"31 CALVERT ST\nBaltimore, MD\n"},{"name":"mcdonald's","zip":"21229","hood":"Violetville","stationId":"8","address":"3619 wilkens ave\nBaltimore, MD\n"},{"name":"mcdonald's","zip":"21211","hood":"Hampden","stationId":"2","address":"3920 falls rd\nBaltimore, MD\n"},{"name":"MCDONALD'S","zip":"21215","hood":"Central Park Heights","stationId":"4","address":"4401 REISTERSTOWN RD\nBaltimore, MD\n"},{"name":"MCDONALD'S","zip":"21212","hood":"Radnor-Winston","stationId":"2","address":"5100 YORK RD\nBaltimore, MD\n"},{"name":"MCDONALD'S","zip":"21206","hood":"Pulaski Industrial Area","stationId":"3","address":"6001 MORAVIA RD\nBaltimore, MD\n"},{"name":"MCDONALD'S  RESTAURANT","zip":"21206","hood":"Frankford","stationId":"3","address":"5713 BELAIR RD\nBaltimore, MD\n"},{"name":"MCDONALD'S #5437","zip":"21224","hood":"Baltimore Highlands","stationId":"7","address":"3401 PULASKI HWY\nBaltimore, MD\n"},{"name":"MCDONALD'S (4526-38)","zip":"21215","hood":"Claremont-Freedom","stationId":"3","address":"4526 ERDMAN AVE\nBaltimore, MD\n"},{"name":"MCDONALD'S 11851","zip":"21230","hood":"Riverside","stationId":"6","address":"825 FORT AVE\nBaltimore, MD\n"},{"name":"MCDONALD'S HAMBURGERS","zip":"21223","hood":"Penrose/Fayette Street Outreach","stationId":"8","address":"2501 FRANKLIN ST\nBaltimore, MD\n"},{"name":"MCDONALD'S HAMBURGERS","zip":"21229","hood":"Carroll-South Hilton","stationId":"8","address":"3249 FREDERICK AVE\nBaltimore, MD\n"},{"name":"MCDONALD'S HAMBURGERS","zip":"21201","hood":"Downtown","stationId":"1","address":"425 BALTIMORE ST\nBaltimore, MD\n"},{"name":"MCDONALD'S RESTAURANT","zip":"21215","hood":"Reisterstown Station","stationId":"4","address":"4205 MORTIMER AVE\nBaltimore, MD\n"},{"name":"MCDONALD'S RESTAURANT","zip":"21202","hood":"Downtown","stationId":"1","address":"45 MARKET PL\nBaltimore, MD\n"},{"name":"MCHENRY STREET PUB","zip":"21230","hood":"New Southwest/Mount Clare","stationId":"6","address":"1513 MCHENRY ST\nBaltimore, MD\n"},{"name":"MEADOW MILL ATHLETIC CLUB","zip":"21211","hood":"Hampden","stationId":"2","address":"3600 CLIPPER MILL RD\nBaltimore, MD\n"},{"name":"MEHEK","zip":"21231","hood":"Fells Point","stationId":"7","address":"811 BROADWAY\nBaltimore, MD\n"},{"name":"MELI PATISSERIE & BISTRO","zip":"21231","hood":"Fells Point","stationId":"7","address":"818 BROADWAY\nBaltimore, MD\n"},{"name":"METROPOLITAN COFFEEHOUSE AND WINE BAR","zip":"21230","hood":"Federal Hill","stationId":"6","address":"902 CHARLES ST\nBaltimore, MD\n"},{"name":"MEX RESTAURANT","zip":"21202","hood":"Downtown","stationId":"1","address":"26 MARKET PL\nBaltimore, MD\n"},{"name":"MICHAEL'S STEAK & LOBSTER HOUSE","zip":"21224","hood":"Joseph Lee","stationId":"7","address":"6207 5 AVE\nBaltimore, MD\n"},{"name":"MICHELLE'S CAF","zip":"21231","hood":"Fells Point","stationId":"7","address":"1836 5 AVE\nBaltimore, MD\n"},{"name":"MICK 0' SHEA'S IRISH PUB","zip":"21201","hood":"Downtown","stationId":"1","address":"328 CHARLES ST\nBaltimore, MD\n"},{"name":"MIDTOWN YACHT CLUB","zip":"21202","hood":"Mount Vernon","stationId":"1","address":"15 CENTRE ST\nBaltimore, MD\n"},{"name":"NEW REX LIQUORS,INC.","zip":"21212","hood":"Wilson Park","stationId":"2","address":"4637 YORK RD\nBaltimore, MD\n"},{"name":"NEW RITZ CABARET","zip":"21231","hood":"Fells Point","stationId":"7","address":"504 BROADWAY\nBaltimore, MD\n"},{"name":"NEW SEOUL RESTAURANT","zip":"21218","hood":"Charles North","stationId":"1","address":"1910 16 N CHARLES ST\nBaltimore, MD\n"},{"name":"NICHIBAN OF FEDERAL HILL, INC.","zip":"21230","hood":"Federal Hill","stationId":"6","address":"1035 CHARLES ST\nBaltimore, MD\n"},{"name":"NICK'S","zip":"21223","hood":"Carrollton Ridge","stationId":"8","address":"2200 WILKENS AVE\nBaltimore, MD\n"},{"name":"NICK'S FISH HOUSE","zip":"21230","hood":"Port Covington","stationId":"6","address":"2600 INSULATOR DR\nBaltimore, MD\n"},{"name":"NIGHT OF THE COOKERS. LLC","zip":"21201","hood":"Mount Vernon","stationId":"1","address":"885 HOWARD ST\nBaltimore, MD\n"},{"name":"NIGHTSHIFT","zip":"21224","hood":"Canton Industrial Area","stationId":"7","address":"1725 PONCA ST\nBaltimore, MD\n"},{"name":"NIWANA","zip":"21218","hood":"Charles Village","stationId":"2","address":"3215 CHARLES ST\nBaltimore, MD\n"},{"name":"NO IDEA","zip":"21230","hood":"SBIC","stationId":"6","address":"1649 HANOVER ST\nBaltimore, MD\n"},{"name":"NO WAY JOSE CAF","zip":"21230","hood":"Federal Hill","stationId":"6","address":"38 CROSS ST\nBaltimore, MD\n"},{"name":"NO. #1 CHINESE RESTAURANT","zip":"21224","hood":"Highlandtown","stationId":"7","address":"3710 5 AVE\nBaltimore, MD\n"},{"name":"NORMA  JEANS","zip":"21202","hood":"Downtown","stationId":"1","address":"10 CUSTOM HOUSE AVE\nBaltimore, MD\n"},{"name":"NORTH POLE ICE CREAM COMPANY","zip":"21224","hood":"Highlandtown","stationId":"7","address":"3713 5 AVE\nBaltimore, MD\n"},{"name":"NORTH'S CAF","zip":"21215","hood":"Arlington","stationId":"4","address":"3716 BELVEDERE AVE\nBaltimore, MD\n"},{"name":"NORTHSIDE SPORTS BAR","zip":"21218","hood":"Abell","stationId":"2","address":"3100 GREENMOUNT AVE\nBaltimore, MD\n"},{"name":"OASIS NITECLUB","zip":"21202","hood":"Downtown","stationId":"1","address":"417 BALTIMORE ST\nBaltimore, MD\n"},{"name":"O'BRADY SALOON","zip":"21225","hood":"Fairfield Area","stationId":"6","address":"3432 HANOVER ST\nBaltimore, MD\n"},{"name":"O'CONNORS","zip":"21224","hood":"Greektown","stationId":"7","address":"4801 5 AVE\nBaltimore, MD\n"},{"name":"O'DONNELL PUB","zip":"21224","hood":"Canton","stationId":"7","address":"531 POTOMAC ST\nBaltimore, MD\n"},{"name":"ODYSSEY LOUNGE","zip":"21217","hood":"Sandtown-Winchester","stationId":"9","address":"1323 PRESSTMAN ST\nBaltimore, MD\n"},{"name":"O'HARA'S IRISH PUB","zip":"21206","hood":"Rosemont East","stationId":"3","address":"6506 BELAIR RD\nBaltimore, MD\n"},{"name":"OK TAVERN","zip":"21213","hood":"Biddle Street","stationId":"5","address":"2301 BIDDLE ST\nBaltimore, MD\n"},{"name":"OLD BAY CAF","zip":"21202","hood":"Inner Harbor","stationId":"1","address":"501 PRATT STREET\nBaltimore, MD\n"},{"name":"OLDE OBRYCKI'S CRAB HOUSE (saesonal)","zip":"21231","hood":"Upper Fells Point","stationId":"7","address":"1727 PRATT ST\nBaltimore, MD\n"},{"name":"OLORI B'","zip":"21218","hood":"Better Waverly","stationId":"2","address":"2637 GREENMOUNT AVE\nBaltimore, MD\n"},{"name":"OMEGA PSI PHI FRATERNITY","zip":"21217","hood":"Easterwood","stationId":"9","address":"2003 PRESBURY ST\nBaltimore, MD\n"},{"name":"ONE + ONE CARRYOUT","zip":"21216","hood":"Sandtown-Winchester","stationId":"9","address":"1550 MONROE ST\nBaltimore, MD\n"},{"name":"ONE WORLD CAF","zip":"21210","hood":"Tuscany-Canterbury","stationId":"2","address":"100 UNIVERSITY PKWY\nBaltimore, MD\n"},{"name":"ONE-EYED MIKE'S","zip":"21231","hood":"Fells Point","stationId":"7","address":"708 BOND ST\nBaltimore, MD\n"},{"name":"OPEN HEARTH INN","zip":"21222","hood":"Saint Helena","stationId":"7","address":"6591 ST HELENA AVE\nBaltimore, MD\n"},{"name":"ORIENT EXPRESS","zip":"21218","hood":"Charles Village","stationId":"2","address":"3111 ST PAUL ST\nBaltimore, MD\n"},{"name":"ORLEANS LIQUORS","zip":"21224","hood":"McElderry Park","stationId":"7","address":"401 MONTFORD AVE\nBaltimore, MD\n"},{"name":"ottobar","zip":"21218","hood":"Remington","stationId":"2","address":"2549 howard st\nBaltimore, MD\n"},{"name":"OUT TO LUNCH","zip":"21202","hood":"Inner Harbor","stationId":"1","address":"109 MARKET PL\nBaltimore, MD\n"},{"name":"OUTBACK STEAKHOUSE","zip":"21224","hood":"Canton","stationId":"7","address":"2400 BOSTON ST\nBaltimore, MD\n"},{"name":"OVERLEA   DINER","zip":"21206","hood":"Rosemont East","stationId":"3","address":"6652 BELAIR RD\nBaltimore, MD\n"},{"name":"OXFORD TAVERN","zip":"21217","hood":"Sandtown-Winchester","stationId":"9","address":"1741 NORTH AVE\nBaltimore, MD\n"},{"name":"P & S JAMAICAN & AMERICAN RESTAURNAT & CARRYOUT","zip":"21215","hood":"Pimlico Good Neighbors","stationId":"4","address":"5218 PARK HEIGHTS AVE\nBaltimore, MD\n"},{"name":"P.J.'S PUB","zip":"21218","hood":"Charles Village","stationId":"2","address":"3333 CHARLES ST\nBaltimore, MD\n"},{"name":"PAIK'S PLACE","zip":"21226","hood":"Fairfield Area","stationId":"6","address":"3563 FAIRFIELD RD\nBaltimore, MD\n"},{"name":"PAK'S LIQUORS","zip":"21223","hood":"Franklin Square","stationId":"9","address":"300 GILMOR ST\nBaltimore, MD\n"},{"name":"PALOMA'S (351-55)","zip":"21223","hood":"New Southwest/Mount Clare","stationId":"6","address":"351 WOODYEAR ST\nBaltimore, MD\n"},{"name":"PANADERIA HERMANOS NAVARRO LLC","zip":"21224","hood":"Highlandtown","stationId":"7","address":"3712 5 AVE\nBaltimore, MD\n"},{"name":"PANDA EXPRESS # 1152","zip":"21215","hood":"Reisterstown Station","stationId":"4","address":"6514 REISTERSTOWN RD\nBaltimore, MD\n"},{"name":"PANERA BREAD","zip":"21202","hood":"Inner Harbor","stationId":"1","address":"600 PRATT ST\nBaltimore, MD\n"},{"name":"PANERA BREAD","zip":"21212","hood":"Lake Walker","stationId":"2","address":"6307 1 2 YORK RD\nBaltimore, MD\n"},{"name":"PAPA  JOHNS  PIZZA","zip":"21214","hood":"Waltherson","stationId":"3","address":"5246 HARFORD RD\nBaltimore, MD\n"},{"name":"PAPA JOHN'S","zip":"21218","hood":"Abell","stationId":"2","address":"347 33RD ST\nBaltimore, MD\n"},{"name":"PAPA JOHN'S PIZZA 730","zip":"21210","hood":"Cross Keys","stationId":"2","address":"4535 FALLS RD\nBaltimore, MD\n"},{"name":"PAPERMOON DINER","zip":"21211","hood":"Remington","stationId":"2","address":"227 29TH ST\nBaltimore, MD\n"},{"name":"PARADISE OF PARK HEIGHTS","zip":"21215","hood":"Central Park Heights","stationId":"4","address":"4448 PARK HEIGHTS AVE\nBaltimore, MD\n"},{"name":"PARADOX","zip":"21230","hood":"Carroll - Camden Industrial Area","stationId":"6","address":"1310 RUSSELL ST\nBaltimore, MD\n"},{"name":"PARK  AVE.  SPORTS  BAR","zip":"21202","hood":"Downtown","stationId":"1","address":"412 PARK AVE\nBaltimore, MD\n"},{"name":"PARK AVENUE CAF EXPRESS","zip":"21227","hood":"Violetville","stationId":"8","address":"3700 KOPPERS ST\nBaltimore, MD\n"},{"name":"PARK INN","zip":"21231","hood":"Canton","stationId":"7","address":"2239 5 AVE\nBaltimore, MD\n"},{"name":"Parkside Restaurant","zip":"21224","hood":"Baltimore-Linwood","stationId":"7","address":"2901 Baltimore St\nBaltimore, MD\n"},{"name":"PARTHENON DINER","zip":"21201","hood":"Downtown","stationId":"1","address":"8 PARK AVENUE\nBaltimore, MD\n"},{"name":"PASTICCIO ITALIAN KITCHEN","zip":"21224","hood":"Canton","stationId":"7","address":"2400 BOSTON ST\nBaltimore, MD\n"},{"name":"PATRICK'S  OF PRATT STREET","zip":"21223","hood":"Hollins Market","stationId":"6","address":"131 SCHROEDER ST\nBaltimore, MD\n"},{"name":"PATTERSON PERK, LLC","zip":"21224","hood":"Canton","stationId":"7","address":"2501 5 AVE\nBaltimore, MD\n"},{"name":"PATTY CAKES","zip":"21218","hood":"Lauraville","stationId":"3","address":"2301 ARGONNE DR\nBaltimore, MD\n"},{"name":"PAUL'S","zip":"21230","hood":"Riverside","stationId":"6","address":"701 FORT AVE\nBaltimore, MD\n"},{"name":"PAZO","zip":"21231","hood":"Fells Point","stationId":"7","address":"1425 ALICEANNA ST\nBaltimore, MD\n"},{"name":"PAZZA LUNA","zip":"21230","hood":"Locust Point","stationId":"6","address":"1401 CLEMENT ST\nBaltimore, MD\n"},{"name":"peabody court a clairon hotel","zip":"21201","hood":"Mount Vernon","stationId":"1","address":"612 cathedral st\nBaltimore, MD\n"},{"name":"PEARL'S","zip":"21231","hood":"Fells Point","stationId":"7","address":"1900 ALICEANNA ST\nBaltimore, MD\n"},{"name":"PEIWEI ASIAN DINER","zip":"21212","hood":"Cedarcroft","stationId":"2","address":"6302 YORK RD\nBaltimore, MD\n"},{"name":"peking house","zip":"21225","hood":"Brooklyn","stationId":"6","address":"3606 hanover st\nBaltimore, MD\n"},{"name":"PENN LIQUORS","zip":"21202","hood":"Johnston Square","stationId":"5","address":"1041 GREENMOUNT AVE\nBaltimore, MD\n"},{"name":"PENN RESTAURANT & CARRYOUT","zip":"21201","hood":"University Of Maryland","stationId":"1","address":"663 PRATT ST\nBaltimore, MD\n"},{"name":"PENN STREET TAVERN","zip":"21230","hood":"Ridgely's Delight","stationId":"6","address":"213 PENN ST\nBaltimore, MD\n"},{"name":"PENNINGTON   STATION","zip":"21226","hood":"Curtis Bay","stationId":"6","address":"4901 PENNINGTON AVE\nBaltimore, MD\n"},{"name":"PENNINGTON'S PUB      (5 & 7 W. PATAPSCO AVE.)","zip":"21225","hood":"Brooklyn","stationId":"6","address":"7 PATAPSCO AVE\nBaltimore, MD\n"},{"name":"PEPINO'S INCORPORATED","zip":"21202","hood":"Little Italy","stationId":"7","address":"301 EXETER ST\nBaltimore, MD\n"},{"name":"PEPPER'S LIQUOR'S","zip":"21215","hood":"Woodmere","stationId":"4","address":"5440 REISTERSTOWN RD\nBaltimore, MD\n"},{"name":"PERGUSA ENTERPRISES","zip":"21212","hood":"Rosebank","stationId":"2","address":"5928 YORK RD\nBaltimore, MD\n"},{"name":"PETALO'S","zip":"21202","hood":"Little Italy","stationId":"7","address":"1002 5 AVE\nBaltimore, MD\n"},{"name":"PETERS POUR HOUSE AND PUB 110","zip":"21202","hood":"Downtown","stationId":"1","address":"111 MERCER ST\nBaltimore, MD\n"},{"name":"PETE'S GRILLE","zip":"21218","hood":"Better Waverly","stationId":"2","address":"3130 GREENMOUNT AVE\nBaltimore, MD\n"},{"name":"PETE'S INN, INCORPORATED","zip":"21231","hood":"Fells Point","stationId":"7","address":"504 ANN ST\nBaltimore, MD\n"},{"name":"PETIT LOUIS BISTRO","zip":"21210","hood":"Roland Park","stationId":"2","address":"4800 ROLAND AVE\nBaltimore, MD\n"},{"name":"PETTIFORD'S SEAFOOD & SOUL FOOD","zip":"21218","hood":"East Baltimore Midway","stationId":"5","address":"2002 HARFORD RD\nBaltimore, MD\n"},{"name":"PF CHANGS CHINA BISTRO","zip":"21202","hood":"Inner Harbor","stationId":"1","address":"600 PRATT ST\nBaltimore, MD\n"},{"name":"PHANTOM'S BAR AND GRILL","zip":"21213","hood":"Belair-Edison","stationId":"3","address":"3539 BELAIR RD\nBaltimore, MD\n"},{"name":"PHILLIP'S EXPRESS BUFFET","zip":"21202","hood":"Inner Harbor","stationId":"1","address":"301 light\nBaltimore, MD\n"},{"name":"PHILLIP'S OF HARBOR PLACE","zip":"21202","hood":"Inner Harbor","stationId":"1","address":"301 light st\nBaltimore, MD\n"},{"name":"PICCADELIS","zip":"21201","hood":"Mount Vernon","stationId":"1","address":"202 READ ST\nBaltimore, MD\n"},{"name":"PICKLES PUB","zip":"21230","hood":"Inner Harbor","stationId":"6","address":"520 WASHINGTON BLVD\nBaltimore, MD\n"},{"name":"PIER 5 HOTEL","zip":"21202","hood":"Inner Harbor","stationId":"1","address":"711 5 AVE\nBaltimore, MD\n"},{"name":"PIMLICO TRACK KITCHEN  (PIMLICO RACE COURSE)","zip":"21215","hood":"Pimlico Good Neighbors","stationId":"4","address":"Haward Ave\nBaltimore, MD\n"},{"name":"PIZZA PRESTO","zip":"21224","hood":"Pulaski Industrial Area","stationId":"7","address":"6500 5 AVENUE\nBaltimore, MD\n"},{"name":"PIZZERIA UNO","zip":"21202","hood":"Inner Harbor","stationId":"1","address":"201 PRATT ST\nBaltimore, MD\n"},{"name":"PLAZA SALOON, INC.","zip":"21202","hood":"Downtown","stationId":"1","address":"404 BALTIMORE ST\nBaltimore, MD\n"},{"name":"POLISH NATIONAL ALLIANCE, COUNCIL 21","zip":"21231","hood":"Fells Point","stationId":"7","address":"1627 5 AVE\nBaltimore, MD\n"},{"name":"POLLO REAL","zip":"21224","hood":"Baltimore Highlands","stationId":"7","address":"101 EATON ST\nBaltimore, MD\n"},{"name":"POLOCK JOHNNY'S","zip":"21230","hood":"Morrell Park","stationId":"8","address":"3212 WASHINGTON BLVD\nBaltimore, MD\n"},{"name":"POL'S CAF","zip":"21224","hood":"Canton","stationId":"7","address":"2619 21 FOSTER AVE\nBaltimore, MD\n"},{"name":"PONCABIRD PUB/SNACK SHACK","zip":"21224","hood":"Canton Industrial Area","stationId":"7","address":"1719 PONCABIRD PASS\nBaltimore, MD\n"},{"name":"POPEYES FAMOUS FRIED CHICKEN","zip":"21231","hood":"Dunbar-Broadway","stationId":"7","address":"300 BROADWAY\nBaltimore, MD\n"},{"name":"POPEYES FAMOUS FRIED CHICKEN","zip":"21224","hood":"Baltimore Highlands","stationId":"7","address":"3400 PULASKI HWY\nBaltimore, MD\n"},{"name":"POPEYES FAMOUS FRIED CHICKEN","zip":"21229","hood":"Rognel Heights","stationId":"8","address":"4404 EDMONDSON AVE\nBaltimore, MD\n"},{"name":"POPEYES FAMOUS FRIED CHICKEN","zip":"21206","hood":"Frankford","stationId":"3","address":"5002 SINCLAIR LN\nBaltimore, MD\n"},{"name":"POPEYES FAMOUS FRIED CHICKEN","zip":"21212","hood":"Winston-Govans","stationId":"2","address":"5002 YORK RD\nBaltimore, MD\n"},{"name":"POPEYES FAMOUS FRIED CHICKEN","zip":"21206","hood":"Rosemont East","stationId":"3","address":"6642 BELAIR RD\nBaltimore, MD\n"},{"name":"POPEYES FAMOUS FRIED CHICKEN","zip":"21230","hood":"Riverside","stationId":"6","address":"887 FORT AVE\nBaltimore, MD\n"},{"name":"POPEYE'S FAMOUS FRIED CHICKEN & BISCUITS","zip":"21215","hood":"Reisterstown Station","stationId":"4","address":"6512 reisterstown RD\nBaltimore, MD\n"},{"name":"POPEYES OF MONDAWMIN","zip":"21215","hood":"Mondawmin","stationId":"9","address":"2401 LIBERTY HEIGHTS AVE\nBaltimore, MD\n"},{"name":"PORT IN A STORM","zip":"21224","hood":"Kresson","stationId":"7","address":"4330 LOMBARD ST\nBaltimore, MD\n"},{"name":"PORT TRUCK STOP BAR  RESTAURANT","zip":"21224","hood":"Canton Industrial Area","stationId":"7","address":"1701 CLINTON ST\nBaltimore, MD\n"},{"name":"PORTERS PUB","zip":"21230","hood":"Federal Hill","stationId":"6","address":"1032 RIVERSIDE AVE\nBaltimore, MD\n"},{"name":"REISTERSTOWN ROAD SUBWAY","zip":"21215","hood":"Woodmere","stationId":"4","address":"5520 REISTERSTOWN ROAD\nBaltimore, MD\n"},{"name":"RENAISSANCE HARBORPLACE HOTEL","zip":"21202","hood":"Inner Harbor","stationId":"1","address":"200 PRATT ST\nBaltimore, MD\n"},{"name":"RENAISSANCE HARBORPLACE HOTEL","zip":"21202","hood":"Inner Harbor","stationId":"1","address":"200 202 E PRATT ST\nBaltimore, MD\n"},{"name":"RENAISSANCE HARBORPLACE HOTEL","zip":"21202","hood":"Inner Harbor","stationId":"1","address":"200 202 E PRATT ST\nBaltimore, MD\n"},{"name":"RENAISSANCE HARBORPLACE HOTEL","zip":"21202","hood":"Inner Harbor","stationId":"1","address":"200 202 E PRATT ST\nBaltimore, MD\n"},{"name":"RENDEZVOUS  LOUNGE","zip":"21218","hood":"Charles Village","stationId":"2","address":"136 25TH ST\nBaltimore, MD\n"},{"name":"restaurante el trovador","zip":"21231","hood":"Fells Point","stationId":"7","address":"318 broadway\nBaltimore, MD\n"},{"name":"restaurate el salvador","zip":"21231","hood":"Fells Point","stationId":"7","address":"207 broadway\nBaltimore, MD\n"},{"name":"RICK'S BAR & GRILL","zip":"21226","hood":"Curtis Bay","stationId":"6","address":"5014 CURTIS AVE\nBaltimore, MD\n"},{"name":"RITA'S ITALIAN ICE","zip":"21215","hood":"Fallstaff","stationId":"4","address":"6796 REISTERSTOWN RD\nBaltimore, MD\n"},{"name":"ROBBIE'S NEST","zip":"21213","hood":"Broadway East","stationId":"5","address":"2250 NORTH AVE\nBaltimore, MD\n"},{"name":"ROBERT OLIVER SEAFOOD","zip":"21201","hood":"Mid-Town Belvedere","stationId":"1","address":"1225 CATHEDRAL ST\nBaltimore, MD\n"},{"name":"ROCCO'S CAPRICCIO","zip":"21202","hood":"Little Italy","stationId":"7","address":"242 HIGH ST\nBaltimore, MD\n"},{"name":"ROCK \"N\" ROBIN CAFE","zip":"21225","hood":"Brooklyn","stationId":"6","address":"3733 HANOVER ST\nBaltimore, MD\n"},{"name":"ROCKET TO VENUS (3358-3360)","zip":"21211","hood":"Hampden","stationId":"2","address":"3358 CHESTNUT AVE\nBaltimore, MD\n"},{"name":"RODOS  BAR","zip":"21231","hood":"Fells Point","stationId":"7","address":"719 BROADWAY\nBaltimore, MD\n"},{"name":"ROMAN'S PLACE","zip":"21224","hood":"Baltimore-Linwood","stationId":"7","address":"2 DECKER AVE\nBaltimore, MD\n"},{"name":"ROOTS UNLIMITED","zip":"21223","hood":"Penrose/Fayette Street Outreach","stationId":"9","address":"2148 VINE ST\nBaltimore, MD\n"},{"name":"ROPEWALK TAVERN","zip":"21230","hood":"Federal Hill","stationId":"6","address":"1209 CHARLES ST\nBaltimore, MD\n"},{"name":"ROSIE'S","zip":"21223","hood":"Carrollton Ridge","stationId":"8","address":"482 BENTALOU ST\nBaltimore, MD\n"},{"name":"ROSITAS RESTAURANT","zip":"21231","hood":"Fells Point","stationId":"7","address":"206 BROADWAY\nBaltimore, MD\n"},{"name":"ROYAL RESTAURANT","zip":"21202","hood":"Downtown","stationId":"1","address":"206 LEXINGTON ST\nBaltimore, MD\n"},{"name":"ROYAL VILLAGE","zip":"21220","hood":"Federal Hill","stationId":"6","address":"1033 LIGHT ST\nBaltimore, MD\n"},{"name":"ROY'S EAST ATLANTIC I, LIMITED PARTNERSHIP","zip":"21202","hood":"Inner Harbor","stationId":"7","address":"720 ALICEANNA ST\nBaltimore, MD\n"},{"name":"RUB BARBEQUE","zip":"21230","hood":"Riverside","stationId":"6","address":"1843 LIGHT STREET\nBaltimore, MD\n"},{"name":"RUBY TUESDAY","zip":"21239","hood":"Loch Raven","stationId":"3","address":"1728 2 PKWY\nBaltimore, MD\n"},{"name":"RUBY TUESDAY","zip":"21218","hood":"Charles Village","stationId":"2","address":"3003 CHARLES ST\nBaltimore, MD\n"},{"name":"RUMOR BAR AND GRILL","zip":"21205","hood":"McElderry Park","stationId":"7","address":"2600 MONUMENT ST\nBaltimore, MD\n"},{"name":"RUSSELL SERNOCKY AMERICAN LEGION POST #184","zip":"21223","hood":"New Southwest/Mount Clare","stationId":"6","address":"1410 PRATT ST\nBaltimore, MD\n"},{"name":"RUSTY SCUPPER","zip":"21230","hood":"Federal Hill","stationId":"1","address":"402 KEY HWY\nBaltimore, MD\n"},{"name":"RUTH E'S PLACE","zip":"21223","hood":"Millhill","stationId":"8","address":"2696 WILKENS Ave\nBaltimore, MD\n"},{"name":"RUTH'S CHRIS STEAK HOUSE","zip":"21202","hood":"Downtown","stationId":"1","address":"600 WATER ST\nBaltimore, MD\n"},{"name":"RUTH'S CHRIS STEAK HOUSE","zip":"21201","hood":"Inner Harbor","stationId":"1","address":"711 5 AVE\nBaltimore, MD\n"},{"name":"RUTLAND BAR","zip":"21213","hood":"Broadway East","stationId":"5","address":"1508 RUTLAND AVE\nBaltimore, MD\n"},{"name":"RYAN'S DAUGHTER","zip":"21212","hood":"Chinquapin Park-Belvedere","stationId":"2","address":"600 BELVEDERE AVE\nBaltimore, MD\n"},{"name":"RYLEIGH'S OYSTERS","zip":"21230","hood":"Federal Hill","stationId":"6","address":"36 CROSS ST\nBaltimore, MD\n"},{"name":"S.O.S BAR & LOUNGE","zip":"21224","hood":"Baltimore-Linwood","stationId":"7","address":"2511 FAYETTE ST\nBaltimore, MD\n"},{"name":"SABATINO'S RESTAURANT","zip":"21202","hood":"Little Italy","stationId":"7","address":"901 FAWN ST\nBaltimore, MD\n"},{"name":"saigon remembered restaurant","zip":"21212","hood":"Mid-Govans","stationId":"2","address":"5857 york rd\nBaltimore, MD\n"},{"name":"SAINT BENEDICT BOOSTER CLUB","zip":"21223","hood":"Millhill","stationId":"8","address":"2612 WILKENS AVE\nBaltimore, MD\n"},{"name":"SALSA RICO","zip":"21210","hood":"Loyola/Notre Dame","stationId":"2","address":"4501 CHARLES ST\nBaltimore, MD\n"},{"name":"SALSARITA'S FRESH CANTINA","zip":"21201","hood":"Downtown","stationId":"1","address":"324 BALTIMORE ST\nBaltimore, MD\n"},{"name":"SALT","zip":"21231","hood":"Upper Fells Point","stationId":"7","address":"2127 PRATT ST\nBaltimore, MD\n"},{"name":"SAMMY'S TRATTORIA","zip":"21201","hood":"Mid-Town Belvedere","stationId":"1","address":"1200 CHARLES ST\nBaltimore, MD\n"},{"name":"SAMOS RESTAURANT","zip":"21224","hood":"Greektown","stationId":"7","address":"600 OLDHAM ST\nBaltimore, MD\n"},{"name":"SAMPSON'S RESTAURANT","zip":"21223","hood":"Poppleton","stationId":"9","address":"946 FAYETTE ST\nBaltimore, MD\n"},{"name":"SAM'S BAGELS","zip":"21230","hood":"Federal Hill","stationId":"6","address":"915 LIGHT ST\nBaltimore, MD\n"},{"name":"SAND MAN","zip":"21224","hood":"Canton","stationId":"7","address":"708 BAYLIS ST\nBaltimore, MD\n"},{"name":"SANDPIPER","zip":"21223","hood":"Poppleton","stationId":"9","address":"1126 BALTIMORE ST\nBaltimore, MD\n"},{"name":"SANDY'S CAFE","zip":"21224","hood":"Baltimore Highlands","stationId":"7","address":"3601 PULASKI HWY\nBaltimore, MD\n"},{"name":"SANTA ANA RESTURANT","zip":"21231","hood":"Fells Point","stationId":"7","address":"246 BROADWAY\nBaltimore, MD\n"},{"name":"SBARRO INC.","zip":"21202","hood":"Inner Harbor","stationId":"1","address":"200 PRATT ST\nBaltimore, MD\n"},{"name":"SBARRO ITALIAN EATERY","zip":"21224","hood":"Pulaski Industrial Area","stationId":"7","address":"5625 O DONNELL ST\nBaltimore, MD\n"},{"name":"SCHAEFER'S BAR & RESTAURANT","zip":"21230","hood":"SBIC","stationId":"6","address":"121 RANDALL ST\nBaltimore, MD\n"},{"name":"SCORES","zip":"21202","hood":"Penn-Fallsway","stationId":"5","address":"615 FALLSWAY\nBaltimore, MD\n"},{"name":"serdenes restaurant","zip":"21205","hood":"Pulaski Industrial Area","stationId":"7","address":"5603 pulaski hwy\nBaltimore, MD\n"},{"name":"S'GHETTI EDDIE'S","zip":"21210","hood":"Evergreen","stationId":"2","address":"414 COLD SPRING LN\nBaltimore, MD\n"},{"name":"SHAFFERS","zip":"21230","hood":"Washington Village","stationId":"6","address":"1184 CLEVELAND ST\nBaltimore, MD\n"},{"name":"SHAHRAZAD'S INTERNATIONAL NEO-SOUL","zip":"21230","hood":"Washington Village","stationId":"6","address":"771 WASHINGTON BLVD\nBaltimore, MD\n"},{"name":"SHANE'S SANDWICH SHOP","zip":"21201","hood":"Downtown","stationId":"1","address":"142 FAYETTE ST\nBaltimore, MD\n"},{"name":"SHARKY'S BAR & GRILL","zip":"21224","hood":"Canton","stationId":"7","address":"2819 5 AVE\nBaltimore, MD\n"},{"name":"SHED ROW","zip":"21231","hood":"Upper Fells Point","stationId":"7","address":"1901 GOUGH ST\nBaltimore, MD\n"},{"name":"SHELDON'S LOUNGE","zip":"21206","hood":"Belair-Edison","stationId":"3","address":"4325 BELAIR RD\nBaltimore, MD\n"},{"name":"SHERATON BALTIMORE CITY CTR HOTEL (BANQUET)","zip":"21201","hood":"Downtown","stationId":"1","address":"101 FAYETTE ST\nBaltimore, MD\n"},{"name":"SHERATON INNER HARBOR HOTEL - ORIOLES GRILL","zip":"21201","hood":"Inner Harbor","stationId":"1","address":"300 CHARLES ST\nBaltimore, MD\n"},{"name":"SHERATON INNER HARBOR HOTEL -EMPLOYEE'S CAFETERIA","zip":"21201","hood":"Inner Harbor","stationId":"1","address":"300 CHARLES ST\nBaltimore, MD\n"},{"name":"SHERATON INNER HARBOR HOTEL-MAIN KITCHEN","zip":"21201","hood":"Inner Harbor","stationId":"1","address":"300 CHARLES ST\nBaltimore, MD\n"},{"name":"SHERRIES","zip":"21224","hood":"Baltimore Highlands","stationId":"7","address":"3821 PULASKI HWY\nBaltimore, MD\n"},{"name":"SHERRY'S PLACE","zip":"21231","hood":"Fells Point","stationId":"7","address":"238 BROADWAY\nBaltimore, MD\n"},{"name":"SHIRLEY'S  HONEY HOLE","zip":"21213","hood":"Broadway East","stationId":"5","address":"2300 OLIVER ST\nBaltimore, MD\n"},{"name":"SHORTY'S","zip":"21224","hood":"Canton","stationId":"7","address":"3301 FOSTER AVE\nBaltimore, MD\n"},{"name":"SHUCKERS OF FELLS POINT","zip":"21231","hood":"Fells Point","stationId":"7","address":"1629 THAMES ST\nBaltimore, MD\n"},{"name":"SHULA'S @ SHERATON BALTIMORE CITY CTR HOTEL","zip":"21201","hood":"Downtown","stationId":"1","address":"101 FAYETTE ST\nBaltimore, MD\n"},{"name":"SIDE  BAR  (218-220)","zip":"21202","hood":"Downtown","stationId":"1","address":"218 lexington ST\nBaltimore, MD\n"},{"name":"SID'S TAVERN","zip":"21230","hood":"Washington Village","stationId":"6","address":"1100 WASHINGTON BLVD\nBaltimore, MD\n"},{"name":"SIGN OF THE TIMES  (137-39)","zip":"21224","hood":"Baltimore-Linwood","stationId":"7","address":"137 BELNORD AVE\nBaltimore, MD\n"},{"name":"SIG'S BAR","zip":"21231","hood":"Fells Point","stationId":"7","address":"628 BROADWAY\nBaltimore, MD\n"},{"name":"SILK ROAD EXPRESS-MATTIN CENTER  J H U","zip":"21218","hood":"Charles Village","stationId":"2","address":"3400 CHARLES ST\nBaltimore, MD\n"},{"name":"SILK'S TAVERN","zip":"21224","hood":"Canton","stationId":"7","address":"2641 HUDSON ST\nBaltimore, MD\n"},{"name":"SILVER STAR RESTAURANT/CARRYOUT","zip":"21218","hood":"East Baltimore Midway","stationId":"5","address":"801 BONAPARTE AVE\nBaltimore, MD\n"},{"name":"SIP & BITE RESTAURANT","zip":"21231","hood":"Canton","stationId":"7","address":"2200 BOSTON ST\nBaltimore, MD\n"},{"name":"SIR'S DELI","zip":"21202","hood":"Mid-Town Belvedere","stationId":"1","address":"1101 ST PAUL #101 ST\nBaltimore, MD\n"},{"name":"SISSON STREET SUBWAY","zip":"21211","hood":"Remington","stationId":"2","address":"2725 SISSON STREET\nBaltimore, MD\n"},{"name":"SISTA'  SANDRA'S INTERNATIONAL CUSINE","zip":"21215","hood":"Reisterstown Station","stationId":"4","address":"6212 REISTERSTOWN RD\nBaltimore, MD\n"},{"name":"SKEETER'S","zip":"21230","hood":"Morrell Park","stationId":"8","address":"2506 WASHINGTON BLVD\nBaltimore, MD\n"},{"name":"SKY LOUNGE/ TANGO TAPAS","zip":"21230","hood":"Federal Hill","stationId":"6","address":"1041 MARSHALL ST\nBaltimore, MD\n"},{"name":"SKYBOX BAR & GRILL","zip":"21230","hood":"Riverside","stationId":"6","address":"823 FORT AVE\nBaltimore, MD\n"},{"name":"SLAINTE IRISH PUB & RESTAURANT","zip":"21231","hood":"Fells Point","stationId":"7","address":"1700 THAMES ST\nBaltimore, MD\n"},{"name":"SLIDERS BAR & GRILL","zip":"21230","hood":"Inner Harbor","stationId":"6","address":"504 WASHINGTON BLVD\nBaltimore, MD\n"},{"name":"SLIM ACE OF CLUB","zip":"21206","hood":"Belair-Edison","stationId":"3","address":"4200 BELAIR RD\nBaltimore, MD\n"},{"name":"SLY FOX PUB","zip":"21230","hood":"Riverside","stationId":"6","address":"554 FORT AVE\nBaltimore, MD\n"},{"name":"SMEDLY'S","zip":"21231","hood":"Fells Point","stationId":"7","address":"600 WOLFE ST\nBaltimore, MD\n"},{"name":"smiley's tavern","zip":"21223","hood":"New Southwest/Mount Clare","stationId":"6","address":"1525 RAMSAY ST\nBaltimore, MD\n"},{"name":"SMITH PLACE","zip":"21218","hood":"East Baltimore Midway","stationId":"5","address":"2006 HARFORD RD\nBaltimore, MD\n"},{"name":"SMITTIE'S BAR & LOUNGE","zip":"21216","hood":"Coppin Heights/Ash-Co-East","stationId":"9","address":"1660 WARWICK AVE\nBaltimore, MD\n"},{"name":"SOBO CAFE'  (6-8 W. CROSS ST.)","zip":"21230","hood":"Federal Hill","stationId":"6","address":"6 CROSS ST\nBaltimore, MD\n"},{"name":"SODEXHO  sunpapers","zip":"21225","hood":"Port Covington","stationId":"6","address":"300 CROMWELL ST\nBaltimore, MD\n"},{"name":"SODEXHO MANAGEMENT, INC.","zip":"21230","hood":"Carroll - Camden Industrial Area","stationId":"6","address":"1800 WASHINGTON BLVD\nBaltimore, MD\n"},{"name":"SODEXHO MANAGEMENT. INC","zip":"21202","hood":"Mount Vernon","stationId":"1","address":"501 CALVERT ST\nBaltimore, MD\n"},{"name":"SODEXHO/ FEDERAL RESERVE BANK","zip":"21201","hood":"Otterbein","stationId":"6","address":"502 SHARP ST\nBaltimore, MD\n"},{"name":"SOFI'S CREPES","zip":"21202","hood":"Downtown","stationId":"1","address":"333 charles ST\nBaltimore, MD\n"},{"name":"SONAR","zip":"21202","hood":"Downtown","stationId":"1","address":"407 SARATOGA ST\nBaltimore, MD\n"},{"name":"SON-SON LIQUOR & TAVERN","zip":"21201","hood":"Downtown","stationId":"1","address":"308 EUTAW ST\nBaltimore, MD\n"},{"name":"SOTTO SOPRA","zip":"21201","hood":"Downtown","stationId":"1","address":"405 CHARLES ST\nBaltimore, MD\n"},{"name":"SOUL SOURCE","zip":"21223","hood":"Midtown-Edmondson","stationId":"9","address":"2101 EDMONDSON AVE\nBaltimore, MD\n"},{"name":"SOUP'S ON BALTIMORE","zip":"21201","hood":"Mid-Town Belvedere","stationId":"1","address":"11 PRESTON STREET\nBaltimore, MD\n"},{"name":"6 ACCENTS","zip":"21231","hood":"Fells Point","stationId":"7","address":"814 BROADWAY\nBaltimore, MD\n"},{"name":"SOUTHSIDE SALOON","zip":"21230","hood":"Riverside","stationId":"6","address":"430 FORT AVE\nBaltimore, MD\n"},{"name":"SOUVLAKI  PLACE","zip":"21224","hood":"Greektown","stationId":"7","address":"4706 5 ave\nBaltimore, MD\n"},{"name":"SPARTAN PIZZERIA RESTAURANT","zip":"21224","hood":"Highlandtown","stationId":"7","address":"3600 5 AVE\nBaltimore, MD\n"},{"name":"SPEAKEASY SALOON","zip":"21224","hood":"Canton","stationId":"7","address":"2840 O DONNELL ST\nBaltimore, MD\n"},{"name":"SPECTRUM CATERING","zip":"21201","hood":"Downtown","stationId":"1","address":"12 EUTAW ST\nBaltimore, MD\n"},{"name":"SPIRITS & MORE","zip":"21223","hood":"Penrose/Fayette Street Outreach","stationId":"9","address":"255 PAYSON ST\nBaltimore, MD\n"},{"name":"SPIRITS TAVERN","zip":"21231","hood":"Upper Fells Point","stationId":"7","address":"1901 BANK ST\nBaltimore, MD\n"},{"name":"SPIRITS WEST,INC","zip":"21223","hood":"Millhill","stationId":"8","address":"2601 WILKENS AVE\nBaltimore, MD\n"},{"name":"SPOONS COFFEE","zip":"21230","hood":"Federal Hill","stationId":"6","address":"24 CROSS ST\nBaltimore, MD\n"},{"name":"SPORTS CAFE","zip":"21224","hood":"Canton","stationId":"7","address":"1224 CLINTON ST\nBaltimore, MD\n"},{"name":"SPORTS PALACE","zip":"21215","hood":"Pimlico Good Neighbors","stationId":"4","address":"Hayward Ave\nBaltimore, MD\n"},{"name":"SPORTSMAN LOUNGE BAR","zip":"21207","hood":"Howard Park","stationId":"4","address":"4725 GWYNN OAK AVE\nBaltimore, MD\n"},{"name":"SPORTSMAN SPOT","zip":"21224","hood":"Greektown","stationId":"7","address":"501 LEHIGH ST\nBaltimore, MD\n"},{"name":"SPORTSTERS, INC.","zip":"21223","hood":"Carrollton Ridge","stationId":"8","address":"2148 WILKENS AVE\nBaltimore, MD\n"},{"name":"ST. MARY'S (118-120)","zip":"21218","hood":"Charles Village","stationId":"2","address":"118 25TH ST\nBaltimore, MD\n"},{"name":"STADIUM LOUNGE","zip":"21218","hood":"Oakenshawe","stationId":"2","address":"3351 53 GREENMOUNT AVE\nBaltimore, MD\n"},{"name":"STAGE DOOR/ENCORE","zip":"21202","hood":"Downtown","stationId":"1","address":"5 COMMERCE ST\nBaltimore, MD\n"},{"name":"STALKING HORSE","zip":"21230","hood":"Federal Hill","stationId":"6","address":"26 CROSS ST\nBaltimore, MD\n"},{"name":"STANLEY'S DRIVE INN","zip":"21205","hood":"Orangeville","stationId":"5","address":"4215 MONUMENT ST\nBaltimore, MD\n"},{"name":"STARBUCKS","zip":"21202","hood":"Inner Harbor","stationId":"1","address":"301 LIGHT ST\nBaltimore, MD\n"},{"name":"STARBUCKS  COFFEE #746","zip":"21209","hood":"Sabina-Mattfeldt","stationId":"2","address":"1340 SMITH AVE\nBaltimore, MD\n"},{"name":"STARBUCKS COFFEE","zip":"21224","hood":"Canton","stationId":"7","address":"2400 BOSTON ST\nBaltimore, MD\n"},{"name":"STARBUCKS COFFEE","zip":"21218","hood":"Charles Village","stationId":"2","address":"3201 ST PAUL ST\nBaltimore, MD\n"},{"name":"STARBUCKS COFFEE COMPANY","zip":"21201","hood":"Downtown","stationId":"1","address":"1 EUTAW ST\nBaltimore, MD\n"},{"name":"STARBUCKS CORPORATION","zip":"21201","hood":"Mid-Town Belvedere","stationId":"1","address":"1209 CHARLES ST\nBaltimore, MD\n"},{"name":"STARLITE LOUNGE","zip":"21217","hood":"Shipley Hill","stationId":"8","address":"2701 FAIRMOUNT AVE\nBaltimore, MD\n"},{"name":"STARTERS TAVERN","zip":"21230","hood":"Cherry Hill","stationId":"6","address":"3311 ANNAPOLIS RD\nBaltimore, MD\n"},{"name":"STATION NORTH ARTS CAF","zip":"21201","hood":"Charles North","stationId":"1","address":"1816 CHARLES ST\nBaltimore, MD\n"},{"name":"STEELWORKERS HOLDING COMPANY","zip":"21224","hood":"Pulaski Industrial Area","stationId":"7","address":"540 DUNDALK AVE\nBaltimore, MD\n"},{"name":"STEEPLE CHASE II","zip":"21213","hood":"Biddle Street","stationId":"5","address":"2401 CHASE ST\nBaltimore, MD\n"},{"name":"STOCKMARKET BAR","zip":"21225","hood":"Brooklyn","stationId":"6","address":"3538 HANOVER ST\nBaltimore, MD\n"},{"name":"SUBWAY","zip":"21213","hood":"Oliver","stationId":"5","address":"1400 NORTH AVE\nBaltimore, MD\n"},{"name":"SUBWAY","zip":"21251","hood":"Stonewood-Pentwood-Winston","stationId":"3","address":"1700 COLDSPRING LN\nBaltimore, MD\n"},{"name":"subway","zip":"21202","hood":"Downtown","stationId":"1","address":"200 lexington st\nBaltimore, MD\n"},{"name":"SUBWAY","zip":"21230","hood":"Lakeland","stationId":"6","address":"2149 PATAPSCO AVE\nBaltimore, MD\n"},{"name":"SUBWAY","zip":"21202","hood":"Downtown","stationId":"1","address":"423 BALTIMORE ST\nBaltimore, MD\n"},{"name":"SUBWAY","zip":"21287","hood":"Dunbar-Broadway","stationId":"5","address":"600 WOLFE ST\nBaltimore, MD\n"},{"name":"SUBWAY","zip":"21229","hood":"Violetville","stationId":"8","address":"900 CATON AVE\nBaltimore, MD\n"},{"name":"SUBWAY  RESTAURANT","zip":"21231","hood":"Fells Point","stationId":"7","address":"632 BROADWAY\nBaltimore, MD\n"},{"name":"SUBWAY 1301 N. CHARLES ST","zip":"21201","hood":"Mid-Town Belvedere","stationId":"1","address":"1301 CHARLES ST\nBaltimore, MD\n"},{"name":"SUGAR HILL TAVERN & PKG.","zip":"21217","hood":"Penn North","stationId":"9","address":"2361 DRUID HILL AVE\nBaltimore, MD\n"},{"name":"SUN FLOWER DELI","zip":"21218","hood":"Charles Village","stationId":"2","address":"2436 CHARLES ST\nBaltimore, MD\n"},{"name":"SUN HING CHINESE FOOD CARRYOUT","zip":"21230","hood":"SBIC","stationId":"6","address":"1451 LIGHT ST\nBaltimore, MD\n"},{"name":"SUNLIGHT LOUNGE","zip":"21231","hood":"Fells Point","stationId":"7","address":"1713 5 AVE\nBaltimore, MD\n"},{"name":"SURN-N-JOE\"S","zip":"21210","hood":"Loyola/Notre Dame","stationId":"2","address":"4501 CHARLES ST\nBaltimore, MD\n"},{"name":"SURVIVOR'S SPORTS BAR (606-08)","zip":"21225","hood":"Brooklyn","stationId":"6","address":"606 PATAPSCO AVE\nBaltimore, MD\n"},{"name":"SUSHI-SAN RESTAURANT","zip":"21224","hood":"Canton","stationId":"7","address":"2748 LIGHTHOUSE POINT\nBaltimore, MD\n"},{"name":"SUZIE' SOBA","zip":"21202","hood":"Downtown","stationId":"1","address":"7 CALVERT ST\nBaltimore, MD\n"},{"name":"SUZIE'S SOBA","zip":"21211","hood":"Hampden","stationId":"2","address":"1009 36TH ST\nBaltimore, MD\n"},{"name":"SWEET MELON CAF","zip":"21202","hood":"Downtown","stationId":"1","address":"111 CHARLES ST\nBaltimore, MD\n"},{"name":"SWEET RETREAT CAF","zip":"21218","hood":"Charles Village","stationId":"2","address":"3215 CHARLES ST\nBaltimore, MD\n"},{"name":"SZE-CHUAN RESTAURANT","zip":"21230","hood":"Federal Hill","stationId":"6","address":"1125 CHARLES ST\nBaltimore, MD\n"},{"name":"T N C. INC. (4106-4108)","zip":"21229","hood":"Irvington","stationId":"8","address":"4106 FREDERICK AVE\nBaltimore, MD\n"},{"name":"T.D.F. CORPORATION","zip":"21229","hood":"Violetville","stationId":"8","address":"1401 BLOOMFIELD AVE\nBaltimore, MD\n"},{"name":"TABRIZI'S","zip":"21230","hood":"Inner Harbor","stationId":"6","address":"500 HARBORVIEW DR\nBaltimore, MD\n"},{"name":"TACO BELL","zip":"21224","hood":"Ellwood Park/Monument","stationId":"7","address":"3319 PULASKI HWY\nBaltimore, MD\n"},{"name":"TACO BELL & LONG JOHN SILVERS","zip":"21230","hood":"Lakeland","stationId":"6","address":"3110 HOLLINS FERRY RD\nBaltimore, MD\n"},{"name":"TACO FIESTA","zip":"21202","hood":"Inner Harbor","stationId":"7","address":"618 EXETER ST\nBaltimore, MD\n"},{"name":"TAKI'S PIZZA CARRYOUT RESTAURANT","zip":"21231","hood":"Fells Point","stationId":"7","address":"527 BROADWAY\nBaltimore, MD\n"},{"name":"TALAY THAI GRILLE","zip":"21231","hood":"Fells Point","stationId":"7","address":"1911 ALICEANNA ST\nBaltimore, MD\n"},{"name":"TALKING HEAD CLUB","zip":"21202","hood":"Downtown","stationId":"1","address":"203 DAVIS ST\nBaltimore, MD\n"},{"name":"TAMBER'S","zip":"21218","hood":"Charles Village","stationId":"2","address":"3327 ST PAUL ST\nBaltimore, MD\n"},{"name":"TAM-TAM","zip":"21212","hood":"Mid-Govans","stationId":"2","address":"5722 YORK RD\nBaltimore, MD\n"},{"name":"TAPAS TEATRO CAF","zip":"21201","hood":"Charles North","stationId":"1","address":"1711 CHARLES ST\nBaltimore, MD\n"},{"name":"TASTE","zip":"21212","hood":"Mid-Govans","stationId":"2","address":"510 BELVEDERE AVE\nBaltimore, MD\n"},{"name":"TASTE INTERNATIONAL RESTAURANT","zip":"21226","hood":"Curtis Bay Industrial Area","stationId":"6","address":"4314 CURTIS AVE\nBaltimore, MD\n"},{"name":"TASTE INTERNATIONAL RESTAURANT & LOUNGE/BAR","zip":"-21226","hood":"Curtis Bay Industrial Area","stationId":"6","address":"4314 CURTIS AVENUE\nBaltimore, MD\n"},{"name":"TAYLOR'S 5000 TAVERN","zip":"21226","hood":"Curtis Bay","stationId":"6","address":"5000 PENNINGTON AVE\nBaltimore, MD\n"},{"name":"TAYLORS EAST","zip":"21213","hood":"Berea","stationId":"5","address":"1201 POTOMAC ST\nBaltimore, MD\n"},{"name":"TEN-O-SIX","zip":"21230","hood":"Federal Hill","stationId":"6","address":"1006 LIGHT ST\nBaltimore, MD\n"},{"name":"TEQUILA SUNSET","zip":"21217","hood":"Penn North","stationId":"9","address":"2705 PENNSYLVANIA AVE\nBaltimore, MD\n"},{"name":"THAI  LANDING","zip":"21201","hood":"Mid-Town Belvedere","stationId":"1","address":"1207 CHARLES ST\nBaltimore, MD\n"},{"name":"THAI ARROY RESTAURANT","zip":"21230","hood":"Federal Hill","stationId":"6","address":"1019 LIGHT ST\nBaltimore, MD\n"},{"name":"THAI RESTAURANT","zip":"21218","hood":"Oakenshawe","stationId":"2","address":"3316 GREENMOUNT AVE\nBaltimore, MD\n"},{"name":"THE 8 x 10","zip":"21230","hood":"Federal Hill","stationId":"6","address":"10 CROSS ST\nBaltimore, MD\n"},{"name":"THE ADMIRAL'S CUP","zip":"21231","hood":"Fells Point","stationId":"7","address":"1645 THAMES ST\nBaltimore, MD\n"},{"name":"THE AMERICAN LEGION","zip":"21230","hood":"Morrell Park","stationId":"8","address":"1508 DESOTO RD\nBaltimore, MD\n"},{"name":"THE BALTIMORE SYMPHONY ORCHESTRA","zip":"21202","hood":"Mid-Town Belvedere","stationId":"1","address":"1212 CATHEDRAL ST\nBaltimore, MD\n"},{"name":"THE BALTIMORE VETS ASSOC., INC. CHPT #451","zip":"21224","hood":"Holabird Industrial Park","stationId":"7","address":"6401 BECKLEY ST\nBaltimore, MD\n"},{"name":"THE BICYCLE","zip":"21230","hood":"SBIC","stationId":"6","address":"1444 LIGHT ST\nBaltimore, MD\n"},{"name":"THE BISTRO","zip":"21231","hood":"Fells Point","stationId":"7","address":"1718 LANCASTER ST\nBaltimore, MD\n"},{"name":"THE BRASS ELEPHANT","zip":"21201","hood":"Mount Vernon","stationId":"1","address":"924 CHARLES ST\nBaltimore, MD\n"},{"name":"THE BREWER'S ART","zip":"21201","hood":"Mid-Town Belvedere","stationId":"1","address":"1106 CHARLES ST\nBaltimore, MD\n"},{"name":"THE BROOKSHIRE  INNER  HARBOR  SUITE  HOTEL","zip":"21202","hood":"Inner Harbor","stationId":"1","address":"120 LOMBARD ST\nBaltimore, MD\n"},{"name":"THE CANTON LIQUOR HOUSE","zip":"21231","hood":"Fells Point","stationId":"7","address":"1822 FLEET ST\nBaltimore, MD\n"},{"name":"THE CAPITAL GRILLE","zip":"21202","hood":"Inner Harbor","stationId":"1","address":"500 PRATT ST\nBaltimore, MD\n"},{"name":"THE CARIBBEAN AMERICAN HEAT","zip":"21207","hood":"Howard Park","stationId":"4","address":"4740 LIBERTY HEIGHTS AVE\nBaltimore, MD\n"},{"name":"THE CATS EYE PUB","zip":"21231","hood":"Fells Point","stationId":"7","address":"1730 THAMES ST\nBaltimore, MD\n"},{"name":"The Chameleon Caf‚'","zip":"21214","hood":"Lauraville","stationId":"3","address":"4341 harford rd\nBaltimore, MD\n"},{"name":"THE CHEESECAKE  FACTORY","zip":"21202","hood":"Inner Harbor","stationId":"1","address":"201 PRATT ST\nBaltimore, MD\n"},{"name":"THE CHINA DOLL","zip":"21201","hood":"Downtown","stationId":"1","address":"406 PARK AVE\nBaltimore, MD\n"},{"name":"THE CRAB PIT","zip":"21223","hood":"Gwynns Falls","stationId":"8","address":"2801 WILKENS AVE\nBaltimore, MD\n"},{"name":"THE DEN LLC","zip":"21218","hood":"Charles Village","stationId":"2","address":"3327 ST PAUL ST\nBaltimore, MD\n"},{"name":"THE DEPOT","zip":"21201","hood":"Charles North","stationId":"1","address":"1728 CHARLES ST\nBaltimore, MD\n"},{"name":"THE DRINKERY","zip":"21201","hood":"Mount Vernon","stationId":"1","address":"203 READ ST\nBaltimore, MD\n"},{"name":"THE EDGE BAR & LOUNGE","zip":"21213","hood":"Broadway East","stationId":"5","address":"2015 FEDERAL ST\nBaltimore, MD\n"},{"name":"THE EDGE BAR & LOUNGE - KITCHEN AREA","zip":"21213","hood":"Broadway East","stationId":"5","address":"2015 FEDERAL ST\nBaltimore, MD\n"},{"name":"THE ENGINEER'S SOCIETY OF BALTIMORE","zip":"21201","hood":"Mount Vernon","stationId":"1","address":"11 MOUNT VERNON PL\nBaltimore, MD\n"},{"name":"THE EVERGREEN","zip":"21210","hood":"Roland Park","stationId":"2","address":"501 COLDSPRING LN\nBaltimore, MD\n"},{"name":"THE FAIRMOUNT INN","zip":"21224","hood":"Baltimore Highlands","stationId":"7","address":"3537 FAIRMOUNT AVE\nBaltimore, MD\n"},{"name":"THE GARDENVILLE CLUB","zip":"21206","hood":"Frankford","stationId":"3","address":"5405 RADECKE AVE\nBaltimore, MD\n"},{"name":"THE GARRETT LOUNGE","zip":"21218","hood":"Coldstream Homestead Montebello","stationId":"3","address":"2510 GARRETT AVE\nBaltimore, MD\n"},{"name":"THE GENTLEMAN'S GOLD CLUB","zip":"21205","hood":"Armistead Gardens","stationId":"7","address":"5801 PULASKI HWY\nBaltimore, MD\n"},{"name":"THE GIN  MILL","zip":"21224","hood":"Canton","stationId":"7","address":"2300 BOSTON ST\nBaltimore, MD\n"},{"name":"THE GLASS GRILL","zip":"21224","hood":"Eastwood","stationId":"7","address":"6804 5 AVE\nBaltimore, MD\n"},{"name":"THE GODDESS","zip":"21201","hood":"Downtown","stationId":"1","address":"36 EUTAW ST\nBaltimore, MD\n"},{"name":"THE GREENE TURTLE","zip":"21231","hood":"Fells Point","stationId":"7","address":"722 BROADWAY\nBaltimore, MD\n"},{"name":"THE HOLLOW BAR & GRILL","zip":"21212","hood":"Rosebank","stationId":"2","address":"5921 YORK RD\nBaltimore, MD\n"},{"name":"THE HORSE YOU CAME IN ON","zip":"21231","hood":"Fells Point","stationId":"7","address":"1626 THAMES ST\nBaltimore, MD\n"},{"name":"THE HUBCAP INN","zip":"21206","hood":"Cedmont","stationId":"3","address":"6003 BELAIR RD\nBaltimore, MD\n"},{"name":"THE IBIS TAVERN","zip":"21214","hood":"Westfield","stationId":"3","address":"6016 HARFORD RD\nBaltimore, MD\n"},{"name":"THE INNER HARBOR MARINA OF BALTIMORE, INC.","zip":"21230","hood":"Federal Hill","stationId":"1","address":"400 KEY HWY\nBaltimore, MD\n"},{"name":"THE LAUGHING PINT","zip":"21224","hood":"Highlandtown","stationId":"7","address":"3531 GOUGH ST\nBaltimore, MD\n"},{"name":"THE LIFE OF REILLY IRISH PUB & RESTAURANT","zip":"21231","hood":"Butcher's Hill","stationId":"7","address":"2031 FAIRMOUNT AVE\nBaltimore, MD\n"},{"name":"THE LODGE BAR","zip":"21202","hood":"Downtown","stationId":"1","address":"10 MARKET PL\nBaltimore, MD\n"},{"name":"THE LOOP","zip":"21229","hood":"Irvington","stationId":"8","address":"4238 FREDERICK AVE\nBaltimore, MD\n"},{"name":"THE MORNING EDITION CAFE","zip":"21231","hood":"Patterson Place","stationId":"7","address":"153 PATTERSON PARK AVE\nBaltimore, MD\n"},{"name":"THE NEW 2 O'CLOCK CLUB","zip":"21202","hood":"Downtown","stationId":"1","address":"414 BALTIMORE ST\nBaltimore, MD\n"},{"name":"THE NEW BUCKETT'S LOUNGE","zip":"21213","hood":"Broadway East","stationId":"5","address":"1432 CHESTER ST\nBaltimore, MD\n"},{"name":"THE NEW CASSELL (KITCHEN AREA)","zip":"21224","hood":"Baltimore-Linwood","stationId":"7","address":"1 CURLEY ST\nBaltimore, MD\n"},{"name":"THE NEW CASSELL'S","zip":"21224","hood":"Baltimore-Linwood","stationId":"7","address":"1 CURLEY ST\nBaltimore, MD\n"},{"name":"THE NEW HAVEN LOUNGE","zip":"21218","hood":"Hillen","stationId":"3","address":"1552 HAVENWOOD RD\nBaltimore, MD\n"},{"name":"THE NEW WYMAN PARK RESTAURANT","zip":"21218","hood":"Charles Village","stationId":"2","address":"138 25TH ST\nBaltimore, MD\n"},{"name":"THE NORTHEAST TAVERN","zip":"21214","hood":"Westfield","stationId":"3","address":"6016 HARFORD RD\nBaltimore, MD\n"},{"name":"THE OCEANAIRE SEAFOOD ROOM","zip":"21202","hood":"Inner Harbor","stationId":"7","address":"801 ALICEANNA ST\nBaltimore, MD\n"},{"name":"THE OPPOSITE SIDEWALK SALOON","zip":"21223","hood":"Hollins Market","stationId":"6","address":"132 CAREY ST\nBaltimore, MD\n"},{"name":"THE PLACE","zip":"21201","hood":"Downtown","stationId":"1","address":"315 FRANKLIN ST\nBaltimore, MD\n"},{"name":"THE PREAKNESS LOUNGE","zip":"21215","hood":"Greenspring","stationId":"2","address":"4103 PIMLICO RD\nBaltimore, MD\n"},{"name":"THE PRIME RIB, INCORPORATED","zip":"21202","hood":"Mid-Town Belvedere","stationId":"1","address":"1101 CALVERT ST\nBaltimore, MD\n"},{"name":"THE QUEST","zip":"21224","hood":"Brewers Hill","stationId":"7","address":"3607 FLEET ST\nBaltimore, MD\n"},{"name":"THE RED STAR BAR & GRILL","zip":"21231","hood":"Fells Point","stationId":"7","address":"906 WOLFE ST\nBaltimore, MD\n"},{"name":"THE ROWAN TREE","zip":"21230","hood":"SBIC","stationId":"6","address":"1633 CHARLES ST\nBaltimore, MD\n"},{"name":"THE SHAMROCK INN","zip":"21214","hood":"Westfield","stationId":"3","address":"6044 HARFORD RD\nBaltimore, MD\n"},{"name":"THE WALTERS ART GALLERY","zip":"21201","hood":"Otterbein","stationId":"6","address":"600 CHARLES ST\nBaltimore, MD\n"},{"name":"THE WATERFRONT HOTEL","zip":"21231","hood":"Fells Point","stationId":"7","address":"1710 THAMES ST\nBaltimore, MD\n"},{"name":"THE WHARF RAT CAMDEN YARDS","zip":"21201","hood":"Inner Harbor","stationId":"1","address":"206 PRATT ST\nBaltimore, MD\n"},{"name":"THE WHISPERING WIND, LLC","zip":"21224","hood":"Baltimore-Linwood","stationId":"7","address":"2711 FAYETTE ST\nBaltimore, MD\n"},{"name":"THE WINE MARKET (SUITE 135)","zip":"21230","hood":"Riverside","stationId":"6","address":"921 FORT AVE\nBaltimore, MD\n"},{"name":"THE YABBA POT","zip":"21218","hood":"Charles Village","stationId":"2","address":"2433 ST PAUL ST\nBaltimore, MD\n"},{"name":"THIRSTY'S II","zip":"21206","hood":"Cedmont","stationId":"3","address":"6037 BELAIR RD\nBaltimore, MD\n"},{"name":"THORNTON'S PUB","zip":"21230","hood":"Locust Point","stationId":"6","address":"1538 CLEMENT ST\nBaltimore, MD\n"},{"name":"THREE  ACE'S","zip":"21213","hood":"Belair-Edison","stationId":"3","address":"3534 belair RD\nBaltimore, MD\n"},{"name":"THREE KINGS OF EGYPT","zip":"21230","hood":"Federal Hill","stationId":"6","address":"1027 LIGHT ST\nBaltimore, MD\n"},{"name":"THUMPER'S","zip":"21226","hood":"Curtis Bay Industrial Area","stationId":"6","address":"4600 CURTIS AVE\nBaltimore, MD\n"},{"name":"TIBURZI'S CAF LLC","zip":"21224","hood":"Canton","stationId":"7","address":"900 KENWOOD AVE\nBaltimore, MD\n"},{"name":"TIJUANA TACOS & DELI","zip":"21231","hood":"Canton","stationId":"7","address":"2224 FLEET ST\nBaltimore, MD\n"},{"name":"TIME CAF","zip":"21230","hood":"Riverside","stationId":"6","address":"1107 LIGHT ST\nBaltimore, MD\n"},{"name":"TIMOTHY DEAN BISTRO","zip":"21231","hood":"Upper Fells Point","stationId":"7","address":"1717 5 AVE\nBaltimore, MD\n"},{"name":"TIO PEPE RESTAURANTE","zip":"21202","hood":"Mount Vernon","stationId":"1","address":"10 FRANKLIN ST\nBaltimore, MD\n"},{"name":"TIR NA NOG BAR & GRILL","zip":"21202","hood":"Inner Harbor","stationId":"1","address":"201 PRATT ST\nBaltimore, MD\n"},{"name":"TODD CONNERS","zip":"21231","hood":"Fells Point","stationId":"7","address":"700 BROADWAY\nBaltimore, MD\n"},{"name":"TOM & OLIVE'S CAFE","zip":"21205","hood":"Madison-Eastend","stationId":"5","address":"2942 MONUMENT ST\nBaltimore, MD\n"},{"name":"TOMMY'S LOUNGE","zip":"21224","hood":"Highlandtown","stationId":"7","address":"200 CONKLING ST\nBaltimore, MD\n"},{"name":"TOM'S BAR","zip":"21224","hood":"Greektown","stationId":"7","address":"4719 5 AVE\nBaltimore, MD\n"},{"name":"TONY'S PLACE","zip":"21218","hood":"Waverly","stationId":"2","address":"3801 OLD YORK RD\nBaltimore, MD\n"},{"name":"TORAIN'S  HIDE-A-WAY","zip":"21213","hood":"Broadway East","stationId":"5","address":"1701 ELLSWORTH ST\nBaltimore, MD\n"},{"name":"TOWER TERRACE RESTAURANT","zip":"21205","hood":"Dunbar-Broadway","stationId":"5","address":"600 WOLFE ST\nBaltimore, MD\n"},{"name":"TRACEY'S  LOUNGE","zip":"21224","hood":"Greektown","stationId":"7","address":"301 MACON ST\nBaltimore, MD\n"},{"name":"TRAVELERS LOUNGE","zip":"21224","hood":"Holabird Industrial Park","stationId":"7","address":"6500 HOLABIRD AVE\nBaltimore, MD\n"},{"name":"TREMONT GRAND CAF","zip":"21202","hood":"Downtown","stationId":"1","address":"225 CHARLES ST\nBaltimore, MD\n"},{"name":"TREMONT HOTEL/8 EAST RESTAURANT","zip":"21202","hood":"Downtown","stationId":"1","address":"8 PLEASANT ST\nBaltimore, MD\n"},{"name":"TREMONT PLAZA DELI","zip":"21202","hood":"Downtown","stationId":"1","address":"222 ST PAUL PL\nBaltimore, MD\n"},{"name":"TREMPER INC.","zip":"21224","hood":"Canton","stationId":"7","address":"3242 FOSTER AVE\nBaltimore, MD\n"},{"name":"TRINIDAD ASSOCIATES","zip":"21215","hood":"Arlington","stationId":"4","address":"5402 PARK HEIGHTS AVE\nBaltimore, MD\n"},{"name":"TRIP PLACE","zip":"21201","hood":"Charles North","stationId":"1","address":"1813 CHARLES ST\nBaltimore, MD\n"},{"name":"TROPICAL TASTE RESTAURANT","zip":"21215","hood":"Woodmere","stationId":"4","address":"5205 REISTERSTOWN RD\nBaltimore, MD\n"},{"name":"TRUFFLES & TEA","zip":"21210","hood":"Cross Keys","stationId":"2","address":"5100 FALLS RD\nBaltimore, MD\n"},{"name":"TRUST CHINESE RESTAURANT","zip":"21230","hood":"Washington Village","stationId":"6","address":"758 WASHINGTON BLVD\nBaltimore, MD\n"},{"name":"TSUNAMI BALTIMORE","zip":"21213","hood":"Little Italy","stationId":"7","address":"1300 BANK ST\nBaltimore, MD\n"},{"name":"TUG'S RESTAURANT-TREMONT PLAZA HOTEL","zip":"21202","hood":"Downtown","stationId":"1","address":"222 ST PAUL PL\nBaltimore, MD\n"},{"name":"TURF BAR & LOUNGE","zip":"21201","hood":"Downtown","stationId":"1","address":"226 FAYETTE ST\nBaltimore, MD\n"},{"name":"TURNER'S CAFE","zip":"21230","hood":"Federal Hill","stationId":"6","address":"12 CROSS st\nBaltimore, MD\n"},{"name":"TURNTABLE LIMITED","zip":"21205","hood":"Middle East","stationId":"5","address":"2139 JEFFERSON ST\nBaltimore, MD\n"},{"name":"TWINS SUBWAY","zip":"21201","hood":"Downtown","stationId":"1","address":"1 HOWARD ST\nBaltimore, MD\n"},{"name":"TWO SISTERS GRILLE","zip":"21218","hood":"Charles Village","stationId":"2","address":"127 27TH ST\nBaltimore, MD\n"},{"name":"TYSON PLACE, INC.  ( A.K.A 227 W CHASE ST)","zip":"21201","hood":"Mid-Town Belvedere","stationId":"1","address":"870 PARK AVE\nBaltimore, MD\n"},{"name":"Tyson's Tavern","zip":"21231","hood":"Canton","stationId":"7","address":"2112 FLEET ST\nBaltimore, MD\n"},{"name":"TYSON'S TAVERN","zip":"21231","hood":"Canton","stationId":"7","address":"2112 FLEET ST\nBaltimore, MD\n"},{"name":"UNCLE LEE'S AT THE HARBOR","zip":"21202","hood":"Downtown","stationId":"1","address":"44 SOUTH ST\nBaltimore, MD\n"},{"name":"UNCLE WALT'S PLACE","zip":"21230","hood":"Morrell Park","stationId":"8","address":"2351 WASHINGTON BLVD\nBaltimore, MD\n"},{"name":"UNION HOLDING COMPANY","zip":"21224","hood":"Pulaski Industrial Area","stationId":"7","address":"550 DUNDALK AVE\nBaltimore, MD\n"},{"name":"UNITED AUTO WORKERS HOLDING COMPANY","zip":"21224","hood":"Greektown","stationId":"7","address":"1010 OLDHAM ST\nBaltimore, MD\n"},{"name":"UNIVERSAL SOCIAL CLUB","zip":"21205","hood":"Middle East","stationId":"5","address":"2253 MC ELDERRY ST\nBaltimore, MD\n"},{"name":"UPPER DECK","zip":"21201","hood":"Downtown","stationId":"1","address":"34 eutaw st\nBaltimore, MD\n"},{"name":"V I P CITY  (1833-35)","zip":"21223","hood":"Carrollton Ridge","stationId":"6","address":"1833 PRATT ST\nBaltimore, MD\n"},{"name":"v.f.w. post 2916","zip":"21225","hood":"Brooklyn","stationId":"6","address":"601 patapsco ave\nBaltimore, MD\n"},{"name":"VACCARO'S ITALIAN PASTRY SHOP, INC.","zip":"21202","hood":"Little Italy","stationId":"7","address":"222 ALBEMARLE ST\nBaltimore, MD\n"},{"name":"VALENTINO'S RESTAURANT,INC","zip":"21214","hood":"Westfield","stationId":"3","address":"6627 HARFORD RD\nBaltimore, MD\n"},{"name":"VELLEGGIA'S ITALIAN SEAFOOD RESTAURANT","zip":"21202","hood":"Little Italy","stationId":"7","address":"204 HIGH ST\nBaltimore, MD\n"},{"name":"VENICE TAVERN","zip":"21224","hood":"Highlandtown","stationId":"7","address":"339 CONKLING ST\nBaltimore, MD\n"},{"name":"VENUS PIZZERIA, INC.","zip":"21218","hood":"Guilford","stationId":"2","address":"3713 GREENMOUNT AVE\nBaltimore, MD\n"},{"name":"VERNELL'S ICE PARADISE","zip":"21217","hood":"Sandtown-Winchester","stationId":"9","address":"1135 MONROE ST\nBaltimore, MD\n"},{"name":"VFW POST #8509  - DONALD CRUMBLE,TRUSTEE","zip":"21202","hood":"Greenmount West","stationId":"5","address":"335 NORTH AVE\nBaltimore, MD\n"},{"name":"VIEN BENIDOS LOS CATRACHOS","zip":"21224","hood":"Greektown","stationId":"7","address":"5101 5 AVE\nBaltimore, MD\n"},{"name":"VINNY'S  CAFE","zip":"21224","hood":"Broening Manor","stationId":"7","address":"6212 HOLABIRD AVE\nBaltimore, MD\n"},{"name":"VISION BAR & TAVERN","zip":"21224","hood":"Kresson","stationId":"7","address":"110 HAVEN ST\nBaltimore, MD\n"},{"name":"VITO'S PIZZA","zip":"21212","hood":"Cedarcroft","stationId":"2","address":"6304 YORK RD\nBaltimore, MD\n"},{"name":"VULCAN BLAZERS, INC OF BALTIMORE CITY","zip":"21215","hood":"Liberty Square","stationId":"4","address":"2811 DRUID PARK DR\nBaltimore, MD\n"},{"name":"WAGON WHEEL INN","zip":"21237","hood":"Pulaski Industrial Area","stationId":"7","address":"823 POINT RD\nBaltimore, MD\n"},{"name":"WALT'S INN","zip":"21224","hood":"Canton","stationId":"7","address":"3201 O DONNELL ST\nBaltimore, MD\n"},{"name":"WAVERLY SOCIAL PLEASURE CLUB","zip":"21218","hood":"Better Waverly","stationId":"2","address":"920 3OTH ST\nBaltimore, MD\n"},{"name":"WEIDOG","zip":"21222","hood":"Graceland Park","stationId":"7","address":"6700 GERMAN HILL RD\nBaltimore, MD\n"},{"name":"WENDY'S","zip":"21223","hood":"Millhill","stationId":"8","address":"2339 FREDERICK AVE\nBaltimore, MD\n"},{"name":"WENDY'S","zip":"21215","hood":"Reisterstown Station","stationId":"4","address":"4200 PATTERSON AVE\nBaltimore, MD\n"},{"name":"WENDY'S  RESTAURANT","zip":"21201","hood":"Upton","stationId":"1","address":"901 McCulloh\nBaltimore, MD\n"},{"name":"WENDY'S #166","zip":"21224","hood":"Joseph Lee","stationId":"7","address":"6411 5 AVE\nBaltimore, MD\n"},{"name":"WENDY'S #87","zip":"21218","hood":"East Baltimore Midway","stationId":"5","address":"2045 HARFORD RD\nBaltimore, MD\n"},{"name":"WENDY'S OLD FASHIONED HAMBURGERS #96","zip":"21212","hood":"Homeland","stationId":"2","address":"5615 YORK RD\nBaltimore, MD\n"},{"name":"WENDY'S RESTAURANT","zip":"21215","hood":"Grove Park","stationId":"4","address":"4410 2 PKWY\nBaltimore, MD\n"},{"name":"WERNER'S RESTAURANT","zip":"21202","hood":"Downtown","stationId":"1","address":"231 REDWOOD ST\nBaltimore, MD\n"},{"name":"WESTSIDE INN","zip":"21223","hood":"Carrollton Ridge","stationId":"8","address":"328 BENTALOU ST\nBaltimore, MD\n"},{"name":"WHISPERS","zip":"21217","hood":"Sandtown-Winchester","stationId":"9","address":"1811 BAKER ST\nBaltimore, MD\n"},{"name":"WHISTLING OYSTER","zip":"21231","hood":"Fells Point","stationId":"7","address":"807 BROADWAY\nBaltimore, MD\n"},{"name":"WHITTEN'S  (4502-04)","zip":"21213","hood":"Claremont-Freedom","stationId":"3","address":"4502 ERDMAN AVE\nBaltimore, MD\n"},{"name":"WHITTEN'S II","zip":"21206","hood":"Frankford","stationId":"3","address":"5307 BELAIR RD\nBaltimore, MD\n"},{"name":"WILSON'S","zip":"21214","hood":"Lauraville","stationId":"3","address":"4537 HARFORD RD\nBaltimore, MD\n"},{"name":"WINDMILL/ MILOS","zip":"21224","hood":"Greektown","stationId":"7","address":"4617 5 AVE\nBaltimore, MD\n"},{"name":"WINKS HILLTOP GRILL","zip":"21224","hood":"Canton","stationId":"7","address":"834 CONKLING ST\nBaltimore, MD\n"},{"name":"WINSTON LOUNGE","zip":"21205","hood":"McElderry Park","stationId":"5","address":"2343 MONUMENT ST\nBaltimore, MD\n"},{"name":"WOODBERRY KITCHEN","zip":"21211","hood":"Woodberry","stationId":"2","address":"2010 CLIPPER PARK RD\nBaltimore, MD\n"},{"name":"WOODEN NICKLE LOUNGE","zip":"21218","hood":"East Baltimore Midway","stationId":"5","address":"2215 KIRK AVE\nBaltimore, MD\n"},{"name":"wozi lounge","zip":"21212","hood":"Guilford","stationId":"2","address":"4515 YORK RD\nBaltimore, MD\n"},{"name":"WYLIE  LIQUORS (3101-03)","zip":"21215","hood":"Central Park Heights","stationId":"4","address":"3101 WYLIE AVE\nBaltimore, MD\n"},{"name":"XANADU","zip":"21202","hood":"Downtown","stationId":"1","address":"10 CALVERT ST\nBaltimore, MD\n"},{"name":"XS","zip":"21201","hood":"Mid-Town Belvedere","stationId":"1","address":"1307 CHARLES ST\nBaltimore, MD\n"},{"name":"YELLOW BOWL CAF","zip":"21201","hood":"Johnston Square","stationId":"5","address":"1234 GREENMOUNT AVE\nBaltimore, MD\n"},{"name":"YELLOW BOWL RESTAURANT II","zip":"21215","hood":"Central Park Heights","stationId":"4","address":"5131 PARK HEIGHTS AVE\nBaltimore, MD\n"},{"name":"YELLOW DOG TAVERN","zip":"21224","hood":"Canton","stationId":"7","address":"700 POTOMAC ST\nBaltimore, MD\n"},{"name":"YETI RESTAURANT & CARRYOUT","zip":"21212","hood":"Rosebank","stationId":"2","address":"5926 YORK RD\nBaltimore, MD\n"},{"name":"YORK CLUB TAVERN","zip":"21212","hood":"Homeland","stationId":"2","address":"5407 YORK RD\nBaltimore, MD\n"},{"name":"YOUNG'S PLACE","zip":"21231","hood":"Middle East","stationId":"7","address":"2200 FAYETTE ST\nBaltimore, MD\n"},{"name":"ZEEBA LOUNGE","zip":"21230","hood":"Federal Hill","stationId":"6","address":"916 LIGHT ST\nBaltimore, MD\n"},{"name":"ZEN WEST ROADSIDE CANTINA","zip":"21212","hood":"Rosebank","stationId":"2","address":"5916 YORK RD\nBaltimore, MD\n"},{"name":"ZIASCOS","zip":"21231","hood":"Washington Hill","stationId":"7","address":"1313 PRATT ST\nBaltimore, MD\n"},{"name":"ZINK'S CAF","zip":"21213","hood":"Belair-Edison","stationId":"3","address":"3300 LAWNVIEW AVE\nBaltimore, MD\n"},{"name":"ZISSIMOS BAR","zip":"21211","hood":"Hampden","stationId":"2","address":"1023 36TH ST\nBaltimore, MD\n"},{"name":"ZORBAS","zip":"21224","hood":"Greektown","stationId":"7","address":"4710 5 Ave\nBaltimore, MD\n"}]
